{"type":"FeatureCollection","name":"1127_Heritage_Buildings","features":[{"type":"Feature","properties":{"id":1,"Building N":"كنيسة مار إشعيا","heritage_original_name":"مار إيشوعياب"},"geometry":{"type":"Point","coordinates":[43.1296167,36.3488791]}},{"type":"Feature","properties":{"id":2,"Building N":"كنيسة الطاهرة السريانية الكاثوليكية"},"geometry":{"type":"Point","coordinates":[43.1324989,36.3447433]}},{"type":"Feature","properties":{"id":3,"Building N":"دير الأعلى"},"geometry":{"type":"Point","coordinates":[43.1195789,36.3567724]}},{"type":"Feature","properties":{"id":4,"Building N":"كنيسة مار توما للسريان الكاثوليك"},"geometry":{"type":"Point","coordinates":[43.1257264,36.3408172]}},{"type":"Feature","properties":{"id":5,"Building N":"مسجد بنو سبت الصيرفي"},"geometry":{"type":"Point","coordinates":[43.1243657,36.339982]}},{"type":"Feature","properties":{"id":6,"Building N":"مسجد تل العبادة"},"geometry":{"type":"Point","coordinates":[43.121059,36.3462076]}},{"type":"Feature","properties":{"id":7,"Building N":"مسجد أبو حاضير"},"geometry":{"type":"Point","coordinates":[43.1265101,36.3431926]}},{"type":"Feature","properties":{"id":8,"Building N":"قبر العنز"},"geometry":{"type":"Point","coordinates":[43.1325716,36.3338898]}},{"type":"Feature","properties":{"id":9,"Building N":"مسجد الحر بن يوسف"},"geometry":{"type":"Point","coordinates":[43.1333692,36.3444604]}},{"type":"Feature","properties":{"id":10,"Building N":"المسجد الثقيف"},"geometry":{"type":"Point","coordinates":[43.1227728,36.3459056]}},{"type":"Feature","properties":{"id":11,"Building N":"مسجد سعيد بن عبد الملك"},"geometry":{"type":"Point","coordinates":[43.131862,36.3440678]}},{"type":"Feature","properties":{"id":12,"Building N":"قصر المنقوشة"},"geometry":{"type":"Point","coordinates":[43.1334801,36.343386]}},{"type":"Feature","properties":{"id":13,"Building N":"الجامع الأموي"},"geometry":{"type":"Point","coordinates":[43.1316191,36.3462861]}},{"type":"Feature","properties":{"id":14,"Building N":"كنيسة شمعون الصفا"},"geometry":{"type":"Point","coordinates":[43.1261414,36.3378201]}},{"type":"Feature","properties":{"id":16,"Building N":"كنيسة الطاهرة القديمة"},"geometry":{"type":"Point","coordinates":[43.1226079,36.3538844]}},{"type":"Feature","properties":{"id":17,"Building N":"كنيسة مار جرجس"},"geometry":{"type":"Point","coordinates":[43.1228081,36.3541609]}},{"type":"Feature","properties":{"id":18,"Building N":"مسجد أو معهد تاريخي قديم مرتبط بمحلة الشيخ فتحي"},"geometry":{"type":"Point","coordinates":[43.1266915,36.3418389]}},{"type":"Feature","properties":{"id":19,"Building N":"سوق الأربعاء الناشئ"},"geometry":{"type":"Point","coordinates":[43.1242887,36.3443479]}},{"type":"Feature","properties":{"id":20,"Building N":"كنيسة مار توما","heritage_original_name":"المعلم المبكر لكنيسة مار توما"},"geometry":{"type":"Point","coordinates":[43.1254099,36.340404]}},{"type":"Feature","properties":{"id":21,"Building N":"دار الست نعم"},"geometry":{"type":"Point","coordinates":[43.1289574,36.3377263]}},{"type":"Feature","properties":{"id":22,"Building N":"دار الامارة"},"geometry":{"type":"Point","coordinates":[43.1258486,36.3526615]}},{"type":"Feature","properties":{"id":23,"Building N":"جامع النبي جرجيس","heritage_original_name":"ضريح النبي جرجيس"},"geometry":{"type":"Point","coordinates":[43.1301987,36.3443105]}},{"type":"Feature","properties":{"id":24,"Building N":"مرقد الامام يحيى ابو القاسم","heritage_original_name":"مرقد يحيى ابن القاسم"},"geometry":{"type":"Point","coordinates":[43.1232282,36.3549456]}},{"type":"Feature","properties":{"id":25,"Building N":"مشهد الامام الباهر"},"geometry":{"type":"Point","coordinates":[43.1206724,36.3444579]}},{"type":"Feature","properties":{"id":26,"Building N":"مرقد الامام عون الدين"},"geometry":{"type":"Point","coordinates":[43.1307873,36.3387947]}},{"type":"Feature","properties":{"id":27,"Building N":"مرقد زيد بن علي"},"geometry":{"type":"Point","coordinates":[43.1264826,36.335123]}},{"type":"Feature","properties":{"id":35,"Building N":"قلعة باشطابيا"},"geometry":{"type":"Point","coordinates":[43.1219579,36.3560492]}},{"type":"Feature","geometry":{"type":"MultiPolygon","coordinates":[[[[43.1250532,36.3428557],[43.1253818,36.3422658],[43.1264347,36.3424898],[43.1261285,36.3431694],[43.1250532,36.3428557]]]]},"properties":{"id":36,"Building N":"الجامع النوري","heritage_identity":"A03:1","heritage_year":1127,"heritage_added_from_workbook":"Heritage Buildings Years.xlsx","heritage_workbook_row":31,"heritage_geometry_source_file":"1778_Heritage_Buildings.geojson","heritage_geometry_source_record":3,"heritage_geometry_source_year":1778}},{"type":"Feature","geometry":{"type":"MultiPolygon","coordinates":[[[[43.1406011,36.3404486],[43.1410099,36.3401998],[43.1412765,36.3404219],[43.1408766,36.3407241],[43.1406011,36.3404486]]]]},"properties":{"id":37,"Building N":"الجامع المجاهدي","heritage_identity":"A04:1","heritage_year":1127,"heritage_added_from_workbook":"Heritage Buildings Years.xlsx","heritage_workbook_row":34,"heritage_geometry_source_file":"1778_Heritage_Buildings.geojson","heritage_geometry_source_record":4,"heritage_geometry_source_year":1778}},{"type":"Feature","geometry":{"type":"MultiPolygon","coordinates":[[[[43.1314255,36.3491271],[43.131259,36.3492434],[43.1313489,36.3493385],[43.1311983,36.3494178],[43.1308785,36.3490241],[43.1309869,36.3489818],[43.1310371,36.3489607],[43.1310899,36.3489395],[43.1312221,36.3488893],[43.1313013,36.3489871],[43.1314255,36.3491271]]]]},"properties":{"id":38,"Building N":"جامع شيخ الشط","heritage_identity":"A21:1","heritage_year":1127,"heritage_added_from_workbook":"Heritage Buildings Years.xlsx","heritage_workbook_row":43,"heritage_geometry_source_file":"1906_Heritage_Buildings.geojson","heritage_geometry_source_record":11,"heritage_geometry_source_year":1906}},{"type":"Feature","geometry":{"type":"MultiPolygon","coordinates":[[[[43.1182812,36.3464846],[43.1183458,36.3464539],[43.1183181,36.3464047],[43.1184995,36.3463401],[43.1185549,36.3464508],[43.118521,36.3464631],[43.1185272,36.3464846],[43.118398,36.3465277],[43.1183857,36.3465092],[43.1182997,36.3465369],[43.1182812,36.3464846]]]]},"properties":{"id":39,"Building N":"مرقد الشيخ فتحي","heritage_identity":"C02:1","heritage_year":1127,"heritage_added_from_workbook":"Heritage Buildings Years.xlsx","heritage_workbook_row":46,"heritage_geometry_source_file":"1906_Heritage_Buildings.geojson","heritage_geometry_source_record":31,"heritage_geometry_source_year":1906}},{"type":"Feature","geometry":{"type":"MultiPolygon","coordinates":[[[[43.1247334,36.3533227],[43.1258192,36.3525061],[43.1259213,36.3526638],[43.1248726,36.3534712],[43.1247334,36.3533227]]]]},"properties":{"id":40,"Building N":"قره سراي","heritage_identity":"I03:1","heritage_year":1127,"heritage_added_from_workbook":"Heritage Buildings Years.xlsx","heritage_workbook_row":55,"heritage_geometry_source_file":"1778_Heritage_Buildings.geojson","heritage_geometry_source_record":5,"heritage_geometry_source_year":1778}}]}