{"type":"FeatureCollection","name":"2003_Heritage_Buildings_Points","features":[{"type":"Feature","geometry":{"type":"Point","coordinates":[43.1261414,36.3378201]},"properties":{"id":1,"Building N":"كنيسة شمعون الصفا","heritage_identity":"B15:1","heritage_year":2003,"heritage_added_from_workbook":"Heritage Buildings Years.xlsx","heritage_workbook_row":17,"heritage_geometry_source_file":"1127_Heritage_Buildings.geojson","heritage_geometry_source_record":14,"heritage_geometry_source_year":1127}},{"type":"Feature","geometry":{"type":"Point","coordinates":[43.1226079,36.3538844]},"properties":{"id":2,"Building N":"كنيسة الطاهرة القديمة","heritage_identity":"B07:1","heritage_year":2003,"heritage_added_from_workbook":"Heritage Buildings Years.xlsx","heritage_workbook_row":20,"heritage_geometry_source_file":"1127_Heritage_Buildings.geojson","heritage_geometry_source_record":15,"heritage_geometry_source_year":1127}}]}