{
"type": "FeatureCollection",
"name": "1944_Heritage_Buildings",
"features": [
{ "type": "Feature", "properties": { "id": 1, "Building N": "الجامع النوري" }, "geometry": { "type": "MultiPolygon", "coordinates": [ [ [ [ 43.1263412, 36.343508 ], [ 43.1265932, 36.3430839 ], [ 43.1270134, 36.3430679 ], [ 43.127144, 36.3439043 ], [ 43.127132, 36.3439672 ], [ 43.1266408, 36.34412 ], [ 43.1264461, 36.3440841 ], [ 43.1263353, 36.3440152 ], [ 43.1263412, 36.343508 ] ] ] ] } },
{ "type": "Feature", "properties": { "id": 2, "Building N": "جامع النبي جرجيس" }, "geometry": { "type": "MultiPolygon", "coordinates": [ [ [ [ 43.129532, 36.3443593 ], [ 43.1306693, 36.3443562 ], [ 43.1308099, 36.3443715 ], [ 43.1303941, 36.3447812 ], [ 43.1301984, 36.3448026 ], [ 43.1294953, 36.344668 ], [ 43.1294341, 36.3446038 ], [ 43.129535, 36.3444663 ], [ 43.129532, 36.3443593 ] ] ] ] } },
{ "type": "Feature", "properties": { "id": 3, "Building N": "كنيسة الطاهرة" }, "geometry": { "type": "MultiPolygon", "coordinates": [ [ [ [ 43.1318363, 36.3442692 ], [ 43.1323378, 36.3444005 ], [ 43.13222, 36.3447438 ], [ 43.1317016, 36.3446361 ], [ 43.1318363, 36.3442692 ] ] ] ] } },
{ "type": "Feature", "properties": { "id": 4, "Building N": "كنيسة الساعة" }, "geometry": { "type": "MultiPolygon", "coordinates": [ [ [ [ 43.1272114, 36.3405304 ], [ 43.1272994, 36.3403418 ], [ 43.127622, 36.3404256 ], [ 43.1275131, 36.3405513 ], [ 43.1273036, 36.3405597 ], [ 43.1272114, 36.3405304 ] ] ] ] } },
{ "type": "Feature", "properties": { "id": 5, "Building N": "جامع الرابعية" }, "geometry": { "type": "MultiPolygon", "coordinates": [ [ [ [ 43.1282708, 36.3396822 ], [ 43.12811, 36.3393387 ], [ 43.1284668, 36.3392495 ], [ 43.1285822, 36.3395538 ], [ 43.1282708, 36.3396822 ] ] ] ] } },
{ "type": "Feature", "properties": { "id": 6, "Building N": "قلعة باشطابيا" }, "geometry": { "type": "MultiPolygon", "coordinates": [ [ [ [ 43.1211808, 36.3551242 ], [ 43.1216771, 36.3548844 ], [ 43.1218667, 36.3551409 ], [ 43.1218221, 36.3553529 ], [ 43.1216436, 36.3554365 ], [ 43.121309, 36.3552915 ], [ 43.1211808, 36.3551242 ] ] ] ] } },
{ "type": "Feature", "properties": { "id": 7, "Building N": "مرقد الامام يحيى ابو القاسم" }, "geometry": { "type": "MultiPolygon", "coordinates": [ [ [ [ 43.1228454, 36.3545426 ], [ 43.1226056, 36.3544255 ], [ 43.1228343, 36.3541745 ], [ 43.1231745, 36.3543641 ], [ 43.1228454, 36.3545426 ] ] ] ] } },
{ "type": "Feature", "properties": { "id": 8, "Building N": "قره سراي" }, "geometry": { "type": "MultiPolygon", "coordinates": [ [ [ [ 43.1248475, 36.3524813 ], [ 43.1246417, 36.3521148 ], [ 43.1252398, 36.3519218 ], [ 43.1254134, 36.3522755 ], [ 43.1248475, 36.3524813 ] ] ] ] } },
{ "type": "Feature", "properties": { "id": 9, "Building N": "كنيسة الطاهرة الخارجية" }, "geometry": { "type": "MultiPolygon", "coordinates": [ [ [ [ 43.1228524, 36.3530206 ], [ 43.1231161, 36.3528856 ], [ 43.1233476, 36.3531042 ], [ 43.1232061, 36.3532779 ], [ 43.1228524, 36.3530206 ] ] ] ] } },
{ "type": "Feature", "properties": { "id": 9, "Building N": "مرقد الامام محسن" }, "geometry": { "type": "MultiPolygon", "coordinates": [ [ [ [ 43.1218644, 36.3531717 ], [ 43.121723, 36.3528887 ], [ 43.1218837, 36.3527923 ], [ 43.1218451, 36.3527408 ], [ 43.1220895, 36.3525929 ], [ 43.1222631, 36.3527537 ], [ 43.1223917, 36.3526894 ], [ 43.1225718, 36.3528823 ], [ 43.1218644, 36.3531717 ] ] ] ] } },
{ "type": "Feature", "properties": { "id": 10, "Building N": "كنيسة الطاهرة الخارجية" }, "geometry": { "type": "MultiPolygon", "coordinates": [ [ [ [ 43.1200342, 36.3527985 ], [ 43.1199558, 36.3524012 ], [ 43.1201765, 36.352362 ], [ 43.1202451, 36.3525238 ], [ 43.1203481, 36.3526562 ], [ 43.1202648, 36.3527887 ], [ 43.1200342, 36.3527985 ] ] ] ] } },
{ "type": "Feature", "properties": { "id": 11, "Building N": "كنيسة مار يوحنا" }, "geometry": { "type": "MultiPolygon", "coordinates": [ [ [ [ 43.1288112, 36.3484055 ], [ 43.1289519, 36.3483187 ], [ 43.1290822, 36.3484577 ], [ 43.1291639, 36.3484594 ], [ 43.1291882, 36.3485063 ], [ 43.1291812, 36.3485845 ], [ 43.1292004, 36.3486592 ], [ 43.1289936, 36.3488398 ], [ 43.1289363, 36.3488051 ], [ 43.1290266, 36.3486991 ], [ 43.1288112, 36.3484055 ] ] ] ] } },
{ "type": "Feature", "properties": { "id": 12, "Building N": "جامع الامام ابراهيم" }, "geometry": { "type": "MultiPolygon", "coordinates": [ [ [ [ 43.129452, 36.3456038 ], [ 43.1295191, 36.3454908 ], [ 43.1298052, 36.3455993 ], [ 43.1298546, 36.3455861 ], [ 43.1300354, 36.3456519 ], [ 43.1299335, 36.3458394 ], [ 43.1297987, 36.3457604 ], [ 43.1297395, 36.3457867 ], [ 43.129654, 36.345744 ], [ 43.129654, 36.3457078 ], [ 43.129452, 36.3456038 ] ] ] ] } },
{ "type": "Feature", "properties": { "id": 13, "Building N": "جامع المصفي" }, "geometry": { "type": "MultiPolygon", "coordinates": [ [ [ [ 43.1322916, 36.3463895 ], [ 43.1323362, 36.3462812 ], [ 43.132591, 36.3462844 ], [ 43.1326611, 36.3463163 ], [ 43.1326643, 36.3465074 ], [ 43.132505, 36.346431 ], [ 43.1322916, 36.3463895 ] ] ] ] } },
{ "type": "Feature", "properties": { "id": 15, "Building N": "جامع الباشا" }, "geometry": { "type": "MultiPolygon", "coordinates": [ [ [ [ 43.1354045, 36.3434076 ], [ 43.1357133, 36.3430907 ], [ 43.1358082, 36.3430961 ], [ 43.1361522, 36.3434157 ], [ 43.1360953, 36.3434834 ], [ 43.1357431, 36.3437272 ], [ 43.1354045, 36.3434076 ] ] ] ] } },
{ "type": "Feature", "properties": { "id": 18, "Building N": "الاعدادية الشرقية" }, "geometry": { "type": "MultiPolygon", "coordinates": [ [ [ [ 43.1387948, 36.3392199 ], [ 43.1391078, 36.3389591 ], [ 43.139473, 36.3392395 ], [ 43.1390817, 36.3395003 ], [ 43.1387948, 36.3392199 ] ] ] ] } },
{ "type": "Feature", "properties": { "id": 19, "Building N": "جامع النبي شيت" }, "geometry": { "type": "MultiPolygon", "coordinates": [ [ [ [ 43.135159, 36.3354027 ], [ 43.1351988, 36.3349499 ], [ 43.1356913, 36.3349748 ], [ 43.1356764, 36.3354275 ], [ 43.135159, 36.3354027 ] ] ] ] } },
{ "type": "Feature", "properties": { "id": 20, "Building N": "مرقد الامام عون الدين" }, "geometry": { "type": "MultiPolygon", "coordinates": [ [ [ [ 43.1313889, 36.3390487 ], [ 43.1322972, 36.3392079 ], [ 43.1320631, 36.3396667 ], [ 43.131623, 36.3396011 ], [ 43.1313421, 36.3393015 ], [ 43.1313889, 36.3390487 ] ] ] ] } },
{ "type": "Feature", "properties": { "id": null, "Building N": "الجامع المجاهدي" }, "geometry": { "type": "MultiPolygon", "coordinates": [ [ [ [ 43.1402619, 36.3403189 ], [ 43.1400355, 36.3403164 ], [ 43.140038, 36.3402288 ], [ 43.1399674, 36.3402288 ], [ 43.1399868, 36.3401631 ], [ 43.1400915, 36.3401509 ], [ 43.1401134, 36.3399976 ], [ 43.1405807, 36.3400536 ], [ 43.1407218, 36.3400755 ], [ 43.1405077, 36.3403237 ], [ 43.1402619, 36.3403189 ] ] ] ] } },
{ "type": "Feature", "properties": { "id": 11, "Building N": "حمام القلعة" }, "geometry": { "type": "MultiPolygon", "coordinates": [ [ [ [ 43.1342261, 36.3461421 ], [ 43.1342674, 36.3460802 ], [ 43.1342612, 36.3460451 ], [ 43.1342447, 36.3459894 ], [ 43.1342591, 36.3459461 ], [ 43.1342942, 36.3458925 ], [ 43.1343705, 36.3457935 ], [ 43.1344097, 36.3457543 ], [ 43.1346923, 36.3459399 ], [ 43.1346861, 36.3459874 ], [ 43.13455, 36.3461482 ], [ 43.1344592, 36.3462493 ], [ 43.1344015, 36.3463009 ], [ 43.134352, 36.3463194 ], [ 43.1343025, 36.3463215 ], [ 43.1342591, 36.3463009 ], [ 43.13422, 36.3462864 ], [ 43.134189, 36.3462699 ], [ 43.1341457, 36.3462617 ], [ 43.1342261, 36.3461421 ] ] ] ] } },
{ "type": "Feature", "properties": { "id": 12, "Building N": "جامع شيخ الشط" }, "geometry": { "type": "MultiPolygon", "coordinates": [ [ [ [ 43.1312339, 36.348943 ], [ 43.1309785, 36.3491362 ], [ 43.1307951, 36.3492279 ], [ 43.130579, 36.3489692 ], [ 43.1306477, 36.3489004 ], [ 43.1308475, 36.3488022 ], [ 43.1310341, 36.3487105 ], [ 43.1311258, 36.3487858 ], [ 43.1311848, 36.3488284 ], [ 43.1312339, 36.348943 ] ] ] ] } },
{ "type": "Feature", "properties": { "id": 15, "Building N": "البارود خانة" }, "geometry": { "type": "MultiPolygon", "coordinates": [ [ [ [ 43.1177557, 36.3493115 ], [ 43.1177277, 36.3492755 ], [ 43.1177038, 36.3492216 ], [ 43.1176438, 36.3490997 ], [ 43.1177297, 36.3490738 ], [ 43.1178516, 36.3490438 ], [ 43.1179155, 36.3492316 ], [ 43.1179175, 36.3492815 ], [ 43.1178876, 36.3492835 ], [ 43.1178416, 36.3492855 ], [ 43.1178057, 36.3493035 ], [ 43.1177557, 36.3493115 ] ] ] ] } },
{ "type": "Feature", "properties": { "id": 19, "Building N": "خان حمو القدو" }, "geometry": { "type": "MultiPolygon", "coordinates": [ [ [ [ 43.1350758, 36.3421884 ], [ 43.1352429, 36.3425941 ], [ 43.1347179, 36.3427373 ], [ 43.1346343, 36.3427552 ], [ 43.134342, 36.3424509 ], [ 43.1343301, 36.3423793 ], [ 43.1350758, 36.3421884 ] ] ] ] } },
{ "type": "Feature", "properties": { "id": 20, "Building N": "جامع عبدال" }, "geometry": { "type": "MultiPolygon", "coordinates": [ [ [ [ 43.1343975, 36.3428511 ], [ 43.1346684, 36.3429011 ], [ 43.1348017, 36.3429552 ], [ 43.1347621, 36.3430677 ], [ 43.1347017, 36.3431573 ], [ 43.134683, 36.3431719 ], [ 43.1343704, 36.3431427 ], [ 43.1342559, 36.3431323 ], [ 43.1342517, 36.3430677 ], [ 43.1342788, 36.3430427 ], [ 43.1343496, 36.3429969 ], [ 43.1343725, 36.3429552 ], [ 43.134385, 36.3429115 ], [ 43.1343975, 36.3428511 ] ] ] ] } },
{ "type": "Feature", "properties": { "id": 21, "Building N": "جامع عمر الاسود" }, "geometry": { "type": "MultiPolygon", "coordinates": [ [ [ [ 43.1289433, 36.3376505 ], [ 43.1289631, 36.337855 ], [ 43.1289103, 36.3378858 ], [ 43.128785, 36.3379627 ], [ 43.1286421, 36.3380639 ], [ 43.1284926, 36.3379759 ], [ 43.1285673, 36.3377891 ], [ 43.1286223, 36.3376747 ], [ 43.1286817, 36.3376769 ], [ 43.1289433, 36.3376505 ] ] ] ] } },
{ "type": "Feature", "properties": { "id": 1, "Building N": "كنيسة مارتوما" }, "geometry": { "type": "MultiPolygon", "coordinates": [ [ [ [ 43.1243943, 36.3409136 ], [ 43.1246695, 36.3406583 ], [ 43.125014, 36.3409508 ], [ 43.1247959, 36.3411739 ], [ 43.1243943, 36.3409136 ] ] ] ] } },
{ "type": "Feature", "properties": { "id": 1, "Building N": "كنيسة مارتوما للسريان الكاثوليك" }, "geometry": { "type": "MultiPolygon", "coordinates": [ [ [ [ 43.1248975, 36.3412205 ], [ 43.1251467, 36.3409107 ], [ 43.125351, 36.3410589 ], [ 43.1253442, 36.3410791 ], [ 43.1253218, 36.3410903 ], [ 43.1251444, 36.3413912 ], [ 43.1248975, 36.3412205 ] ] ] ] } },
{ "type": "Feature", "properties": { "id": null, "Building N": "جامع الزيواني" }, "geometry": { "type": "MultiPolygon", "coordinates": [ [ [ [ 43.1256234, 36.3356678 ], [ 43.1257354, 36.3355876 ], [ 43.1258667, 36.3355604 ], [ 43.1259732, 36.3357387 ], [ 43.1260374, 36.3357179 ], [ 43.1258454, 36.3358728 ], [ 43.1255864, 36.3357475 ], [ 43.1256234, 36.3356678 ] ] ] ] } },
{ "type": "Feature", "properties": { "id": null, "Building N": "مرقد زيد بن علي" }, "geometry": { "type": "MultiPolygon", "coordinates": [ [ [ [ 43.1266716, 36.3355137 ], [ 43.1268429, 36.3354636 ], [ 43.1268986, 36.3355875 ], [ 43.1267176, 36.3356321 ], [ 43.1266716, 36.3355137 ] ] ] ] } },
{ "type": "Feature", "properties": { "id": null, "Building N": "مرقد الشيخ فتحي" }, "geometry": { "type": "MultiPolygon", "coordinates": [ [ [ [ 43.1182812, 36.3464846 ], [ 43.1183458, 36.3464539 ], [ 43.1183181, 36.3464047 ], [ 43.1184995, 36.3463401 ], [ 43.1185549, 36.3464508 ], [ 43.118521, 36.3464631 ], [ 43.1185272, 36.3464846 ], [ 43.118398, 36.3465277 ], [ 43.1183857, 36.3465092 ], [ 43.1182997, 36.3465369 ], [ 43.1182812, 36.3464846 ] ] ] ] } },
{ "type": "Feature", "properties": { "id": null, "Building N": "قصر امين بك الجليلي" }, "geometry": { "type": "MultiPolygon", "coordinates": [ [ [ [ 43.1293613, 36.3391993 ], [ 43.1296167, 36.3390488 ], [ 43.1297718, 36.3391993 ], [ 43.1298263, 36.3392891 ], [ 43.1298447, 36.3393133 ], [ 43.1299405, 36.3394228 ], [ 43.1299351, 36.3395036 ], [ 43.129929, 36.339564 ], [ 43.1299018, 36.3396425 ], [ 43.1295666, 36.3398116 ], [ 43.1293203, 36.3395778 ], [ 43.1291424, 36.3393179 ], [ 43.1293613, 36.3391993 ] ] ] ] } },
{ "type": "Feature", "properties": { "id": 3, "Building N": "بيت التتنجي" }, "geometry": { "type": "MultiPolygon", "coordinates": [ [ [ [ 43.1307366, 36.341711 ], [ 43.1305053, 36.3415434 ], [ 43.1306619, 36.3414068 ], [ 43.1306328, 36.3413722 ], [ 43.1307056, 36.3413248 ], [ 43.1309643, 36.3415598 ], [ 43.1307366, 36.341711 ] ] ] ] } },
{ "type": "Feature", "properties": { "id": 4, "Building N": "جامع القطانين" }, "geometry": { "type": "MultiPolygon", "coordinates": [ [ [ [ 43.1304232, 36.3412494 ], [ 43.1306366, 36.3413028 ], [ 43.1304765, 36.3415162 ], [ 43.1303846, 36.3414718 ], [ 43.1302453, 36.3414036 ], [ 43.1304232, 36.3412494 ] ] ] ] } },
{ "type": "Feature", "properties": { "id": 7, "Building N": "بيت سليمان الصائغ" }, "geometry": { "type": "MultiPolygon", "coordinates": [ [ [ [ 43.1329689, 36.3450302 ], [ 43.1328376, 36.3449985 ], [ 43.1328386, 36.3449901 ], [ 43.1328394, 36.3449822 ], [ 43.1328448, 36.3449623 ], [ 43.132853, 36.3449378 ], [ 43.1328593, 36.3449106 ], [ 43.1330063, 36.3449507 ], [ 43.1329689, 36.3450302 ] ] ] ] } },
{ "type": "Feature", "properties": { "id": 1, "Building N": "قصر الحكم" }, "geometry": { "type": "MultiPolygon", "coordinates": [ [ [ [ 43.1402168, 36.3375048 ], [ 43.1403186, 36.3367078 ], [ 43.1412683, 36.3367078 ], [ 43.1412683, 36.3376405 ], [ 43.1402168, 36.3375048 ] ] ] ] } },
{ "type": "Feature", "properties": { "id": 1, "Building N": "القشلة العسكرية" }, "geometry": { "type": "MultiPolygon", "coordinates": [ [ [ [ 43.1417431, 36.3370809 ], [ 43.1418279, 36.3357072 ], [ 43.1428116, 36.335775 ], [ 43.1427607, 36.3362329 ], [ 43.1429303, 36.3362838 ], [ 43.1429133, 36.3365212 ], [ 43.1421332, 36.3365382 ], [ 43.1420823, 36.337047 ], [ 43.1417431, 36.3370809 ] ] ] ] } },
{ "type": "Feature", "properties": { "id": 1, "Building N": "جامع الاغوات" }, "geometry": { "type": "MultiPolygon", "coordinates": [ [ [ [ 43.1366108, 36.3449616 ], [ 43.1366239, 36.3443359 ], [ 43.1371974, 36.344766 ], [ 43.1370019, 36.3449746 ], [ 43.1366108, 36.3449616 ] ] ] ] } },
{ "type": "Feature", "properties": { "id": 1, "Building N": "خان الكمرك" }, "geometry": { "type": "MultiPolygon", "coordinates": [ [ [ [ 43.135177, 36.3444923 ], [ 43.1352031, 36.3435929 ], [ 43.1356723, 36.344023 ], [ 43.1363632, 36.3442446 ], [ 43.136298, 36.3449876 ], [ 43.1361677, 36.3450137 ], [ 43.135177, 36.3444923 ] ] ] ] } }
]
}
