{
"type": "FeatureCollection",
"name": "2003_Heritage_Buildings",
"features": [
{ "type": "Feature", "properties": { "id": 1, "Building N": "الجامع النوري" }, "geometry": { "type": "MultiPolygon", "coordinates": [ [ [ [ 43.1265555, 36.342616 ], [ 43.1273883, 36.3425421 ], [ 43.127395, 36.3427234 ], [ 43.1274823, 36.343254 ], [ 43.1272338, 36.3433077 ], [ 43.1266428, 36.3434085 ], [ 43.1266428, 36.3433682 ], [ 43.1266294, 36.3431667 ], [ 43.1265555, 36.342616 ] ] ] ] } },
{ "type": "Feature", "properties": { "id": 2, "Building N": "كنيسة الساعة" }, "geometry": { "type": "MultiPolygon", "coordinates": [ [ [ [ 43.12737, 36.3405089 ], [ 43.1276709, 36.3405672 ], [ 43.1276686, 36.3406372 ], [ 43.1275309, 36.3408122 ], [ 43.1272813, 36.3407212 ], [ 43.1272416, 36.3406909 ], [ 43.127223, 36.3406699 ], [ 43.1272183, 36.3406442 ], [ 43.1272323, 36.3405975 ], [ 43.1272673, 36.3404902 ], [ 43.12737, 36.3405089 ] ] ] ] } },
{ "type": "Feature", "properties": { "id": 3, "Building N": "بيت التتنجي" }, "geometry": { "type": "MultiPolygon", "coordinates": [ [ [ [ 43.130978, 36.3416194 ], [ 43.1307467, 36.3414518 ], [ 43.1309033, 36.3413152 ], [ 43.1308742, 36.3412806 ], [ 43.130947, 36.3412333 ], [ 43.1312057, 36.3414682 ], [ 43.130978, 36.3416194 ] ] ] ] } },
{ "type": "Feature", "properties": { "id": 4, "Building N": "جامع القطانين" }, "geometry": { "type": "MultiPolygon", "coordinates": [ [ [ [ 43.1306704, 36.3409372 ], [ 43.1308242, 36.3410911 ], [ 43.130623, 36.341242 ], [ 43.1305638, 36.3412302 ], [ 43.1304366, 36.3410822 ], [ 43.1306704, 36.3409372 ] ] ] ] } },
{ "type": "Feature", "properties": { "id": 5, "Building N": "جامع النبي جرجيس" }, "geometry": { "type": "MultiPolygon", "coordinates": [ [ [ [ 43.1301211, 36.3444817 ], [ 43.130114, 36.3444291 ], [ 43.1301211, 36.34431 ], [ 43.1301736, 36.3442013 ], [ 43.1302367, 36.3441488 ], [ 43.13051, 36.3441663 ], [ 43.1307308, 36.3441733 ], [ 43.1310287, 36.3441558 ], [ 43.1312459, 36.3441628 ], [ 43.1309235, 36.3445518 ], [ 43.1306257, 36.3445307 ], [ 43.1301211, 36.3444817 ] ] ] ] } },
{ "type": "Feature", "properties": { "id": 6, "Building N": "كنيسة الطاهرة" }, "geometry": { "type": "MultiPolygon", "coordinates": [ [ [ [ 43.1328999, 36.3448167 ], [ 43.1325821, 36.3447705 ], [ 43.1325389, 36.3447396 ], [ 43.1325204, 36.344647 ], [ 43.1324988, 36.3446162 ], [ 43.1325358, 36.3443971 ], [ 43.1327827, 36.3444527 ], [ 43.1330172, 36.3445144 ], [ 43.1328999, 36.3448167 ] ] ] ] } },
{ "type": "Feature", "properties": { "id": 6, "Building N": "كنائس حوش البيعة" }, "geometry": { "type": "MultiPolygon", "coordinates": [ [ [ [ 43.1324525, 36.3437337 ], [ 43.1327364, 36.3439004 ], [ 43.1327271, 36.3439004 ], [ 43.1325945, 36.3440855 ], [ 43.1325173, 36.3440639 ], [ 43.1322427, 36.3439312 ], [ 43.1323322, 36.3438294 ], [ 43.1324525, 36.3437337 ] ] ] ] } },
{ "type": "Feature", "properties": { "id": 7, "Building N": "بيت سليمان الصائغ" }, "geometry": { "type": "MultiPolygon", "coordinates": [ [ [ [ 43.1332625, 36.3449956 ], [ 43.1330612, 36.3449452 ], [ 43.1330612, 36.3449285 ], [ 43.1330369, 36.3449229 ], [ 43.1330462, 36.3448595 ], [ 43.1330928, 36.3448707 ], [ 43.1331096, 36.3448446 ], [ 43.1333184, 36.3448875 ], [ 43.1332625, 36.3449956 ] ] ] ] } },
{ "type": "Feature", "properties": { "id": 8, "Building N": "الجامع الاموي (المصفي)" }, "geometry": { "type": "MultiPolygon", "coordinates": [ [ [ [ 43.1323939, 36.3464627 ], [ 43.1324033, 36.3462969 ], [ 43.132522, 36.3462988 ], [ 43.1326313, 36.3463289 ], [ 43.1327293, 36.3463836 ], [ 43.1327105, 36.3465136 ], [ 43.1326276, 36.3465174 ], [ 43.1323939, 36.3464627 ] ] ] ] } },
{ "type": "Feature", "properties": { "id": 9, "Building N": "جامع الاغوات" }, "geometry": { "type": "MultiPolygon", "coordinates": [ [ [ [ 43.1368712, 36.3444118 ], [ 43.136902, 36.3444006 ], [ 43.1369328, 36.344409 ], [ 43.1369804, 36.3444202 ], [ 43.137057, 36.3444841 ], [ 43.1370882, 36.3445211 ], [ 43.1371365, 36.3445589 ], [ 43.1370405, 36.344641 ], [ 43.1369879, 36.3446886 ], [ 43.1369303, 36.3447412 ], [ 43.136804, 36.3447899 ], [ 43.1367367, 36.3447927 ], [ 43.1366611, 36.3447871 ], [ 43.1366443, 36.3445826 ], [ 43.1366975, 36.3445014 ], [ 43.1368712, 36.3444118 ] ] ] ] } },
{ "type": "Feature", "properties": { "id": 10, "Building N": "خان الكمرك" }, "geometry": { "type": "MultiPolygon", "coordinates": [ [ [ [ 43.1360801, 36.3444556 ], [ 43.1361016, 36.3444095 ], [ 43.1361416, 36.3443788 ], [ 43.1363721, 36.3441482 ], [ 43.1365811, 36.344265 ], [ 43.1366426, 36.3442282 ], [ 43.1368209, 36.3443542 ], [ 43.1365627, 36.3445939 ], [ 43.1365074, 36.3446247 ], [ 43.1364705, 36.3446247 ], [ 43.1364059, 36.3445939 ], [ 43.1362092, 36.3445079 ], [ 43.1360801, 36.3444556 ] ] ] ] } },
{ "type": "Feature", "properties": { "id": 11, "Building N": "حمام القلعة" }, "geometry": { "type": "MultiPolygon", "coordinates": [ [ [ [ 43.1345345, 36.345974 ], [ 43.1345757, 36.3459121 ], [ 43.1345695, 36.3458771 ], [ 43.134553, 36.3458214 ], [ 43.1345675, 36.3457781 ], [ 43.1346025, 36.3457244 ], [ 43.1346788, 36.3456254 ], [ 43.134718, 36.3455862 ], [ 43.1350006, 36.3457719 ], [ 43.1349944, 36.3458193 ], [ 43.1348583, 36.3459802 ], [ 43.1347675, 36.3460813 ], [ 43.1347098, 36.3461328 ], [ 43.1346603, 36.3461514 ], [ 43.1346108, 36.3461534 ], [ 43.1345675, 36.3461328 ], [ 43.1345283, 36.3461184 ], [ 43.1344973, 36.3461019 ], [ 43.134454, 36.3460936 ], [ 43.1345345, 36.345974 ] ] ] ] } },
{ "type": "Feature", "properties": { "id": 12, "Building N": "جامع شيخ الشط" }, "geometry": { "type": "MultiPolygon", "coordinates": [ [ [ [ 43.1315085, 36.3490179 ], [ 43.1312531, 36.3492111 ], [ 43.1310698, 36.3493028 ], [ 43.1308537, 36.3490441 ], [ 43.1309224, 36.3489754 ], [ 43.1311222, 36.3488771 ], [ 43.1313088, 36.3487855 ], [ 43.1314005, 36.3488608 ], [ 43.1314594, 36.3489033 ], [ 43.1315085, 36.3490179 ] ] ] ] } },
{ "type": "Feature", "properties": { "id": 13, "Building N": "مرقد الامام يحيى ابو القاسم" }, "geometry": { "type": "MultiPolygon", "coordinates": [ [ [ [ 43.122528, 36.3545749 ], [ 43.1228125, 36.3542452 ], [ 43.1231873, 36.3545026 ], [ 43.1227989, 36.3547916 ], [ 43.1227583, 36.3547555 ], [ 43.122528, 36.3545749 ] ] ] ] } },
{ "type": "Feature", "properties": { "id": 14, "Building N": "قلعة باشطابيا" }, "geometry": { "type": "MultiPolygon", "coordinates": [ [ [ [ 43.1214713, 36.3555299 ], [ 43.1214531, 36.3554976 ], [ 43.1214725, 36.3554743 ], [ 43.1215324, 36.3554132 ], [ 43.1213101, 36.3552243 ], [ 43.1217547, 36.3548798 ], [ 43.1220825, 36.3552521 ], [ 43.1219269, 36.3554132 ], [ 43.1216824, 36.3556244 ], [ 43.1215824, 36.3556577 ], [ 43.1214713, 36.3555299 ] ] ] ] } },
{ "type": "Feature", "properties": { "id": 15, "Building N": "البارود خانة" }, "geometry": { "type": "MultiPolygon", "coordinates": [ [ [ [ 43.1174604, 36.3492772 ], [ 43.1174324, 36.3492413 ], [ 43.1174084, 36.3491874 ], [ 43.1173485, 36.3490655 ], [ 43.1174344, 36.3490395 ], [ 43.1175563, 36.3490096 ], [ 43.1176202, 36.3491973 ], [ 43.1176222, 36.3492473 ], [ 43.1175922, 36.3492493 ], [ 43.1175463, 36.3492513 ], [ 43.1175103, 36.3492693 ], [ 43.1174604, 36.3492772 ] ] ] ] } },
{ "type": "Feature", "properties": { "id": 16, "Building N": "الجامع المجاهدي" }, "geometry": { "type": "MultiPolygon", "coordinates": [ [ [ [ 43.1407747, 36.3399205 ], [ 43.1407531, 36.339976 ], [ 43.1405065, 36.3401948 ], [ 43.1401643, 36.3400808 ], [ 43.1401828, 36.3400499 ], [ 43.1401581, 36.3400284 ], [ 43.1402599, 36.3397817 ], [ 43.1404356, 36.3398033 ], [ 43.1405034, 36.3397725 ], [ 43.1406144, 36.3397447 ], [ 43.1407654, 36.3397694 ], [ 43.1408148, 36.3397848 ], [ 43.1407747, 36.3399205 ] ] ] ] } },
{ "type": "Feature", "properties": { "id": 16, "Building N": "الاعدادية الشرقية" }, "geometry": { "type": "MultiPolygon", "coordinates": [ [ [ [ 43.1391706, 36.3390379 ], [ 43.1395113, 36.3387969 ], [ 43.1397854, 36.3390711 ], [ 43.1394863, 36.3393121 ], [ 43.1391706, 36.3390379 ] ] ] ] } },
{ "type": "Feature", "properties": { "id": 19, "Building N": "خان حمو القدو" }, "geometry": { "type": "MultiPolygon", "coordinates": [ [ [ [ 43.1353742, 36.3419617 ], [ 43.1355567, 36.3424411 ], [ 43.135073, 36.3425854 ], [ 43.1349288, 36.3426405 ], [ 43.1345385, 36.3421611 ], [ 43.1353742, 36.3419617 ] ] ] ] } },
{ "type": "Feature", "properties": { "id": 19, "Building N": "جامع الباشا" }, "geometry": { "type": "MultiPolygon", "coordinates": [ [ [ [ 43.1357518, 36.3430832 ], [ 43.1360643, 36.3427888 ], [ 43.1363442, 36.3430562 ], [ 43.1360462, 36.3432874 ], [ 43.1357518, 36.3430832 ] ] ] ] } },
{ "type": "Feature", "properties": { "id": 20, "Building N": "جامع عبدال" }, "geometry": { "type": "MultiPolygon", "coordinates": [ [ [ [ 43.1346389, 36.3427595 ], [ 43.1349097, 36.3428095 ], [ 43.1350431, 36.3428637 ], [ 43.1350035, 36.3429762 ], [ 43.1349431, 36.3430658 ], [ 43.1349243, 36.3430804 ], [ 43.1346118, 36.3430512 ], [ 43.1344972, 36.3430408 ], [ 43.1344931, 36.3429762 ], [ 43.1345201, 36.3429512 ], [ 43.134591, 36.3429053 ], [ 43.1346139, 36.3428637 ], [ 43.1346264, 36.3428199 ], [ 43.1346389, 36.3427595 ] ] ] ] } },
{ "type": "Feature", "properties": { "id": 21, "Building N": "جامع عمر الاسود" }, "geometry": { "type": "MultiPolygon", "coordinates": [ [ [ [ 43.1289787, 36.3377837 ], [ 43.1289985, 36.3379882 ], [ 43.1289457, 36.338019 ], [ 43.1288204, 36.3380959 ], [ 43.1286775, 36.3381971 ], [ 43.128528, 36.3381091 ], [ 43.1286027, 36.3379222 ], [ 43.1286577, 36.3378079 ], [ 43.128717, 36.3378101 ], [ 43.1289787, 36.3377837 ] ] ] ] } },
{ "type": "Feature", "properties": { "id": 22, "Building N": "جامع الرابعية" }, "geometry": { "type": "MultiPolygon", "coordinates": [ [ [ [ 43.1289153, 36.3393386 ], [ 43.1290341, 36.3396166 ], [ 43.1287381, 36.3397602 ], [ 43.128478, 36.3394642 ], [ 43.1285296, 36.3394305 ], [ 43.1289153, 36.3393386 ] ] ] ] } },
{ "type": "Feature", "properties": { "id": null, "Building N": "جامع النبي شيت" }, "geometry": { "type": "MultiPolygon", "coordinates": [ [ [ [ 43.1352332, 36.3347464 ], [ 43.1352535, 36.333944 ], [ 43.1360354, 36.3339696 ], [ 43.1360014, 36.3347859 ], [ 43.1359048, 36.3347596 ], [ 43.1356941, 36.3347508 ], [ 43.1355361, 36.3347464 ], [ 43.1352332, 36.3347464 ] ] ] ] } },
{ "type": "Feature", "properties": { "id": 16, "Building N": "قره سراي" }, "geometry": { "type": "MultiPolygon", "coordinates": [ [ [ [ 43.1258707, 36.3527354 ], [ 43.1262639, 36.3525074 ], [ 43.1263237, 36.3525787 ], [ 43.126147, 36.3527012 ], [ 43.1261727, 36.3527667 ], [ 43.1260103, 36.3528465 ], [ 43.1258707, 36.3527354 ] ] ] ] } },
{ "type": "Feature", "properties": { "id": 6076204111, "Building N": null }, "geometry": { "type": "MultiPolygon", "coordinates": [ ] } },
{ "type": "Feature", "properties": { "id": 8, "Building N": "قره سراي" }, "geometry": { "type": "MultiPolygon", "coordinates": [ [ [ [ 43.1248475, 36.3524813 ], [ 43.1246417, 36.3521148 ], [ 43.1252398, 36.3519218 ], [ 43.1254134, 36.3522755 ], [ 43.1248475, 36.3524813 ] ] ] ] } },
{ "type": "Feature", "properties": { "id": 9, "Building N": "مرقد الامام محسن" }, "geometry": { "type": "MultiPolygon", "coordinates": [ [ [ [ 43.1218644, 36.3531717 ], [ 43.121723, 36.3528887 ], [ 43.1218837, 36.3527923 ], [ 43.1218451, 36.3527408 ], [ 43.1220895, 36.3525929 ], [ 43.1222631, 36.3527537 ], [ 43.1223917, 36.3526894 ], [ 43.1225718, 36.3528823 ], [ 43.1218644, 36.3531717 ] ] ] ] } },
{ "type": "Feature", "properties": { "id": 11, "Building N": "كنيسة مار يوحنا" }, "geometry": { "type": "MultiPolygon", "coordinates": [ [ [ [ 43.1288112, 36.3484055 ], [ 43.1289519, 36.3483187 ], [ 43.1290822, 36.3484577 ], [ 43.1291639, 36.3484594 ], [ 43.1291882, 36.3485063 ], [ 43.1291812, 36.3485845 ], [ 43.1292004, 36.3486592 ], [ 43.1289936, 36.3488398 ], [ 43.1289363, 36.3488051 ], [ 43.1290266, 36.3486991 ], [ 43.1288112, 36.3484055 ] ] ] ] } },
{ "type": "Feature", "properties": { "id": 12, "Building N": "جامع الامام ابراهيم" }, "geometry": { "type": "MultiPolygon", "coordinates": [ [ [ [ 43.129452, 36.3456038 ], [ 43.1295191, 36.3454908 ], [ 43.1298052, 36.3455993 ], [ 43.1298546, 36.3455861 ], [ 43.1300354, 36.3456519 ], [ 43.1299335, 36.3458394 ], [ 43.1297987, 36.3457604 ], [ 43.1297395, 36.3457867 ], [ 43.129654, 36.345744 ], [ 43.129654, 36.3457078 ], [ 43.129452, 36.3456038 ] ] ] ] } },
{ "type": "Feature", "properties": { "id": 1, "Building N": "كنيسة مارتوما" }, "geometry": { "type": "MultiPolygon", "coordinates": [ [ [ [ 43.1245996, 36.3406599 ], [ 43.1248748, 36.3404046 ], [ 43.1252194, 36.3406971 ], [ 43.1250012, 36.3409202 ], [ 43.1245996, 36.3406599 ] ] ] ] } },
{ "type": "Feature", "properties": { "id": 1, "Building N": "كنيسة مارتوما للسريان الكاثوليك" }, "geometry": { "type": "MultiPolygon", "coordinates": [ [ [ [ 43.1252599, 36.3412266 ], [ 43.1255091, 36.3409168 ], [ 43.1257134, 36.3410649 ], [ 43.1257066, 36.3410852 ], [ 43.1256842, 36.3410964 ], [ 43.1255068, 36.3413972 ], [ 43.1252599, 36.3412266 ] ] ] ] } },
{ "type": "Feature", "properties": { "id": null, "Building N": "جامع الزيواني" }, "geometry": { "type": "MultiPolygon", "coordinates": [ [ [ [ 43.1256234, 36.3356678 ], [ 43.1257354, 36.3355876 ], [ 43.1258667, 36.3355604 ], [ 43.1259732, 36.3357387 ], [ 43.1260374, 36.3357179 ], [ 43.1258454, 36.3358728 ], [ 43.1255864, 36.3357475 ], [ 43.1256234, 36.3356678 ] ] ] ] } },
{ "type": "Feature", "properties": { "id": null, "Building N": "مرقد زيد بن علي" }, "geometry": { "type": "MultiPolygon", "coordinates": [ [ [ [ 43.1266716, 36.3355137 ], [ 43.1268429, 36.3354636 ], [ 43.1268986, 36.3355875 ], [ 43.1267176, 36.3356321 ], [ 43.1266716, 36.3355137 ] ] ] ] } },
{ "type": "Feature", "properties": { "id": null, "Building N": "مرقد الشيخ فتحي" }, "geometry": { "type": "MultiPolygon", "coordinates": [ [ [ [ 43.1182812, 36.3464846 ], [ 43.1183458, 36.3464539 ], [ 43.1183181, 36.3464047 ], [ 43.1184995, 36.3463401 ], [ 43.1185549, 36.3464508 ], [ 43.118521, 36.3464631 ], [ 43.1185272, 36.3464846 ], [ 43.118398, 36.3465277 ], [ 43.1183857, 36.3465092 ], [ 43.1182997, 36.3465369 ], [ 43.1182812, 36.3464846 ] ] ] ] } },
{ "type": "Feature", "properties": { "id": null, "Building N": "مرقد الامام عون الدين ابن الحسن" }, "geometry": { "type": "MultiPolygon", "coordinates": [ [ [ [ 43.1311868, 36.3390171 ], [ 43.1312745, 36.3388898 ], [ 43.1314131, 36.3389747 ], [ 43.1313085, 36.3390935 ], [ 43.1311868, 36.3390171 ] ] ] ] } },
{ "type": "Feature", "properties": { "id": null, "Building N": "قصر امين بك الجليلي" }, "geometry": { "type": "MultiPolygon", "coordinates": [ [ [ [ 43.1292454, 36.3390362 ], [ 43.1295202, 36.3390242 ], [ 43.129644, 36.3392748 ], [ 43.1297648, 36.3392265 ], [ 43.129789, 36.3392658 ], [ 43.1298585, 36.3393685 ], [ 43.1298736, 36.3394409 ], [ 43.1298675, 36.3395013 ], [ 43.1298403, 36.3395799 ], [ 43.1295051, 36.339749 ], [ 43.1292725, 36.3393624 ], [ 43.1293903, 36.3393352 ], [ 43.1292454, 36.3390362 ] ] ] ] } }
]
}
