{
"type": "FeatureCollection",
"name": "2020_Heritage_Buildings",
"features": [
{ "type": "Feature", "properties": { "id": 1, "Building N": "الجامع النوري" }, "geometry": { "type": "MultiPolygon", "coordinates": [ [ [ [ 43.1263479, 36.3427103 ], [ 43.1271807, 36.3426364 ], [ 43.1271874, 36.3428178 ], [ 43.1272747, 36.3433483 ], [ 43.1270262, 36.3434021 ], [ 43.1264352, 36.3435028 ], [ 43.1264352, 36.3434625 ], [ 43.1264218, 36.343261 ], [ 43.1263479, 36.3427103 ] ] ] ] } },
{ "type": "Feature", "properties": { "id": 2, "Building N": "كنيسة الساعة" }, "geometry": { "type": "MultiPolygon", "coordinates": [ [ [ [ 43.1270814, 36.340478 ], [ 43.1273823, 36.3405363 ], [ 43.12738, 36.3406063 ], [ 43.1272423, 36.3407813 ], [ 43.1269927, 36.3406903 ], [ 43.1269531, 36.34066 ], [ 43.1269344, 36.340639 ], [ 43.1269297, 36.3406133 ], [ 43.1269437, 36.3405667 ], [ 43.1269787, 36.3404594 ], [ 43.1270814, 36.340478 ] ] ] ] } },
{ "type": "Feature", "properties": { "id": 3, "Building N": "بيت التتنجي" }, "geometry": { "type": "MultiPolygon", "coordinates": [ [ [ [ 43.130822, 36.3416716 ], [ 43.1305906, 36.341504 ], [ 43.1307473, 36.3413674 ], [ 43.1307181, 36.3413328 ], [ 43.130791, 36.3412854 ], [ 43.1310496, 36.3415204 ], [ 43.130822, 36.3416716 ] ] ] ] } },
{ "type": "Feature", "properties": { "id": 4, "Building N": "جامع القطانين" }, "geometry": { "type": "MultiPolygon", "coordinates": [ [ [ [ 43.1305237, 36.3409847 ], [ 43.1306776, 36.3411386 ], [ 43.1304764, 36.3412895 ], [ 43.1304172, 36.3412777 ], [ 43.1302899, 36.3411297 ], [ 43.1305237, 36.3409847 ] ] ] ] } },
{ "type": "Feature", "properties": { "id": 5, "Building N": "جامع النبي جرجيس" }, "geometry": { "type": "MultiPolygon", "coordinates": [ [ [ [ 43.1299135, 36.344576 ], [ 43.1299065, 36.3445235 ], [ 43.1299135, 36.3444043 ], [ 43.1299661, 36.3442957 ], [ 43.1300291, 36.3442431 ], [ 43.1303025, 36.3442606 ], [ 43.1305232, 36.3442676 ], [ 43.1308211, 36.3442501 ], [ 43.1310384, 36.3442571 ], [ 43.130716, 36.3446461 ], [ 43.1304181, 36.3446251 ], [ 43.1299135, 36.344576 ] ] ] ] } },
{ "type": "Feature", "properties": { "id": 6, "Building N": "كنيسة الطاهرة" }, "geometry": { "type": "MultiPolygon", "coordinates": [ [ [ [ 43.1326924, 36.3449111 ], [ 43.1323746, 36.3448648 ], [ 43.1323314, 36.3448339 ], [ 43.1323129, 36.3447414 ], [ 43.1322913, 36.3447105 ], [ 43.1323283, 36.3444915 ], [ 43.1325751, 36.344547 ], [ 43.1328096, 36.3446087 ], [ 43.1326924, 36.3449111 ] ] ] ] } },
{ "type": "Feature", "properties": { "id": 6, "Building N": "كنائس حوش البيعة" }, "geometry": { "type": "MultiPolygon", "coordinates": [ [ [ [ 43.132245, 36.3438281 ], [ 43.1325288, 36.3439947 ], [ 43.1325196, 36.3439947 ], [ 43.1323869, 36.3441798 ], [ 43.1323098, 36.3441582 ], [ 43.1320352, 36.3440256 ], [ 43.1321246, 36.3439237 ], [ 43.132245, 36.3438281 ] ] ] ] } },
{ "type": "Feature", "properties": { "id": 7, "Building N": "بيت سليمان الصائغ" }, "geometry": { "type": "MultiPolygon", "coordinates": [ [ [ [ 43.1330549, 36.3450899 ], [ 43.1328536, 36.3450396 ], [ 43.1328536, 36.3450228 ], [ 43.1328294, 36.3450172 ], [ 43.1328387, 36.3449538 ], [ 43.1328853, 36.344965 ], [ 43.1329021, 36.3449389 ], [ 43.1331109, 36.3449818 ], [ 43.1330549, 36.3450899 ] ] ] ] } },
{ "type": "Feature", "properties": { "id": 8, "Building N": "الجامع الاموي (المصفي)" }, "geometry": { "type": "MultiPolygon", "coordinates": [ [ [ [ 43.1321863, 36.3465571 ], [ 43.1321958, 36.3463912 ], [ 43.1323145, 36.3463931 ], [ 43.1324238, 36.3464233 ], [ 43.1325218, 36.3464779 ], [ 43.1325029, 36.346608 ], [ 43.13242, 36.3466117 ], [ 43.1321863, 36.3465571 ] ] ] ] } },
{ "type": "Feature", "properties": { "id": 9, "Building N": "جامع الاغوات" }, "geometry": { "type": "MultiPolygon", "coordinates": [ [ [ [ 43.1366636, 36.3445061 ], [ 43.1366944, 36.3444949 ], [ 43.1367253, 36.3445033 ], [ 43.1367729, 36.3445145 ], [ 43.1368494, 36.3445785 ], [ 43.1368806, 36.3446154 ], [ 43.1369289, 36.3446533 ], [ 43.1368329, 36.3447354 ], [ 43.1367803, 36.344783 ], [ 43.1367227, 36.3448356 ], [ 43.1365964, 36.3448843 ], [ 43.1365292, 36.3448871 ], [ 43.1364536, 36.3448815 ], [ 43.1364367, 36.344677 ], [ 43.13649, 36.3445958 ], [ 43.1366636, 36.3445061 ] ] ] ] } },
{ "type": "Feature", "properties": { "id": 10, "Building N": "خان الكمرك" }, "geometry": { "type": "MultiPolygon", "coordinates": [ [ [ [ 43.1358726, 36.34455 ], [ 43.1358941, 36.3445039 ], [ 43.135934, 36.3444731 ], [ 43.1361646, 36.3442426 ], [ 43.1363736, 36.3443594 ], [ 43.1364351, 36.3443225 ], [ 43.1366134, 36.3444485 ], [ 43.1363552, 36.3446883 ], [ 43.1362998, 36.344719 ], [ 43.1362629, 36.344719 ], [ 43.1361984, 36.3446883 ], [ 43.1360017, 36.3446022 ], [ 43.1358726, 36.34455 ] ] ] ] } },
{ "type": "Feature", "properties": { "id": 11, "Building N": "حمام القلعة" }, "geometry": { "type": "MultiPolygon", "coordinates": [ [ [ [ 43.1343269, 36.3460683 ], [ 43.1343682, 36.3460065 ], [ 43.134362, 36.3459714 ], [ 43.1343455, 36.3459157 ], [ 43.1343599, 36.3458724 ], [ 43.134395, 36.3458188 ], [ 43.1344713, 36.3457198 ], [ 43.1345105, 36.3456806 ], [ 43.134793, 36.3458662 ], [ 43.1347869, 36.3459137 ], [ 43.1346507, 36.3460745 ], [ 43.13456, 36.3461756 ], [ 43.1345022, 36.3462272 ], [ 43.1344527, 36.3462457 ], [ 43.1344032, 36.3462478 ], [ 43.1343599, 36.3462272 ], [ 43.1343207, 36.3462127 ], [ 43.1342898, 36.3461962 ], [ 43.1342465, 36.346188 ], [ 43.1343269, 36.3460683 ] ] ] ] } },
{ "type": "Feature", "properties": { "id": 12, "Building N": "جامع شيخ الشط" }, "geometry": { "type": "MultiPolygon", "coordinates": [ [ [ [ 43.131301, 36.3491123 ], [ 43.1310456, 36.3493055 ], [ 43.1308622, 36.3493972 ], [ 43.1306461, 36.3491385 ], [ 43.1307149, 36.3490697 ], [ 43.1309146, 36.3489715 ], [ 43.1311012, 36.3488798 ], [ 43.1311929, 36.3489551 ], [ 43.1312519, 36.3489977 ], [ 43.131301, 36.3491123 ] ] ] ] } },
{ "type": "Feature", "properties": { "id": 13, "Building N": "مرقد الامام يحيى ابو القاسم" }, "geometry": { "type": "MultiPolygon", "coordinates": [ [ [ [ 43.1223204, 36.3546692 ], [ 43.1226049, 36.3543396 ], [ 43.1229797, 36.354597 ], [ 43.1225914, 36.354886 ], [ 43.1225507, 36.3548498 ], [ 43.1223204, 36.3546692 ] ] ] ] } },
{ "type": "Feature", "properties": { "id": 14, "Building N": "قلعة باشطابيا" }, "geometry": { "type": "MultiPolygon", "coordinates": [ [ [ [ 43.1212637, 36.3556243 ], [ 43.1212455, 36.3555919 ], [ 43.1212649, 36.3555686 ], [ 43.1213248, 36.3555076 ], [ 43.1211026, 36.3553186 ], [ 43.1215471, 36.3549741 ], [ 43.121875, 36.3553464 ], [ 43.1217194, 36.3555076 ], [ 43.1214749, 36.3557187 ], [ 43.1213748, 36.3557521 ], [ 43.1212637, 36.3556243 ] ] ] ] } },
{ "type": "Feature", "properties": { "id": 15, "Building N": "البارود خانة" }, "geometry": { "type": "MultiPolygon", "coordinates": [ [ [ [ 43.1172528, 36.3493716 ], [ 43.1172248, 36.3493356 ], [ 43.1172009, 36.3492817 ], [ 43.117141, 36.3491598 ], [ 43.1172268, 36.3491339 ], [ 43.1173487, 36.3491039 ], [ 43.1174126, 36.3492917 ], [ 43.1174146, 36.3493416 ], [ 43.1173847, 36.3493436 ], [ 43.1173387, 36.3493456 ], [ 43.1173028, 36.3493636 ], [ 43.1172528, 36.3493716 ] ] ] ] } },
{ "type": "Feature", "properties": { "id": 16, "Building N": "الجامع المجاهدي" }, "geometry": { "type": "MultiPolygon", "coordinates": [ [ [ [ 43.1408572, 36.3403843 ], [ 43.1408356, 36.3405102 ], [ 43.1406163, 36.3406684 ], [ 43.1405145, 36.3406115 ], [ 43.1401723, 36.3404975 ], [ 43.1401005, 36.3404645 ], [ 43.1401292, 36.3404268 ], [ 43.1402679, 36.3401985 ], [ 43.1402639, 36.3398809 ], [ 43.1405408, 36.3398305 ], [ 43.1407278, 36.3398665 ], [ 43.1408968, 36.3399852 ], [ 43.1408824, 36.3402153 ], [ 43.1408572, 36.3403843 ] ] ] ] } },
{ "type": "Feature", "properties": { "id": 16, "Building N": "الاعدادية الشرقية" }, "geometry": { "type": "MultiPolygon", "coordinates": [ [ [ [ 43.1389631, 36.3391322 ], [ 43.1393037, 36.3388913 ], [ 43.1395779, 36.3391654 ], [ 43.1392788, 36.3394064 ], [ 43.1389631, 36.3391322 ] ] ] ] } },
{ "type": "Feature", "properties": { "id": 19, "Building N": "خان حمو القدو" }, "geometry": { "type": "MultiPolygon", "coordinates": [ [ [ [ 43.1352709, 36.3420422 ], [ 43.1354533, 36.3425216 ], [ 43.1349697, 36.3426658 ], [ 43.1348255, 36.342721 ], [ 43.1344352, 36.3422416 ], [ 43.1352709, 36.3420422 ] ] ] ] } },
{ "type": "Feature", "properties": { "id": 19, "Building N": "جامع الباشا" }, "geometry": { "type": "MultiPolygon", "coordinates": [ [ [ [ 43.1355442, 36.3431776 ], [ 43.1358567, 36.3428832 ], [ 43.1361367, 36.3431505 ], [ 43.1358386, 36.3433817 ], [ 43.1355442, 36.3431776 ] ] ] ] } },
{ "type": "Feature", "properties": { "id": 20, "Building N": "جامع عبدال" }, "geometry": { "type": "MultiPolygon", "coordinates": [ [ [ [ 43.134612, 36.3428539 ], [ 43.1348829, 36.3429039 ], [ 43.1350162, 36.342958 ], [ 43.1349766, 36.3430705 ], [ 43.1349162, 36.3431601 ], [ 43.1348975, 36.3431747 ], [ 43.1345849, 36.3431455 ], [ 43.1344704, 36.3431351 ], [ 43.1344662, 36.3430705 ], [ 43.1344933, 36.3430455 ], [ 43.1345641, 36.3429997 ], [ 43.134587, 36.342958 ], [ 43.1345995, 36.3429143 ], [ 43.134612, 36.3428539 ] ] ] ] } },
{ "type": "Feature", "properties": { "id": 21, "Building N": "جامع عمر الاسود" }, "geometry": { "type": "MultiPolygon", "coordinates": [ [ [ [ 43.1287269, 36.3378486 ], [ 43.1287467, 36.338053 ], [ 43.1286939, 36.3380838 ], [ 43.1285686, 36.3381608 ], [ 43.1284257, 36.3382619 ], [ 43.1282762, 36.338174 ], [ 43.1283509, 36.3379871 ], [ 43.1284059, 36.3378727 ], [ 43.1284653, 36.3378749 ], [ 43.1287269, 36.3378486 ] ] ] ] } },
{ "type": "Feature", "properties": { "id": 22, "Building N": "جامع الرابعية" }, "geometry": { "type": "MultiPolygon", "coordinates": [ [ [ [ 43.1287062, 36.3393919 ], [ 43.128825, 36.3396699 ], [ 43.1285291, 36.3398134 ], [ 43.1282689, 36.3395174 ], [ 43.1283205, 36.3394838 ], [ 43.1287062, 36.3393919 ] ] ] ] } },
{ "type": "Feature", "properties": { "id": null, "Building N": "جامع النبي شيت" }, "geometry": { "type": "MultiPolygon", "coordinates": [ [ [ [ 43.1350256, 36.3348408 ], [ 43.135046, 36.3340383 ], [ 43.1358278, 36.3340639 ], [ 43.1357938, 36.3348803 ], [ 43.1356972, 36.3348539 ], [ 43.1354865, 36.3348452 ], [ 43.1353285, 36.3348408 ], [ 43.1350256, 36.3348408 ] ] ] ] } },
{ "type": "Feature", "properties": { "id": 16, "Building N": "قره سراي" }, "geometry": { "type": "MultiPolygon", "coordinates": [ [ [ [ 43.1256631, 36.3528297 ], [ 43.1260563, 36.3526018 ], [ 43.1261161, 36.352673 ], [ 43.1259395, 36.3527955 ], [ 43.1259651, 36.352861 ], [ 43.1258027, 36.3529408 ], [ 43.1256631, 36.3528297 ] ] ] ] } },
{ "type": "Feature", "properties": { "id": 8, "Building N": "قره سراي" }, "geometry": { "type": "MultiPolygon", "coordinates": [ [ [ [ 43.1248475, 36.3524813 ], [ 43.1246417, 36.3521148 ], [ 43.1252398, 36.3519218 ], [ 43.1254134, 36.3522755 ], [ 43.1248475, 36.3524813 ] ] ] ] } },
{ "type": "Feature", "properties": { "id": 9, "Building N": "مرقد الامام محسن" }, "geometry": { "type": "MultiPolygon", "coordinates": [ [ [ [ 43.1218644, 36.3531717 ], [ 43.121723, 36.3528887 ], [ 43.1218837, 36.3527923 ], [ 43.1218451, 36.3527408 ], [ 43.1220895, 36.3525929 ], [ 43.1222631, 36.3527537 ], [ 43.1223917, 36.3526894 ], [ 43.1225718, 36.3528823 ], [ 43.1218644, 36.3531717 ] ] ] ] } },
{ "type": "Feature", "properties": { "id": 11, "Building N": "كنيسة مار يوحنا" }, "geometry": { "type": "MultiPolygon", "coordinates": [ [ [ [ 43.1288112, 36.3484055 ], [ 43.1289519, 36.3483187 ], [ 43.1290822, 36.3484577 ], [ 43.1291639, 36.3484594 ], [ 43.1291882, 36.3485063 ], [ 43.1291812, 36.3485845 ], [ 43.1292004, 36.3486592 ], [ 43.1289936, 36.3488398 ], [ 43.1289363, 36.3488051 ], [ 43.1290266, 36.3486991 ], [ 43.1288112, 36.3484055 ] ] ] ] } },
{ "type": "Feature", "properties": { "id": 12, "Building N": "جامع الامام ابراهيم" }, "geometry": { "type": "MultiPolygon", "coordinates": [ [ [ [ 43.129452, 36.3456038 ], [ 43.1295191, 36.3454908 ], [ 43.1298052, 36.3455993 ], [ 43.1298546, 36.3455861 ], [ 43.1300354, 36.3456519 ], [ 43.1299335, 36.3458394 ], [ 43.1297987, 36.3457604 ], [ 43.1297395, 36.3457867 ], [ 43.129654, 36.345744 ], [ 43.129654, 36.3457078 ], [ 43.129452, 36.3456038 ] ] ] ] } },
{ "type": "Feature", "properties": { "id": 1, "Building N": "كنيسة مارتوما" }, "geometry": { "type": "MultiPolygon", "coordinates": [ [ [ [ 43.1243943, 36.3409136 ], [ 43.1246695, 36.3406583 ], [ 43.125014, 36.3409508 ], [ 43.1247959, 36.3411739 ], [ 43.1243943, 36.3409136 ] ] ] ] } },
{ "type": "Feature", "properties": { "id": 1, "Building N": "كنيسة مارتوما للسريان الكاثوليك" }, "geometry": { "type": "MultiPolygon", "coordinates": [ [ [ [ 43.1248975, 36.3412205 ], [ 43.1251467, 36.3409107 ], [ 43.125351, 36.3410589 ], [ 43.1253442, 36.3410791 ], [ 43.1253218, 36.3410903 ], [ 43.1251444, 36.3413912 ], [ 43.1248975, 36.3412205 ] ] ] ] } },
{ "type": "Feature", "properties": { "id": null, "Building N": "جامع الزيواني" }, "geometry": { "type": "MultiPolygon", "coordinates": [ [ [ [ 43.1255223, 36.3360673 ], [ 43.1256343, 36.3359871 ], [ 43.1257656, 36.3359599 ], [ 43.1258721, 36.3361382 ], [ 43.1259363, 36.3361174 ], [ 43.1257443, 36.3362723 ], [ 43.1254853, 36.336147 ], [ 43.1255223, 36.3360673 ] ] ] ] } },
{ "type": "Feature", "properties": { "id": null, "Building N": "مرقد زيد بن علي" }, "geometry": { "type": "MultiPolygon", "coordinates": [ [ [ [ 43.1266868, 36.3355238 ], [ 43.1268581, 36.3354737 ], [ 43.1269138, 36.3355977 ], [ 43.1267327, 36.3356422 ], [ 43.1266868, 36.3355238 ] ] ] ] } },
{ "type": "Feature", "properties": { "id": null, "Building N": "مرقد الشيخ فتحي" }, "geometry": { "type": "MultiPolygon", "coordinates": [ [ [ [ 43.1182812, 36.3464846 ], [ 43.1183458, 36.3464539 ], [ 43.1183181, 36.3464047 ], [ 43.1184995, 36.3463401 ], [ 43.1185549, 36.3464508 ], [ 43.118521, 36.3464631 ], [ 43.1185272, 36.3464846 ], [ 43.118398, 36.3465277 ], [ 43.1183857, 36.3465092 ], [ 43.1182997, 36.3465369 ], [ 43.1182812, 36.3464846 ] ] ] ] } },
{ "type": "Feature", "properties": { "id": 20, "Building N": "مرقد الامام عون الدين" }, "geometry": { "type": "MultiPolygon", "coordinates": [ [ [ [ 43.1306166, 36.3389039 ], [ 43.1313304, 36.3388514 ], [ 43.1312628, 36.3390713 ], [ 43.1311234, 36.3392201 ], [ 43.1308444, 36.3391411 ], [ 43.1306538, 36.3390109 ], [ 43.1306166, 36.3389039 ] ] ] ] } },
{ "type": "Feature", "properties": { "id": null, "Building N": "قصر امين بك الجليلي" }, "geometry": { "type": "MultiPolygon", "coordinates": [ [ [ [ 43.1291045, 36.3391595 ], [ 43.1293835, 36.3391205 ], [ 43.1294795, 36.3392195 ], [ 43.1295275, 36.3392975 ], [ 43.1295695, 36.3393695 ], [ 43.1296385, 36.3394475 ], [ 43.1296651, 36.3394976 ], [ 43.129659, 36.339558 ], [ 43.1296318, 36.3396365 ], [ 43.1292966, 36.3398056 ], [ 43.1290503, 36.3395718 ], [ 43.1289276, 36.3391955 ], [ 43.1291045, 36.3391595 ] ] ] ] } }
]
}
