{
"type": "FeatureCollection",
"name": "637_Heritage_Buildings",
"features": [
{ "type": "Feature", "properties": { "id": 1, "Building N": "الجامع الاموي" }, "geometry": { "type": "MultiPolygon", "coordinates": [ [ [ [ 43.1311803, 36.3460067 ], [ 43.1322737, 36.3459277 ], [ 43.1323498, 36.346595 ], [ 43.1312519, 36.3466714 ], [ 43.1311803, 36.3460067 ] ] ] ] } },
{ "type": "Feature", "properties": { "id": 3, "Building N": "كاتدرائية مار إيشوعياب" }, "geometry": { "type": "MultiPolygon", "coordinates": [ [ [ [ 43.1294679, 36.3488596 ], [ 43.1293605, 36.348719 ], [ 43.1297113, 36.3485529 ], [ 43.1298632, 36.3486769 ], [ 43.1297791, 36.34874 ], [ 43.1294679, 36.3488596 ] ] ] ] } },
{ "type": "Feature", "properties": { "id": 4, "Building N": "كنيسة الطاهرة السريانية" }, "geometry": { "type": "MultiPolygon", "coordinates": [ [ [ [ 43.1322155, 36.3445743 ], [ 43.1323038, 36.3442557 ], [ 43.1326517, 36.3443439 ], [ 43.1324998, 36.344638 ], [ 43.1323773, 36.3445988 ], [ 43.1322155, 36.3445743 ] ] ] ] } },
{ "type": "Feature", "properties": { "id": 5, "Building N": "مقبرة القريش (لاحقاً جامع وضريح النبي جرجيس)" }, "geometry": { "type": "MultiPolygon", "coordinates": [ [ [ [ 43.1309265, 36.3443243 ], [ 43.1306619, 36.3448046 ], [ 43.1304413, 36.3447997 ], [ 43.1300933, 36.3446429 ], [ 43.1301277, 36.3443145 ], [ 43.1302453, 36.3443047 ], [ 43.1302992, 36.3442067 ], [ 43.1305835, 36.3442263 ], [ 43.1306619, 36.3443096 ], [ 43.1309265, 36.3443243 ] ] ] ] } }
]
}
