{
"type": "FeatureCollection",
"name": "912_Heritage_Buildings",
"features": [
{ "type": "Feature", "properties": { "id": 1, "Building N": "مار إيشوعياب" }, "geometry": { "type": "Point", "coordinates": [ 43.1296167, 36.3488791 ] } },
{ "type": "Feature", "properties": { "id": 2, "Building N": "كنيسة الطاهرة السريانية الكاثوليكية" }, "geometry": { "type": "Point", "coordinates": [ 43.1324989, 36.3447433 ] } },
{ "type": "Feature", "properties": { "id": 3, "Building N": "دير الأعلى" }, "geometry": { "type": "Point", "coordinates": [ 43.1195789, 36.3567724 ] } },
{ "type": "Feature", "properties": { "id": 4, "Building N": "كنيسة مار توما للسريان الكاثوليك" }, "geometry": { "type": "Point", "coordinates": [ 43.1257264, 36.3408172 ] } },
{ "type": "Feature", "properties": { "id": 5, "Building N": "مسجد بنو سبت الصيرفي" }, "geometry": { "type": "Point", "coordinates": [ 43.1243657, 36.339982 ] } },
{ "type": "Feature", "properties": { "id": 6, "Building N": "مسجد تل العبادة" }, "geometry": { "type": "Point", "coordinates": [ 43.121059, 36.3462076 ] } },
{ "type": "Feature", "properties": { "id": 7, "Building N": "مسجد أبو حاضير" }, "geometry": { "type": "Point", "coordinates": [ 43.1265101, 36.3431926 ] } },
{ "type": "Feature", "properties": { "id": 8, "Building N": "قبر العنز" }, "geometry": { "type": "Point", "coordinates": [ 43.1325716, 36.3338898 ] } },
{ "type": "Feature", "properties": { "id": 9, "Building N": "مسجد الحر بن يوسف" }, "geometry": { "type": "Point", "coordinates": [ 43.1333692, 36.3444604 ] } },
{ "type": "Feature", "properties": { "id": 10, "Building N": "المسجد الثقيف" }, "geometry": { "type": "Point", "coordinates": [ 43.1227728, 36.3459056 ] } },
{ "type": "Feature", "properties": { "id": 11, "Building N": "مسجد سعيد بن عبد الملك" }, "geometry": { "type": "Point", "coordinates": [ 43.131862, 36.3440678 ] } },
{ "type": "Feature", "properties": { "id": 12, "Building N": "قصر المنقوشة" }, "geometry": { "type": "Point", "coordinates": [ 43.1334801, 36.343386 ] } },
{ "type": "Feature", "properties": { "id": 13, "Building N": "الجامع الأموي ودار الإمارة" }, "geometry": { "type": "Point", "coordinates": [ 43.1316191, 36.3462861 ] } },
{ "type": "Feature", "properties": { "id": 14, "Building N": "كنيسة شمعون الصفا" }, "geometry": { "type": "Point", "coordinates": [ 43.1261414, 36.3378201 ] } },
{ "type": "Feature", "properties": { "id": 15, "Building N": "كنيسة مار أحودامه" }, "geometry": { "type": "Point", "coordinates": [ 43.1236405, 36.3547929 ] } },
{ "type": "Feature", "properties": { "id": 16, "Building N": "كنيسة الطاهرة القديمة" }, "geometry": { "type": "Point", "coordinates": [ 43.1226079, 36.3538844 ] } },
{ "type": "Feature", "properties": { "id": 17, "Building N": "كنيسة مار جرجس" }, "geometry": { "type": "Point", "coordinates": [ 43.1228081, 36.3541609 ] } },
{ "type": "Feature", "properties": { "id": 18, "Building N": "مسجد أو معهد تاريخي قديم مرتبط بمحلة الشيخ فتحي" }, "geometry": { "type": "Point", "coordinates": [ 43.1266915, 36.3418389 ] } },
{ "type": "Feature", "properties": { "id": 19, "Building N": "سوق الأربعاء الناشئ" }, "geometry": { "type": "Point", "coordinates": [ 43.1242887, 36.3443479 ] } },
{ "type": "Feature", "properties": { "id": 20, "Building N": "المعلم المبكر لكنيسة مار توما" }, "geometry": { "type": "Point", "coordinates": [ 43.1254099, 36.340404 ] } },
{ "type": "Feature", "properties": { "id": 21, "Building N": "دار الست نعم" }, "geometry": { "type": "Point", "coordinates": [ 43.1289574, 36.3377263 ] } },
{ "type": "Feature", "properties": { "id": 22, "Building N": "النواة الأصلية لمشهد الإمام يحيى بن القاسم على ضفة النهر" }, "geometry": { "type": "Point", "coordinates": [ 43.1258486, 36.3526615 ] } },
{ "type": "Feature", "properties": { "id": 25, "Building N": "دير مار ميخائيل" }, "geometry": { "type": "Point", "coordinates": [ 43.0779031, 36.3904279 ] } }
]
}
