{"type":"FeatureCollection","features":[{"type":"Feature","geometry":{"type":"LineString","coordinates":[[43.1365264,36.3452576],[43.1189701,36.3372409]]},"properties":{"id":1,"Name":"شارع نينوى","kind":"street","source_record":"1966_Main_Roads.geojson:0:0","component":1,"connectivity":14,"mean_depth":2.4324324324324325,"integration_1_md":0.4111111111111111,"component_size":75}},{"type":"Feature","geometry":{"type":"LineString","coordinates":[[43.119172,36.3542686],[43.1216721,36.3501928],[43.1233937,36.3471552],[43.1268702,36.3407089],[43.130432,36.3339102]]},"properties":{"id":2,"Name":"شارع الفاروق","kind":"street","source_record":"1966_Main_Roads.geojson:1:0","component":1,"connectivity":6,"mean_depth":2.9594594594594597,"integration_1_md":0.3378995433789954,"component_size":75}},{"type":"Feature","geometry":{"type":"LineString","coordinates":[[43.1341372,36.3441414],[43.1342414,36.341875],[43.1316234,36.3402208],[43.1290574,36.3417578],[43.1274972,36.3424804],[43.1257619,36.3426497]]},"properties":{"id":3,"Name":null,"kind":"street","source_record":"1966_Main_Roads.geojson:2:0","component":1,"connectivity":8,"mean_depth":2.810810810810811,"integration_1_md":0.3557692307692307,"component_size":75}},{"type":"Feature","geometry":{"type":"LineString","coordinates":[[43.1321798,36.3432619],[43.1316946,36.3437562],[43.1313531,36.3440437],[43.1309307,36.3444751],[43.1302758,36.345567],[43.1297272,36.3466151],[43.1294161,36.3474493],[43.1285819,36.3480715],[43.1280728,36.3483401],[43.1266887,36.3499533],[43.1249608,36.3518044],[43.1235296,36.3526728],[43.1221787,36.3534769],[43.1192358,36.3544257]]},"properties":{"id":4,"Name":"سوق الشعارين","kind":"street","source_record":"1966_Main_Roads.geojson:3:0","component":1,"connectivity":11,"mean_depth":2.945945945945946,"integration_1_md":0.33944954128440363,"component_size":75}},{"type":"Feature","geometry":{"type":"LineString","coordinates":[[43.1321854,36.3432503],[43.1322685,36.3431506],[43.1324845,36.3428515],[43.1330911,36.3424526],[43.1336372,36.3421692],[43.1339952,36.3419513],[43.1342391,36.341889]]},"properties":{"id":5,"Name":"شارع النجفي","kind":"street","source_record":"1966_Main_Roads.geojson:4:0","component":1,"connectivity":4,"mean_depth":2.9864864864864864,"integration_1_md":0.33484162895927605,"component_size":75}},{"type":"Feature","geometry":{"type":"LineString","coordinates":[[43.1364475,36.3428641],[43.1361217,36.3420108],[43.1357183,36.3412971],[43.1354235,36.340661],[43.1337014,36.3386907],[43.1335618,36.3384114],[43.1332881,36.3378439],[43.1324412,36.3350013],[43.1313117,36.3341428],[43.1304947,36.3338037],[43.1291073,36.333295],[43.1268721,36.334374],[43.1258702,36.3348982],[43.125269,36.3355764],[43.1250031,36.3356411],[43.1211077,36.3355659],[43.120837,36.3356787],[43.1205512,36.3358892],[43.1191007,36.3372922],[43.1189007,36.3375229],[43.1155801,36.3431451],[43.1154418,36.3440961],[43.116283,36.3476212],[43.1166218,36.3490885],[43.117585,36.3516059],[43.1179855,36.352471],[43.1181938,36.3528395],[43.1190429,36.3544896]]},"properties":{"id":6,"Name":"شارع السور القديم","kind":"street","source_record":"1966_Main_Roads.geojson:5:0","component":1,"connectivity":13,"mean_depth":2.364864864864865,"integration_1_md":0.4228571428571429,"component_size":75}},{"type":"Feature","geometry":{"type":"LineString","coordinates":[[43.1190483,36.3544934],[43.1193731,36.3549864],[43.1200424,36.35587],[43.1203292,36.3562312]]},"properties":{"id":6,"Name":null,"kind":"street","source_record":"1966_Main_Roads.geojson:6:0","component":1,"connectivity":2,"mean_depth":3.189189189189189,"integration_1_md":0.3135593220338983,"component_size":75}},{"type":"Feature","geometry":{"type":"LineString","coordinates":[[43.1192303,36.3544283],[43.1177909,36.3550389],[43.1142839,36.3565498]]},"properties":{"id":5,"Name":null,"kind":"street","source_record":"1966_Main_Roads.geojson:7:0","component":1,"connectivity":4,"mean_depth":2.9594594594594597,"integration_1_md":0.3378995433789954,"component_size":75}},{"type":"Feature","geometry":{"type":"LineString","coordinates":[[43.1324684,36.3349802],[43.1332827,36.3354429],[43.1348374,36.3363313],[43.1357073,36.3369791],[43.1358369,36.3371457],[43.1363921,36.3374048],[43.1388908,36.3380526],[43.1398347,36.3382377],[43.1405331,36.3384506],[43.1412792,36.3389329]]},"properties":{"id":8,"Name":null,"kind":"street","source_record":"1966_Main_Roads.geojson:8:0","component":1,"connectivity":4,"mean_depth":3.108108108108108,"integration_1_md":0.32173913043478264,"component_size":75}},{"type":"Feature","geometry":{"type":"LineString","coordinates":[[43.1401092,36.3385785],[43.1396823,36.3391402],[43.1389521,36.3397018],[43.1383231,36.3402523],[43.1377277,36.3407241],[43.1374693,36.3410274],[43.1372783,36.341151],[43.1361999,36.3414206],[43.1359528,36.3414318],[43.1357843,36.341488],[43.1346807,36.341748],[43.1342625,36.3418735]]},"properties":{"id":8,"Name":null,"kind":"street","source_record":"1966_Main_Roads.geojson:9:0","component":1,"connectivity":5,"mean_depth":2.9864864864864864,"integration_1_md":0.33484162895927605,"component_size":75}},{"type":"Feature","geometry":{"type":"LineString","coordinates":[[43.13896,36.3396721],[43.1382544,36.3390842],[43.1372504,36.338243],[43.1365087,36.3376369],[43.136373,36.3375193]]},"properties":{"id":9,"Name":"شارع حلب","kind":"street","source_record":"1966_Main_Roads.geojson:10:0","component":1,"connectivity":1,"mean_depth":3.972972972972973,"integration_1_md":0.25170068027210885,"component_size":75}},{"type":"Feature","geometry":{"type":"LineString","coordinates":[[43.1361016,36.3373927],[43.1359298,36.3381254],[43.1356403,36.3392561],[43.1355589,36.3398531],[43.135601,36.3407722],[43.1356464,36.3411198]]},"properties":{"id":10,"Name":null,"kind":"street","source_record":"1966_Main_Roads.geojson:11:0","component":1,"connectivity":1,"mean_depth":3.3513513513513513,"integration_1_md":0.29838709677419356,"component_size":75}},{"type":"Feature","geometry":{"type":"LineString","coordinates":[[43.1316008,36.3402055],[43.1318853,36.3397549],[43.1323833,36.3390672],[43.1327271,36.3386285],[43.1329405,36.3384625],[43.1331421,36.3383795],[43.1339839,36.3380357],[43.1350154,36.3375022],[43.1357743,36.3370872],[43.135983,36.3368807],[43.1364029,36.3366581],[43.1377853,36.3342014],[43.1397884,36.3306]]},"properties":{"id":11,"Name":null,"kind":"street","source_record":"1966_Main_Roads.geojson:12:0","component":1,"connectivity":6,"mean_depth":2.8378378378378377,"integration_1_md":0.3523809523809524,"component_size":75}},{"type":"Feature","geometry":{"type":"LineString","coordinates":[[43.1305014,36.3338018],[43.1309972,36.3327721],[43.1315501,36.3313993],[43.1317027,36.3308463],[43.1336689,36.3248541]]},"properties":{"id":12,"Name":null,"kind":"street","source_record":"1966_Main_Roads.geojson:13:0","component":1,"connectivity":5,"mean_depth":2.918918918918919,"integration_1_md":0.3425925925925926,"component_size":75}},{"type":"Feature","geometry":{"type":"LineString","coordinates":[[43.1308291,36.3331477],[43.1326113,36.3330525],[43.1335909,36.3329845],[43.1341116,36.3329958],[43.134453,36.3330042],[43.1351775,36.3332373],[43.1392115,36.3346894],[43.140388,36.3351165],[43.1406539,36.335189],[43.1405196,36.3359409],[43.1404044,36.3366091],[43.1402892,36.3371737],[43.1402285,36.3372567],[43.1401279,36.3373294],[43.1400385,36.3373462],[43.1398707,36.337363],[43.1375117,36.3367592],[43.1375062,36.3366754],[43.1375509,36.3365636],[43.1378639,36.3359375],[43.1382097,36.3353341],[43.138134,36.3351072],[43.1377936,36.3341995]]},"properties":{"id":1,"Name":null,"kind":"street","source_record":"1966_Main_Roads.geojson:14:0","component":1,"connectivity":8,"mean_depth":3.3783783783783785,"integration_1_md":0.296,"component_size":75}},{"type":"Feature","geometry":{"type":"LineString","coordinates":[[43.1382323,36.3353341],[43.1386786,36.3354098],[43.1397528,36.3357956],[43.1402899,36.335962],[43.1404714,36.336204]]},"properties":{"id":1,"Name":null,"kind":"street","source_record":"1966_Main_Roads.geojson:15:0","component":1,"connectivity":2,"mean_depth":4.351351351351352,"integration_1_md":0.22981366459627328,"component_size":75}},{"type":"Feature","geometry":{"type":"LineString","coordinates":[[43.1375239,36.3367544],[43.1364089,36.3372004]]},"properties":{"id":9,"Name":null,"kind":"street","source_record":"1966_Main_Roads.geojson:16:0","component":1,"connectivity":2,"mean_depth":4.337837837837838,"integration_1_md":0.23052959501557632,"component_size":75}},{"type":"Feature","geometry":{"type":"LineString","coordinates":[[43.1363981,36.3366639],[43.136302,36.3368393],[43.1362284,36.3370034],[43.1362284,36.3370882],[43.1362624,36.3371448],[43.1363133,36.3371787],[43.1363981,36.3372014]]},"properties":{"id":10,"Name":null,"kind":"street","source_record":"1966_Main_Roads.geojson:17:0","component":1,"connectivity":2,"mean_depth":3.7972972972972974,"integration_1_md":0.26334519572953735,"component_size":75}},{"type":"Feature","geometry":{"type":"LineString","coordinates":[[43.1349075,36.3362982],[43.1349543,36.3356186],[43.1349075,36.3347046],[43.1350246,36.3332048],[43.1350012,36.3325334],[43.1350278,36.3321204],[43.135858,36.3277647],[43.1357292,36.3276073],[43.1330016,36.3269356],[43.1314358,36.3265729]]},"properties":{"id":10,"Name":null,"kind":"street","source_record":"1966_Main_Roads.geojson:18:0","component":1,"connectivity":5,"mean_depth":3.635135135135135,"integration_1_md":0.275092936802974,"component_size":75}},{"type":"Feature","geometry":{"type":"LineString","coordinates":[[43.1358782,36.3277807],[43.1359746,36.3277968],[43.1362156,36.3278128],[43.1396877,36.3304221],[43.1401507,36.3306221],[43.1420313,36.3314518],[43.1421279,36.331489],[43.1422988,36.331764],[43.1420586,36.3318849],[43.1392723,36.3347186]]},"properties":{"id":10,"Name":null,"kind":"street","source_record":"1966_Main_Roads.geojson:19:0","component":1,"connectivity":3,"mean_depth":4.297297297297297,"integration_1_md":0.23270440251572327,"component_size":75}},{"type":"Feature","geometry":{"type":"LineString","coordinates":[[43.1386566,36.3353966],[43.1388479,36.3349757],[43.1389627,36.3347843],[43.1390265,36.334644]]},"properties":{"id":10,"Name":null,"kind":"street","source_record":"1966_Main_Roads.geojson:20:0","component":1,"connectivity":2,"mean_depth":4.351351351351352,"integration_1_md":0.22981366459627328,"component_size":75}},{"type":"Feature","geometry":{"type":"LineString","coordinates":[[43.1406628,36.3351707],[43.1413334,36.3352121],[43.1421696,36.3352701],[43.1427326,36.335328],[43.1433452,36.3353528],[43.1439413,36.3354108]]},"properties":{"id":10,"Name":null,"kind":"street","source_record":"1966_Main_Roads.geojson:21:0","component":1,"connectivity":2,"mean_depth":4.3108108108108105,"integration_1_md":0.23197492163009406,"component_size":75}},{"type":"Feature","geometry":{"type":"LineString","coordinates":[[43.1405978,36.3384521],[43.1409354,36.3381337],[43.1412056,36.3378154],[43.1414468,36.3374681],[43.1416397,36.3369953],[43.1419484,36.3363682],[43.1420835,36.335992],[43.1421221,36.3356929],[43.1421124,36.3352684]]},"properties":{"id":11,"Name":null,"kind":"street","source_record":"1966_Main_Roads.geojson:22:0","component":1,"connectivity":2,"mean_depth":3.9594594594594597,"integration_1_md":0.2525597269624573,"component_size":75}},{"type":"Feature","geometry":{"type":"LineString","coordinates":[[43.124218,36.3453311],[43.1246024,36.3453861],[43.1251626,36.3454849],[43.1262499,36.3457485],[43.126876,36.3460011],[43.1272274,36.3461329],[43.1276228,36.3461],[43.1281061,36.3462098],[43.1285015,36.3463416],[43.1288749,36.3464844],[43.1292484,36.3465613],[43.1296987,36.3466601]]},"properties":{"id":12,"Name":"شارع المكاوي","kind":"street","source_record":"1966_Main_Roads.geojson:23:0","component":1,"connectivity":5,"mean_depth":3.4864864864864864,"integration_1_md":0.2868217054263566,"component_size":75}},{"type":"Feature","geometry":{"type":"LineString","coordinates":[[43.1208618,36.3513068],[43.1185901,36.3525508],[43.1182655,36.3527401],[43.1168052,36.3537407],[43.1158045,36.3543627],[43.1150202,36.3547684],[43.1141007,36.3554175],[43.1119616,36.3568231],[43.1055231,36.3588699]]},"properties":{"id":1,"Name":null,"kind":"street","source_record":"1966_Main_Roads.geojson:24:0","component":1,"connectivity":2,"mean_depth":3.324324324324324,"integration_1_md":0.3008130081300813,"component_size":75}},{"type":"Feature","geometry":{"type":"LineString","coordinates":[[43.1059248,36.354738],[43.1072235,36.3521887],[43.1086185,36.3498317],[43.1092919,36.3487735],[43.1094362,36.3484368],[43.1101577,36.3471861],[43.1113602,36.3460798],[43.1118893,36.3455026],[43.1128514,36.3450697],[43.1140058,36.3445887],[43.1153045,36.3441557],[43.1156412,36.3440595]]},"properties":{"id":1,"Name":null,"kind":"street","source_record":"1966_Main_Roads.geojson:25:0","component":1,"connectivity":2,"mean_depth":3.2432432432432434,"integration_1_md":0.3083333333333333,"component_size":75}},{"type":"Feature","geometry":{"type":"LineString","coordinates":[[43.1186716,36.3441076],[43.1174691,36.3436747],[43.1167957,36.3434823],[43.1159298,36.3430975],[43.1151121,36.3430013],[43.1120817,36.3424241],[43.1015957,36.3401633]]},"properties":{"id":1,"Name":null,"kind":"street","source_record":"1966_Main_Roads.geojson:26:0","component":1,"connectivity":2,"mean_depth":3.2432432432432434,"integration_1_md":0.3083333333333333,"component_size":75}},{"type":"Feature","geometry":{"type":"LineString","coordinates":[[43.0977705,36.3296672],[43.1189746,36.3372408]]},"properties":{"id":1,"Name":null,"kind":"street","source_record":"1966_Main_Roads.geojson:27:0","component":1,"connectivity":2,"mean_depth":3.391891891891892,"integration_1_md":0.29482071713147406,"component_size":75}},{"type":"Feature","geometry":{"type":"LineString","coordinates":[[43.1064759,36.3373402],[43.115035,36.3357635]]},"properties":{"id":1,"Name":null,"kind":"street","source_record":"1966_Main_Roads.geojson:28:0","component":1,"connectivity":1,"mean_depth":4.378378378378378,"integration_1_md":0.22839506172839508,"component_size":75}},{"type":"Feature","geometry":{"type":"LineString","coordinates":[[43.1337487,36.3328535],[43.1350572,36.332348],[43.136663,36.3319019],[43.140172,36.3303556],[43.1450787,36.3277982]]},"properties":{"id":1,"Name":null,"kind":"street","source_record":"1966_Main_Roads.geojson:31:0","component":1,"connectivity":2,"mean_depth":4.608108108108108,"integration_1_md":0.21700879765395895,"component_size":75}},{"type":"Feature","geometry":{"type":"LineString","coordinates":[[43.136463,36.3428566],[43.1368644,36.3427263],[43.1369791,36.3427002],[43.1373022,36.3426429],[43.1382666,36.3424917],[43.138569,36.3423249]]},"properties":{"id":1,"Name":null,"kind":"street","source_record":"1966_Main_Roads.geojson:33:0","component":1,"connectivity":3,"mean_depth":3.27027027027027,"integration_1_md":0.3057851239669422,"component_size":75}},{"type":"Feature","geometry":{"type":"LineString","coordinates":[[43.1369061,36.3427054],[43.1372345,36.3425803],[43.1377818,36.3421946],[43.1382875,36.3418662],[43.1383448,36.3418766],[43.1383187,36.3419287],[43.1384595,36.3420226],[43.1386107,36.3421789]]},"properties":{"id":1,"Name":null,"kind":"street","source_record":"1966_Main_Roads.geojson:34:0","component":1,"connectivity":2,"mean_depth":4.148648648648648,"integration_1_md":0.241042345276873,"component_size":75}},{"type":"Feature","geometry":{"type":"LineString","coordinates":[[43.1365092,36.3413478],[43.1369103,36.3414638],[43.1371224,36.3415334],[43.1376329,36.3416528],[43.1380571,36.341782],[43.1382991,36.3418649]]},"properties":{"id":1,"Name":null,"kind":"street","source_record":"1966_Main_Roads.geojson:35:0","component":1,"connectivity":2,"mean_depth":3.9324324324324325,"integration_1_md":0.2542955326460481,"component_size":75}},{"type":"Feature","geometry":{"type":"LineString","coordinates":[[43.1364495,36.3428603],[43.1364383,36.3429555],[43.1364457,36.3430059],[43.1373332,36.343248],[43.1381501,36.3434648]]},"properties":{"id":1,"Name":null,"kind":"street","source_record":"1966_Main_Roads.geojson:36:0","component":1,"connectivity":4,"mean_depth":3.2567567567567566,"integration_1_md":0.3070539419087137,"component_size":75}},{"type":"Feature","geometry":{"type":"LineString","coordinates":[[43.1360076,36.345004],[43.136359,36.3449256],[43.1369143,36.3448754]]},"properties":{"id":1,"Name":null,"kind":"street","source_record":"1966_Main_Roads.geojson:37:0","component":1,"connectivity":2,"mean_depth":3.3783783783783785,"integration_1_md":0.296,"component_size":75}},{"type":"Feature","geometry":{"type":"LineString","coordinates":[[43.1187199,36.3442353],[43.1189944,36.344385],[43.1193521,36.344543],[43.1195518,36.3446262],[43.1197431,36.3447177],[43.1198263,36.3447261],[43.1199677,36.3447094],[43.1200842,36.3447094],[43.1203337,36.3447926],[43.1205666,36.3448675],[43.1204617,36.3450247],[43.1204014,36.3451534],[43.120392,36.3452191],[43.1205164,36.3452678],[43.1207863,36.3453064],[43.1209515,36.3452898],[43.1211773,36.3453339],[43.1215352,36.3453779],[43.1220419,36.3454],[43.1223723,36.3454],[43.1226311,36.3454165],[43.1230937,36.3454],[43.1238317,36.3453449],[43.1242061,36.3453394]]},"properties":{"id":1,"Name":null,"kind":"street","source_record":"1966_Secondary_roads.geojson:0:0","component":1,"connectivity":3,"mean_depth":4.337837837837838,"integration_1_md":0.23052959501557632,"component_size":75}},{"type":"Feature","geometry":{"type":"LineString","coordinates":[[43.11832,36.345029],[43.1185657,36.344472],[43.1187132,36.3442263],[43.1189425,36.3438659],[43.1193357,36.3432925],[43.1195814,36.3429485],[43.1197038,36.3427177],[43.1198251,36.3423051],[43.1198898,36.3422647],[43.1205775,36.3422242],[43.1209011,36.3422081],[43.1215644,36.3422162],[43.1222844,36.3422566],[43.1225352,36.3422728],[43.1225433,36.3425317],[43.1225676,36.3428148],[43.122511,36.3430009],[43.1224543,36.3430818],[43.1223006,36.3431627],[43.1222359,36.3432031],[43.1221469,36.3434539],[43.1220741,36.3436157],[43.1220337,36.3437451],[43.1220256,36.3438503],[43.1219447,36.3439069],[43.1215887,36.3442548],[43.1217101,36.34436],[43.1215644,36.344546],[43.121079,36.3442629],[43.1205653,36.3448685]]},"properties":{"id":2,"Name":null,"kind":"street","source_record":"1966_Secondary_roads.geojson:1:0","component":1,"connectivity":3,"mean_depth":4.513513513513513,"integration_1_md":0.22155688622754494,"component_size":75}},{"type":"Feature","geometry":{"type":"LineString","coordinates":[[43.1197494,36.3425742],[43.1198173,36.3428455],[43.1199737,36.3432106],[43.120125,36.3436018],[43.120198,36.3438887],[43.1202293,36.3441808],[43.1200838,36.3445615],[43.1200261,36.3447011]]},"properties":{"id":3,"Name":null,"kind":"street","source_record":"1966_Secondary_roads.geojson:2:0","component":1,"connectivity":2,"mean_depth":5,"integration_1_md":0.2,"component_size":75}},{"type":"Feature","geometry":{"type":"LineString","coordinates":[[43.1236853,36.3394034],[43.1236411,36.3395593],[43.1237168,36.3397108],[43.1237042,36.3399443],[43.123761,36.3402282],[43.1238304,36.3407267],[43.1241915,36.3409417],[43.1245654,36.3411162],[43.1249725,36.341382],[43.125147,36.3415316],[43.1251885,36.341731],[43.1251553,36.3420301],[43.1251303,36.3423458],[43.1248645,36.3422212],[43.1244324,36.3420301],[43.1241084,36.3419636],[43.1233856,36.3420467],[43.1228788,36.3422544],[43.122563,36.3422627],[43.122588,36.3420633],[43.1226461,36.3417144],[43.1227209,36.3414817],[43.1228705,36.3414402],[43.1231363,36.3410995],[43.1231696,36.3409749],[43.1231446,36.3406592],[43.1231613,36.3404183],[43.1232859,36.3399281],[43.1235268,36.3396373],[43.1236431,36.3395542]]},"properties":{"id":8,"Name":null,"kind":"street","source_record":"1966_Secondary_roads.geojson:3:0","component":1,"connectivity":2,"mean_depth":3.391891891891892,"integration_1_md":0.29482071713147406,"component_size":75}},{"type":"Feature","geometry":{"type":"LineString","coordinates":[[43.1251319,36.3423419],[43.1253533,36.3424563],[43.1257556,36.3426408]]},"properties":{"id":4,"Name":null,"kind":"street","source_record":"1966_Secondary_roads.geojson:4:0","component":1,"connectivity":2,"mean_depth":3.77027027027027,"integration_1_md":0.26523297491039427,"component_size":75}},{"type":"Feature","geometry":{"type":"LineString","coordinates":[[43.1249006,36.3454342],[43.1250223,36.3451243],[43.1252658,36.3448033],[43.1254871,36.3445156],[43.125786,36.3440619],[43.1260405,36.3437741],[43.1262729,36.3434753],[43.1263282,36.3434753],[43.1264721,36.3434974],[43.1269812,36.343431],[43.12728,36.3433646],[43.1275567,36.3432872],[43.1279551,36.3432318],[43.1281211,36.3432208],[43.1283867,36.3433204],[43.1285306,36.3434642],[43.1288294,36.3437188],[43.1291614,36.3440065],[43.1293606,36.3441172],[43.1296262,36.3442279],[43.1298807,36.34425],[43.1302017,36.3442389],[43.1305337,36.34425],[43.1307993,36.3442389],[43.1310649,36.3442832]]},"properties":{"id":5,"Name":null,"kind":"street","source_record":"1966_Secondary_roads.geojson:5:0","component":1,"connectivity":2,"mean_depth":3.7972972972972974,"integration_1_md":0.26334519572953735,"component_size":75}},{"type":"Feature","geometry":{"type":"LineString","coordinates":[[43.1298863,36.3422177],[43.129935,36.3423636],[43.1300322,36.3425885],[43.1300383,36.3427344],[43.1300808,36.3428681],[43.1301599,36.3430018],[43.1303118,36.3432145],[43.1305246,36.3434698],[43.1306461,36.3436704],[43.1308042,36.3437981],[43.1309014,36.343871],[43.1310716,36.3439683],[43.1312601,36.3441263]]},"properties":{"id":10,"Name":null,"kind":"street","source_record":"1966_Secondary_roads.geojson:6:0","component":1,"connectivity":2,"mean_depth":3.22972972972973,"integration_1_md":0.30962343096234307,"component_size":75}},{"type":"Feature","geometry":{"type":"LineString","coordinates":[[43.1188988,36.3467339],[43.1195593,36.3470987],[43.1205847,36.3476508],[43.1212255,36.348055],[43.1217776,36.3483508],[43.122379,36.348617],[43.122803,36.3488733],[43.1233354,36.349248],[43.1235917,36.349386],[43.1241339,36.3493367],[43.1244987,36.349317],[43.1250706,36.3493268],[43.1255044,36.3493564],[43.1258494,36.3493564],[43.1261156,36.3492973],[43.1263621,36.3491987],[43.1266283,36.349317],[43.1268058,36.349455],[43.1269044,36.3496423],[43.1269044,36.3496423]]},"properties":{"id":6,"Name":null,"kind":"street","source_record":"1966_Secondary_roads.geojson:7:0","component":1,"connectivity":2,"mean_depth":3.6486486486486487,"integration_1_md":0.2740740740740741,"component_size":75}},{"type":"Feature","geometry":{"type":"LineString","coordinates":[[43.1302103,36.3344442],[43.1303778,36.3345343],[43.1304365,36.3345945],[43.1305297,36.3346734],[43.1306516,36.3347308],[43.1307592,36.3348025],[43.1308668,36.3348312],[43.1310532,36.334867],[43.1314047,36.3350894],[43.1316341,36.3352758],[43.1318493,36.3354623],[43.131964,36.3357563],[43.1321362,36.3361579],[43.1322294,36.3364878],[43.1323513,36.3368321],[43.1324606,36.3371716],[43.1325838,36.3375243],[43.1326902,36.3378771],[43.1327014,36.3379778],[43.1327797,36.3382242],[43.1328245,36.3383922],[43.1328637,36.3384873]]},"properties":{"id":9,"Name":null,"kind":"street","source_record":"1966_Secondary_roads.geojson:9:0","component":1,"connectivity":3,"mean_depth":3.27027027027027,"integration_1_md":0.3057851239669422,"component_size":75}},{"type":"Feature","geometry":{"type":"LineString","coordinates":[[43.1295125,36.3357012],[43.1296367,36.3357776],[43.1297609,36.3358158],[43.1298755,36.3357776],[43.1299233,36.3357012],[43.1301143,36.3357298],[43.13042,36.3358636],[43.1306207,36.3359878],[43.130678,36.3360451],[43.1304583,36.3363603],[43.1302767,36.3366756],[43.1301239,36.3367998],[43.129971,36.3369909],[43.1298373,36.337201],[43.1297418,36.3373157],[43.1295507,36.3374876],[43.1293405,36.3376596],[43.129159,36.3377647],[43.1290157,36.3378316],[43.1289011,36.3379271],[43.1288151,36.3380226],[43.1284998,36.3382997],[43.1283756,36.3384525],[43.1282321,36.3386268],[43.1281494,36.3387536],[43.127995,36.3386598]]},"properties":{"id":11,"Name":null,"kind":"street","source_record":"1966_Secondary_roads.geojson:10:0","component":1,"connectivity":3,"mean_depth":3.891891891891892,"integration_1_md":0.2569444444444444,"component_size":75}},{"type":"Feature","geometry":{"type":"LineString","coordinates":[[43.1281587,36.3387488],[43.1282156,36.3387591],[43.1282828,36.3387539],[43.1283604,36.3387178],[43.128469,36.3387022],[43.1285465,36.3387074],[43.128562,36.3387488],[43.1285879,36.3389453],[43.1286137,36.3390952],[43.1286706,36.3392658],[43.1288699,36.3398073],[43.129071,36.3401912],[43.1292476,36.3404775],[43.1293817,36.340642],[43.1296375,36.3408126],[43.1297899,36.3409223],[43.1300031,36.3410685],[43.130064,36.3411294]]},"properties":{"id":13,"Name":null,"kind":"street","source_record":"1966_Secondary_roads.geojson:11:0","component":1,"connectivity":2,"mean_depth":3.7432432432432434,"integration_1_md":0.2671480144404332,"component_size":75}},{"type":"Feature","geometry":{"type":"LineString","coordinates":[[43.1297779,36.3372994],[43.1298837,36.3373564],[43.1300546,36.3374377],[43.130136,36.3375191],[43.1302662,36.3376412],[43.1303313,36.33769],[43.1304045,36.3377632],[43.1305347,36.3379504],[43.1306486,36.3380562],[43.1308032,36.3381457],[43.1309415,36.3382189],[43.1309822,36.3382596],[43.1311043,36.3383165],[43.1311694,36.3383979],[43.1312101,36.3384386],[43.1312508,36.338463],[43.1312752,36.3385851],[43.1312996,36.338699],[43.1313484,36.3387641],[43.1314379,36.3388129],[43.1314379,36.3390164],[43.1314135,36.3392035],[43.1314542,36.3393988],[43.1314461,36.3395778],[43.1314542,36.3397975],[43.1314786,36.3399684],[43.1314949,36.3401149]]},"properties":{"id":14,"Name":null,"kind":"street","source_record":"1966_Secondary_roads.geojson:12:0","component":1,"connectivity":1,"mean_depth":4.878378378378378,"integration_1_md":0.20498614958448755,"component_size":75}},{"type":"Feature","geometry":{"type":"LineString","coordinates":[[43.1331689,36.3377827],[43.13275,36.3378919],[43.1325497,36.3379648],[43.1322856,36.3380194],[43.1320034,36.3380558],[43.1316665,36.3381469],[43.1313933,36.3382015],[43.1311657,36.3382288],[43.1311475,36.3380558],[43.1310828,36.3375323],[43.1310955,36.3373046],[43.1311461,36.3371655],[43.1311714,36.3370137],[43.1312346,36.3368113],[43.1312346,36.3365584],[43.1311714,36.3360778],[43.1310575,36.3357742],[43.1310196,36.335711],[43.1309057,36.335673],[43.1308299,36.3355465],[43.1307666,36.3351797],[43.1307287,36.3350533],[43.1307413,36.3347877]]},"properties":{"id":15,"Name":null,"kind":"street","source_record":"1966_Secondary_roads.geojson:13:0","component":1,"connectivity":1,"mean_depth":4.256756756756757,"integration_1_md":0.23492063492063492,"component_size":75}},{"type":"Feature","geometry":{"type":"LineString","coordinates":[[43.1272374,36.3461207],[43.1272497,36.3462065],[43.1272497,36.3463045],[43.1272742,36.3464884],[43.12736,36.3466722],[43.1273968,36.3468193],[43.1275071,36.3469663],[43.1275683,36.3471502],[43.1276296,36.347285],[43.127789,36.3474198],[43.127887,36.3475301],[43.1280831,36.3477139],[43.1282792,36.3478733],[43.1284263,36.3479958],[43.1284875,36.3480694],[43.1287039,36.3480906],[43.1288302,36.3481637],[43.1289299,36.3481903],[43.128983,36.3482501],[43.1291093,36.3484362],[43.1291957,36.3484694],[43.129322,36.3485625],[43.1294017,36.3486023],[43.1295081,36.3486887],[43.1295612,36.3487353],[43.1296078,36.3488682],[43.1296211,36.348928],[43.1296011,36.3489878],[43.1296543,36.349154],[43.1297274,36.3493268],[43.1297939,36.3495128],[43.1299002,36.3496856],[43.1299667,36.3498119]]},"properties":{"id":16,"Name":null,"kind":"street","source_record":"1966_Secondary_roads.geojson:14:0","component":1,"connectivity":4,"mean_depth":3.635135135135135,"integration_1_md":0.275092936802974,"component_size":75}},{"type":"Feature","geometry":{"type":"LineString","coordinates":[[43.1274013,36.3492071],[43.1276339,36.3492603],[43.1279329,36.3493068],[43.1282719,36.3493467],[43.1284779,36.3493401],[43.1287371,36.3492271],[43.1290694,36.3491074],[43.1294217,36.3489812],[43.1296277,36.3489346],[43.1297806,36.348928],[43.12996,36.3489147],[43.1301594,36.3488682],[43.1303787,36.3488349],[43.130618,36.3487286],[43.1309436,36.3486156],[43.1312626,36.3485558],[43.1315218,36.3484362],[43.1318608,36.348383],[43.1320402,36.3483166],[43.132233,36.348177],[43.132375,36.3480463],[43.1326466,36.3477408],[43.1328898,36.3475259],[43.1330822,36.3473901],[43.1333311,36.3471807],[43.1335631,36.3470167],[43.1336706,36.3468922],[43.1337539,36.3464733],[43.1338456,36.3461617],[43.1339097,36.3458958],[43.1340014,36.3456759],[43.1340839,36.3455659],[43.1342672,36.3454742],[43.1346797,36.3452267],[43.1349547,36.3451076],[43.1352755,36.3449059],[43.135468,36.3447959]]},"properties":{"id":16,"Name":null,"kind":"street","source_record":"1966_Secondary_roads.geojson:15:0","component":1,"connectivity":8,"mean_depth":3.1216216216216215,"integration_1_md":0.3203463203463204,"component_size":75}},{"type":"Feature","geometry":{"type":"LineString","coordinates":[[43.1308757,36.3445943],[43.1310682,36.3446493],[43.1312699,36.3446859],[43.131444,36.3447134],[43.131664,36.3447867],[43.1318474,36.3448142],[43.1320398,36.3449151],[43.1321773,36.3449609],[43.1323423,36.3450067],[43.132489,36.3450434],[43.132599,36.3450617],[43.1328006,36.3451076],[43.1329748,36.3451809],[43.1331215,36.3452359],[43.1333506,36.3452909],[43.1335614,36.3453642],[43.1338272,36.3454834],[43.1339097,36.34552],[43.1340472,36.3456025]]},"properties":{"id":17,"Name":null,"kind":"street","source_record":"1966_Secondary_roads.geojson:16:0","component":1,"connectivity":3,"mean_depth":3.77027027027027,"integration_1_md":0.26523297491039427,"component_size":75}},{"type":"Feature","geometry":{"type":"LineString","coordinates":[[43.1341464,36.344169],[43.1341194,36.3443583],[43.1340833,36.3444936],[43.1340743,36.3445567],[43.1340202,36.344728],[43.1340022,36.3448542],[43.1339751,36.3449444],[43.1340022,36.3450796],[43.1340022,36.3451878],[43.1340022,36.345278],[43.1340653,36.3453411],[43.1341735,36.3454132],[43.1342275,36.3454763]]},"properties":{"id":18,"Name":null,"kind":"street","source_record":"1966_Secondary_roads.geojson:17:0","component":1,"connectivity":4,"mean_depth":3.0945945945945947,"integration_1_md":0.3231441048034934,"component_size":75}},{"type":"Feature","geometry":{"type":"LineString","coordinates":[[43.1303868,36.3454493],[43.130486,36.3454763],[43.1306122,36.3455214],[43.1307564,36.3455935],[43.1308917,36.3456837],[43.1310179,36.3458009],[43.131072,36.345882],[43.1311441,36.3459541],[43.131054,36.3460533],[43.1309728,36.3461254],[43.1309277,36.3462246],[43.1309187,36.3463328],[43.1309007,36.3463959],[43.1308827,36.3465041],[43.1308466,36.3466123],[43.1308105,36.3467385],[43.1307384,36.3469279],[43.1307035,36.3470889],[43.1306627,36.3472419],[43.1306423,36.3473744],[43.1306117,36.347507],[43.1305913,36.3476294],[43.1305404,36.3477212],[43.1305098,36.3478231],[43.1304792,36.3478945],[43.130316,36.3480169],[43.1302956,36.3480781],[43.1303262,36.3481699],[43.1303058,36.3482413],[43.1302038,36.3483534],[43.1301222,36.3484452],[43.1300406,36.3485166],[43.1298163,36.3483942],[43.1297143,36.348486],[43.1295715,36.3486288],[43.1295409,36.34869]]},"properties":{"id":18,"Name":null,"kind":"street","source_record":"1966_Secondary_roads.geojson:18:0","component":1,"connectivity":4,"mean_depth":3.7837837837837838,"integration_1_md":0.2642857142857143,"component_size":75}},{"type":"Feature","geometry":{"type":"LineString","coordinates":[[43.131448,36.3484452],[43.131448,36.3483229],[43.1314582,36.3482311],[43.1315704,36.3482005],[43.1316723,36.3481597],[43.1318151,36.3481393],[43.1319375,36.3481291],[43.1319885,36.3480781],[43.1321109,36.3478537],[43.1321924,36.3476498],[43.132274,36.3475376],[43.1323454,36.3474152],[43.1324474,36.3471603],[43.1325086,36.3469155],[43.1325086,36.3467829],[43.1325086,36.3466708],[43.1325086,36.3464974],[43.1325188,36.346375],[43.1325596,36.346273],[43.1325902,36.3461405],[43.1327543,36.3455362],[43.1328397,36.3454188],[43.1328824,36.3453121],[43.1329677,36.3451627]]},"properties":{"id":19,"Name":null,"kind":"street","source_record":"1966_Secondary_roads.geojson:19:0","component":1,"connectivity":4,"mean_depth":3.945945945945946,"integration_1_md":0.2534246575342466,"component_size":75}},{"type":"Feature","geometry":{"type":"LineString","coordinates":[[43.1309313,36.3463875],[43.1310735,36.3463875],[43.1312158,36.3463808],[43.1313512,36.3463672],[43.1314934,36.3463401],[43.131656,36.346313],[43.1317982,36.346313],[43.1319268,36.3463266],[43.1321029,36.3463266],[43.1322519,36.3463198],[43.1323332,36.3463266],[43.1323941,36.3463605],[43.1325567,36.3464756],[43.1326786,36.346523],[43.1327598,36.3465568],[43.1328411,36.3465772],[43.132963,36.346611],[43.1330984,36.3466313],[43.1331323,36.3466517],[43.1331458,36.3467532],[43.1331662,36.3467871],[43.1332881,36.346821],[43.1333964,36.3468548],[43.133498,36.3468887],[43.1336064,36.3469361],[43.1336199,36.3469361]]},"properties":{"id":20,"Name":null,"kind":"street","source_record":"1966_Secondary_roads.geojson:20:0","component":1,"connectivity":5,"mean_depth":3.9324324324324325,"integration_1_md":0.2542955326460481,"component_size":75}},{"type":"Feature","geometry":{"type":"LineString","coordinates":[[43.1331255,36.3466449],[43.1332339,36.3466178],[43.1333693,36.3466043],[43.1335048,36.3465772],[43.1336131,36.3465568],[43.1337418,36.3465433]]},"properties":{"id":21,"Name":null,"kind":"street","source_record":"1966_Secondary_roads.geojson:21:0","component":1,"connectivity":2,"mean_depth":4.0675675675675675,"integration_1_md":0.24584717607973422,"component_size":75}},{"type":"Feature","geometry":{"type":"LineString","coordinates":[[43.1311519,36.3459438],[43.1312182,36.3458822],[43.1312893,36.3458253],[43.1313509,36.3458064],[43.131583,36.3458964],[43.1317109,36.3459201],[43.1318247,36.345939],[43.1319715,36.3459769],[43.1320758,36.3460101],[43.1321895,36.3460527],[43.1322889,36.3461048],[43.132379,36.3461427],[43.1325116,36.3461759],[43.1325779,36.3461759]]},"properties":{"id":22,"Name":null,"kind":"street","source_record":"1966_Secondary_roads.geojson:22:0","component":1,"connectivity":3,"mean_depth":4.648648648648648,"integration_1_md":0.21511627906976746,"component_size":75}},{"type":"Feature","geometry":{"type":"LineString","coordinates":[[43.1323458,36.3461333],[43.1323932,36.3462186],[43.1323979,36.3462517],[43.1323884,36.3463133],[43.132379,36.3463417]]},"properties":{"id":23,"Name":null,"kind":"street","source_record":"1966_Secondary_roads.geojson:23:0","component":1,"connectivity":2,"mean_depth":4.891891891891892,"integration_1_md":0.2044198895027624,"component_size":75}},{"type":"Feature","geometry":{"type":"LineString","coordinates":[[43.1168322,36.3537137],[43.1172919,36.3541193],[43.1175083,36.3544439],[43.1176976,36.3547143],[43.117914,36.3550929],[43.1182926,36.3555797],[43.1186442,36.3560395],[43.1188875,36.3566074],[43.1189957,36.3569319]]},"properties":{"id":24,"Name":null,"kind":"street","source_record":"1966_Secondary_roads.geojson:24:0","component":1,"connectivity":2,"mean_depth":3.918918918918919,"integration_1_md":0.25517241379310346,"component_size":75}},{"type":"Feature","geometry":{"type":"LineString","coordinates":[[43.1356817,36.3277387],[43.1338974,36.3296122],[43.133154,36.3304745],[43.1322321,36.3309801],[43.128961,36.3329428],[43.1289015,36.3333293],[43.1236248,36.3320014]]},"properties":{"id":1,"Name":null,"kind":"street","source_record":"1966_Secondary_roads.geojson:25:0","component":1,"connectivity":5,"mean_depth":3.7567567567567566,"integration_1_md":0.26618705035971224,"component_size":75}},{"type":"Feature","geometry":{"type":"LineString","coordinates":[[43.1270094,36.3326889],[43.1275119,36.3318956],[43.1283316,36.3305735],[43.1286753,36.3299653],[43.1290191,36.3292513],[43.1305792,36.3267393]]},"properties":{"id":1,"Name":null,"kind":"street","source_record":"1966_Secondary_roads.geojson:26:0","component":1,"connectivity":1,"mean_depth":5.6891891891891895,"integration_1_md":0.17577197149643706,"component_size":75}},{"type":"Feature","geometry":{"type":"LineString","coordinates":[[43.1314254,36.3270566],[43.1321658,36.3293835]]},"properties":{"id":1,"Name":null,"kind":"street","source_record":"1966_Secondary_roads.geojson:27:0","component":1,"connectivity":1,"mean_depth":3.9054054054054053,"integration_1_md":0.2560553633217993,"component_size":75}},{"type":"Feature","geometry":{"type":"LineString","coordinates":[[43.1242867,36.3304884],[43.125469,36.3310173],[43.1274603,36.3318885],[43.1289538,36.3329464]]},"properties":{"id":1,"Name":null,"kind":"street","source_record":"1966_Secondary_roads.geojson:29:0","component":1,"connectivity":3,"mean_depth":4.702702702702703,"integration_1_md":0.21264367816091953,"component_size":75}},{"type":"Feature","geometry":{"type":"LineString","coordinates":[[43.1254524,36.3310049],[43.1244237,36.3321663]]},"properties":{"id":1,"Name":null,"kind":"street","source_record":"1966_Secondary_roads.geojson:30:0","component":1,"connectivity":2,"mean_depth":4.716216216216216,"integration_1_md":0.21203438395415475,"component_size":75}},{"type":"Feature","geometry":{"type":"LineString","coordinates":[[43.1252124,36.3336815],[43.1255458,36.3324778]]},"properties":{"id":1,"Name":null,"kind":"street","source_record":"1966_Secondary_roads.geojson:31:0","component":1,"connectivity":1,"mean_depth":4.743243243243243,"integration_1_md":0.21082621082621084,"component_size":75}},{"type":"Feature","geometry":{"type":"LineString","coordinates":[[43.1331573,36.3304777],[43.1352315,36.3307925],[43.1326943,36.3327]]},"properties":{"id":1,"Name":null,"kind":"street","source_record":"1966_Secondary_roads.geojson:32:0","component":1,"connectivity":2,"mean_depth":4.675675675675675,"integration_1_md":0.2138728323699422,"component_size":75}},{"type":"Feature","geometry":{"type":"LineString","coordinates":[[43.1355732,36.3292133],[43.1342651,36.3306087]]},"properties":{"id":1,"Name":null,"kind":"street","source_record":"1966_Secondary_roads.geojson:33:0","component":1,"connectivity":2,"mean_depth":4.527027027027027,"integration_1_md":0.2208955223880597,"component_size":75}},{"type":"Feature","geometry":{"type":"LineString","coordinates":[[43.1198364,36.3422755],[43.1198356,36.3422754],[43.1198331,36.3422751],[43.119829,36.3422745],[43.1198234,36.3422739],[43.1198166,36.342273],[43.1198085,36.342272],[43.1197993,36.3422708],[43.119789,36.3422696],[43.1197779,36.3422682],[43.119766,36.3422667],[43.1197534,36.3422651],[43.1197402,36.3422634],[43.1197265,36.3422617],[43.1197125,36.34226],[43.1196982,36.3422582],[43.1196837,36.3422564],[43.1196693,36.3422546],[43.1196549,36.3422528],[43.1196406,36.342251],[43.1196267,36.3422493],[43.1196131,36.3422476],[43.1196001,36.3422459],[43.1195877,36.3422444],[43.1195759,36.3422429],[43.119565,36.3422416],[43.1195551,36.3422403],[43.1195462,36.3422392],[43.1195384,36.3422382],[43.1195319,36.3422374],[43.1195267,36.3422368],[43.1195231,36.3422363],[43.119521,36.342236],[43.1195205,36.342236],[43.1195192,36.3422361],[43.1195164,36.3422364],[43.1195122,36.3422368],[43.1195067,36.3422374],[43.1194999,36.342238],[43.119492,36.3422388],[43.119483,36.3422397],[43.1194731,36.3422407],[43.1194624,36.3422418],[43.119451,36.3422429],[43.1194389,36.3422441],[43.1194263,36.3422454],[43.1194132,36.3422467],[43.1193998,36.342248],[43.1193862,36.3422493],[43.1193724,36.3422507],[43.1193586,36.342252],[43.1193449,36.3422534],[43.1193313,36.3422547],[43.119318,36.342256],[43.1193051,36.3422573],[43.1192926,36.3422585],[43.1192807,36.3422596],[43.1192694,36.3422607],[43.1192589,36.3422617],[43.1192492,36.3422626],[43.1192406,36.3422634],[43.1192329,36.3422641],[43.1192265,36.3422647],[43.1192213,36.3422651],[43.1192174,36.3422654],[43.119215,36.3422656],[43.1192133,36.3422658],[43.1192076,36.342267],[43.1191977,36.3422692],[43.1191838,36.3422724],[43.1191663,36.3422765],[43.1191454,36.3422815],[43.1191213,36.3422872],[43.1190945,36.3422936],[43.1190651,36.3423006],[43.1190335,36.3423082],[43.119,36.3423163],[43.1189648,36.3423248],[43.1189283,36.3423337],[43.1188906,36.3423428],[43.1188522,36.3423521],[43.1188133,36.3423615],[43.1187742,36.342371],[43.1187351,36.3423805],[43.1186964,36.3423899],[43.1186584,36.3423991],[43.1186214,36.3424081],[43.1185855,36.3424169],[43.1185512,36.3424252],[43.1185187,36.3424331],[43.1184883,36.3424405],[43.1184603,36.3424474],[43.118435,36.3424535],[43.1184127,36.342459],[43.1183936,36.3424637],[43.118378,36.3424674],[43.1183663,36.3424703],[43.1183588,36.3424722],[43.1183556,36.3424729],[43.1183539,36.3424736],[43.1183479,36.342476],[43.1183377,36.3424802],[43.1183235,36.342486],[43.1183057,36.3424932],[43.1182845,36.3425018],[43.1182603,36.3425117],[43.1182333,36.3425227],[43.1182038,36.3425347],[43.1181721,36.3425476],[43.1181385,36.3425613],[43.1181033,36.3425756],[43.1180668,36.3425904],[43.1180292,36.3426057],[43.1179909,36.3426213],[43.1179522,36.3426371],[43.1179133,36.3426529],[43.1178745,36.3426687],[43.1178362,36.3426843],[43.1177985,36.3426996],[43.1177619,36.3427145],[43.1177266,36.3427289],[43.1176928,36.3427426],[43.1176609,36.3427556],[43.1176312,36.3427677],[43.117604,36.3427788],[43.1175795,36.3427888],[43.117558,36.3427975],[43.1175399,36.3428049],[43.1175254,36.3428108],[43.1175148,36.3428151],[43.1175084,36.3428177],[43.1175064,36.3428185],[43.1175039,36.3428201],[43.1174974,36.3428243],[43.1174871,36.3428309],[43.1174733,36.3428397],[43.1174563,36.3428506],[43.1174363,36.3428634],[43.1174136,36.342878],[43.1173885,36.3428941],[43.1173612,36.3429116],[43.1173319,36.3429303],[43.1173011,36.3429501],[43.1172688,36.3429708],[43.1172354,36.3429923],[43.1172011,36.3430142],[43.1171662,36.3430366],[43.117131,36.3430591],[43.1170957,36.3430818],[43.1170607,36.3431043],[43.117026,36.3431265],[43.1169921,36.3431482],[43.1169592,36.3431693],[43.1169275,36.3431896],[43.1168973,36.343209],[43.1168689,36.3432272],[43.1168426,36.3432441],[43.1168185,36.3432595],[43.116797,36.3432733],[43.1167783,36.3432852],[43.1167628,36.3432952],[43.1167505,36.343303],[43.1167419,36.3433086],[43.1167372,36.3433116],[43.1167363,36.3433122],[43.1167355,36.3433124],[43.116734,36.3433129],[43.1167317,36.3433136],[43.1167287,36.3433145],[43.116725,36.3433157],[43.1167208,36.343317],[43.116716,36.3433185],[43.1167107,36.3433202],[43.116705,36.343322],[43.1166989,36.3433239],[43.1166924,36.3433259],[43.1166857,36.343328],[43.1166788,36.3433301],[43.1166718,36.3433323],[43.1166646,36.3433346],[43.1166574,36.3433368],[43.1166501,36.3433391],[43.116643,36.3433413],[43.1166359,36.3433435],[43.116629,36.3433457],[43.1166223,36.3433478],[43.1166159,36.3433498],[43.1166098,36.3433517],[43.1166041,36.3433535],[43.1165988,36.3433551],[43.116594,36.3433566],[43.1165897,36.343358],[43.1165861,36.3433591],[43.116583,36.34336],[43.1165807,36.3433608],[43.1165792,36.3433613],[43.1165784,36.3433615],[43.1165779,36.3433615],[43.1165754,36.3433615],[43.1165707,36.3433615],[43.1165641,36.3433614],[43.1165557,36.3433614],[43.1165457,36.3433614],[43.1165341,36.3433614],[43.1165211,36.3433614],[43.1165069,36.3433615],[43.1164915,36.3433616],[43.1164752,36.3433618],[43.1164581,36.3433621],[43.1164403,36.3433624],[43.116422,36.3433628],[43.1164032,36.3433632],[43.1163842,36.3433638],[43.1163651,36.3433645],[43.116346,36.3433652],[43.1163271,36.3433661],[43.1163085,36.3433672],[43.1162903,36.3433683],[43.1162727,36.3433696],[43.1162559,36.3433711],[43.1162399,36.3433727],[43.116225,36.3433745],[43.1162112,36.3433764],[43.1161986,36.3433786],[43.1161876,36.3433809],[43.1161781,36.3433834],[43.1161703,36.3433861],[43.1161644,36.3433891],[43.1161605,36.3433922],[43.1161587,36.3433956],[43.1161583,36.3433995],[43.1161579,36.3434043],[43.1161576,36.3434098],[43.1161573,36.3434161],[43.1161571,36.3434231],[43.1161569,36.3434307],[43.1161568,36.3434388],[43.1161567,36.3434474],[43.1161566,36.3434564],[43.1161565,36.3434658],[43.1161565,36.3434755],[43.1161565,36.3434854],[43.1161566,36.3434955],[43.1161566,36.3435057],[43.1161567,36.343516],[43.1161568,36.3435262],[43.1161569,36.3435363],[43.116157,36.3435464],[43.1161572,36.3435562],[43.1161573,36.3435657],[43.1161575,36.3435749],[43.1161576,36.3435837],[43.1161578,36.3435921],[43.1161579,36.3435999],[43.116158,36.3436072],[43.1161582,36.3436138],[43.1161583,36.3436197],[43.1161584,36.3436248],[43.1161585,36.3436291],[43.1161586,36.3436325],[43.1161586,36.343635],[43.1161587,36.3436364],[43.1161587,36.3436368],[43.1161586,36.3436376],[43.1161584,36.3436395],[43.1161581,36.3436424],[43.1161578,36.3436463],[43.1161574,36.3436511],[43.1161569,36.3436566],[43.1161563,36.3436629],[43.1161557,36.3436699],[43.116155,36.3436775],[43.1161542,36.3436856],[43.1161534,36.3436941],[43.1161526,36.343703],[43.1161518,36.3437123],[43.1161509,36.3437217],[43.1161501,36.3437313],[43.1161492,36.343741],[43.1161483,36.3437507],[43.1161474,36.3437604],[43.1161466,36.3437699],[43.1161457,36.3437792],[43.1161449,36.3437882],[43.1161441,36.3437969],[43.1161434,36.3438052],[43.1161426,36.343813],[43.116142,36.3438202],[43.1161414,36.3438267],[43.1161409,36.3438326],[43.1161404,36.3438376],[43.11614,36.3438418],[43.1161397,36.3438451],[43.1161395,36.3438474],[43.1161394,36.3438486],[43.1161393,36.3438488],[43.1161383,36.3438496],[43.1161364,36.343851],[43.1161336,36.3438531],[43.1161299,36.3438558],[43.1161255,36.3438591],[43.1161204,36.3438629],[43.1161146,36.3438672],[43.1161083,36.3438719],[43.1161014,36.343877],[43.1160941,36.3438824],[43.1160865,36.3438881],[43.1160785,36.3438941],[43.1160702,36.3439002],[43.1160618,36.3439065],[43.1160533,36.3439128],[43.1160447,36.3439192],[43.1160361,36.3439256],[43.1160275,36.3439319],[43.1160192,36.3439382],[43.116011,36.3439443],[43.116003,36.3439502],[43.1159954,36.3439558],[43.1159882,36.3439612],[43.1159815,36.3439662],[43.1159752,36.3439708],[43.1159696,36.343975],[43.1159646,36.3439788],[43.1159603,36.3439819],[43.1159568,36.3439846],[43.1159541,36.3439865],[43.1159523,36.3439879],[43.1159516,36.3439884],[43.115951,36.3439886],[43.1159488,36.3439892],[43.1159448,36.3439903],[43.1159392,36.3439918],[43.1159322,36.3439936],[43.1159238,36.3439959],[43.1159141,36.3439985],[43.1159033,36.3440014],[43.1158915,36.3440045],[43.1158788,36.3440079],[43.1158654,36.3440115],[43.1158512,36.3440153],[43.1158366,36.3440192],[43.1158215,36.3440233],[43.1158061,36.3440274],[43.1157905,36.3440316],[43.1157748,36.3440358],[43.1157592,36.3440399],[43.1157437,36.3440441],[43.1157285,36.3440481],[43.1157137,36.3440521],[43.1156994,36.3440559],[43.1156858,36.3440596],[43.1156729,36.344063],[43.1156608,36.3440663],[43.1156497,36.3440692],[43.1156398,36.3440719],[43.115631,36.3440742],[43.1156236,36.3440762],[43.1156176,36.3440778],[43.1156132,36.344079],[43.1156104,36.3440797],[43.1156095,36.34408]]},"properties":{"id":1,"Name":null,"kind":"street","source_record":"1966_Secondary_roads.geojson:34:0","component":1,"connectivity":3,"mean_depth":4.0675675675675675,"integration_1_md":0.24584717607973422,"component_size":75}},{"type":"Feature","geometry":{"type":"LineString","coordinates":[[43.1211519,36.3513021],[43.1211526,36.3513022],[43.1211542,36.3513028],[43.1211567,36.3513037],[43.12116,36.3513049],[43.1211642,36.3513064],[43.1211692,36.3513083],[43.121175,36.3513106],[43.1211817,36.3513131],[43.1211891,36.351316],[43.1211972,36.3513191],[43.1212061,36.3513226],[43.1212158,36.3513263],[43.1212262,36.3513304],[43.1212373,36.3513347],[43.121249,36.3513393],[43.1212615,36.3513442],[43.1212746,36.3513494],[43.1212884,36.3513548],[43.1213028,36.3513604],[43.1213178,36.3513663],[43.1213334,36.3513725],[43.1213496,36.3513788],[43.1213664,36.3513854],[43.1213837,36.3513923],[43.1214016,36.3513993],[43.12142,36.3514066],[43.1214389,36.351414],[43.1214583,36.3514217],[43.1214782,36.3514296],[43.1214986,36.3514376],[43.1215194,36.3514458],[43.1215406,36.3514542],[43.1215623,36.3514628],[43.1215843,36.3514715],[43.1216068,36.3514804],[43.1216296,36.3514894],[43.1216528,36.3514986],[43.1216763,36.3515079],[43.1217002,36.3515174],[43.1217244,36.351527],[43.1217489,36.3515367],[43.1217736,36.3515465],[43.1217987,36.3515564],[43.121824,36.3515664],[43.1218495,36.3515765],[43.1218752,36.3515868],[43.1219012,36.351597],[43.1219274,36.3516074],[43.1219537,36.3516179],[43.1219802,36.3516284],[43.1220068,36.351639],[43.1220336,36.3516496],[43.1220605,36.3516603],[43.1220875,36.351671],[43.1221146,36.3516817],[43.1221418,36.3516925],[43.122169,36.3517033],[43.1221963,36.3517141],[43.1222236,36.351725],[43.1222509,36.3517358],[43.1222782,36.3517467],[43.1223055,36.3517575],[43.1223327,36.3517683],[43.1223599,36.3517791],[43.1223871,36.3517899],[43.1224141,36.3518007],[43.1224411,36.3518114],[43.122468,36.3518221],[43.1224947,36.3518327],[43.1225213,36.3518433],[43.1225478,36.3518538],[43.1225741,36.3518642],[43.1226002,36.3518746],[43.1226261,36.3518849],[43.1226518,36.3518951],[43.1226772,36.3519052],[43.1227024,36.3519152],[43.1227274,36.3519252],[43.1227521,36.351935],[43.1227765,36.3519447],[43.1228006,36.3519542],[43.1228243,36.3519637],[43.1228478,36.351973],[43.1228709,36.3519822],[43.1228936,36.3519912],[43.1229159,36.3520001],[43.1229379,36.3520088],[43.1229594,36.3520174],[43.1229805,36.3520258],[43.1230012,36.352034],[43.1230214,36.3520421],[43.1230412,36.3520499],[43.1230604,36.3520576],[43.1230792,36.3520651],[43.1230974,36.3520723],[43.1231151,36.3520794],[43.1231323,36.3520862],[43.1231489,36.3520928],[43.123165,36.3520992],[43.1231804,36.3521053],[43.1231952,36.3521112],[43.1232095,36.3521169],[43.123223,36.3521223],[43.123236,36.3521274],[43.1232482,36.3521323],[43.1232598,36.3521369],[43.1232707,36.3521412],[43.1232809,36.3521453],[43.1232903,36.352149],[43.123299,36.3521525],[43.1233069,36.3521557],[43.1233141,36.3521585],[43.1233205,36.3521611],[43.1233261,36.3521633],[43.1233308,36.3521652],[43.1233348,36.3521668],[43.1233379,36.352168],[43.1233401,36.3521689],[43.1233414,36.3521694],[43.1233419,36.3521696],[43.123342,36.3521696],[43.1233422,36.3521697],[43.1233426,36.3521698],[43.1233432,36.35217],[43.1233439,36.3521702],[43.1233448,36.3521705],[43.1233458,36.3521708],[43.123347,36.3521712],[43.1233483,36.3521716],[43.1233498,36.3521721],[43.1233514,36.3521726],[43.1233531,36.3521731],[43.123355,36.3521737],[43.123357,36.3521744],[43.1233592,36.352175],[43.1233614,36.3521757],[43.1233638,36.3521765],[43.1233663,36.3521773],[43.1233689,36.3521781],[43.1233717,36.352179],[43.1233745,36.3521799],[43.1233775,36.3521808],[43.1233805,36.3521818],[43.1233837,36.3521828],[43.123387,36.3521838],[43.1233903,36.3521849],[43.1233938,36.352186],[43.1233973,36.3521871],[43.123401,36.3521882],[43.1234047,36.3521894],[43.1234085,36.3521906],[43.1234124,36.3521918],[43.1234164,36.3521931],[43.1234204,36.3521944],[43.1234245,36.3521957],[43.1234287,36.352197],[43.123433,36.3521983],[43.1234373,36.3521997],[43.1234417,36.3522011],[43.1234461,36.3522025],[43.1234506,36.3522039],[43.1234552,36.3522053],[43.1234598,36.3522068],[43.1234644,36.3522083],[43.1234691,36.3522097],[43.1234738,36.3522112],[43.1234786,36.3522127],[43.1234834,36.3522143],[43.1234882,36.3522158],[43.1234931,36.3522173],[43.123498,36.3522189],[43.1235029,36.3522204],[43.1235079,36.352222],[43.1235128,36.3522236],[43.1235178,36.3522251],[43.1235228,36.3522267],[43.1235278,36.3522283],[43.1235329,36.3522299],[43.1235379,36.3522315],[43.1235429,36.3522331],[43.1235479,36.3522346],[43.1235529,36.3522362],[43.123558,36.3522378],[43.123563,36.3522394],[43.123568,36.352241],[43.123573,36.3522425],[43.1235779,36.3522441],[43.1235829,36.3522457],[43.1235878,36.3522472],[43.1235927,36.3522488],[43.1235976,36.3522503],[43.1236024,36.3522518],[43.1236072,36.3522534],[43.123612,36.3522549],[43.1236167,36.3522564],[43.1236214,36.3522578],[43.123626,36.3522593],[43.1236306,36.3522608],[43.1236352,36.3522622],[43.1236397,36.3522636],[43.1236441,36.352265],[43.1236485,36.3522664],[43.1236528,36.3522678],[43.1236571,36.3522691],[43.1236613,36.3522704],[43.1236654,36.3522717],[43.1236694,36.352273],[43.1236734,36.3522743],[43.1236773,36.3522755],[43.1236811,36.3522767],[43.1236848,36.3522779],[43.1236885,36.352279],[43.123692,36.3522801],[43.1236955,36.3522812],[43.1236988,36.3522823],[43.1237021,36.3522833],[43.1237053,36.3522843],[43.1237083,36.3522853],[43.1237113,36.3522862],[43.1237141,36.3522871],[43.1237169,36.352288],[43.1237195,36.3522888],[43.123722,36.3522896],[43.1237244,36.3522904],[43.1237266,36.3522911],[43.1237288,36.3522918],[43.1237308,36.3522924],[43.1237327,36.352293],[43.1237344,36.3522935],[43.123736,36.352294],[43.1237375,36.3522945],[43.1237388,36.3522949],[43.12374,36.3522953],[43.123741,36.3522956],[43.1237419,36.3522959],[43.1237426,36.3522961],[43.1237432,36.3522963],[43.1237436,36.3522964],[43.1237438,36.3522965],[43.1237439,36.3522965],[43.1237439,36.3522966],[43.123744,36.3522966],[43.1237442,36.3522968],[43.1237444,36.352297],[43.1237446,36.3522972],[43.1237449,36.3522975],[43.1237453,36.3522979],[43.1237457,36.3522983],[43.1237461,36.3522987],[43.1237466,36.3522992],[43.1237472,36.3522998],[43.1237478,36.3523004],[43.1237484,36.352301],[43.1237491,36.3523017],[43.1237498,36.3523024],[43.1237506,36.3523032],[43.1237514,36.352304],[43.1237523,36.3523049],[43.1237532,36.3523058],[43.1237541,36.3523067],[43.1237551,36.3523077],[43.1237561,36.3523087],[43.1237571,36.3523098],[43.1237582,36.3523108],[43.1237593,36.352312],[43.1237605,36.3523131],[43.1237617,36.3523143],[43.1237629,36.3523155],[43.1237641,36.3523167],[43.1237654,36.352318],[43.1237667,36.3523193],[43.123768,36.3523207],[43.1237694,36.352322],[43.1237708,36.3523234],[43.1237722,36.3523248],[43.1237736,36.3523262],[43.1237751,36.3523277],[43.1237766,36.3523292],[43.123778,36.3523307],[43.1237796,36.3523322],[43.1237811,36.3523337],[43.1237827,36.3523353],[43.1237842,36.3523369],[43.1237858,36.3523384],[43.1237874,36.3523401],[43.123789,36.3523417],[43.1237907,36.3523433],[43.1237923,36.3523449],[43.123794,36.3523466],[43.1237956,36.3523483],[43.1237973,36.3523499],[43.123799,36.3523516],[43.1238007,36.3523533],[43.1238024,36.352355],[43.1238041,36.3523567],[43.1238058,36.3523584],[43.1238075,36.3523601],[43.1238092,36.3523619],[43.123811,36.3523636],[43.1238127,36.3523653],[43.1238144,36.352367],[43.1238161,36.3523687],[43.1238178,36.3523705],[43.1238195,36.3523722],[43.1238213,36.3523739],[43.123823,36.3523756],[43.1238247,36.3523773],[43.1238264,36.352379],[43.123828,36.3523807],[43.1238297,36.3523823],[43.1238314,36.352384],[43.123833,36.3523857],[43.1238347,36.3523873],[43.1238363,36.3523889],[43.1238379,36.3523906],[43.1238395,36.3523922],[43.1238411,36.3523937],[43.1238427,36.3523953],[43.1238443,36.3523969],[43.1238458,36.3523984],[43.1238473,36.3523999],[43.1238488,36.3524014],[43.1238503,36.3524029],[43.1238517,36.3524044],[43.1238532,36.3524058],[43.1238546,36.3524072],[43.123856,36.3524086],[43.1238573,36.3524099],[43.1238587,36.3524113],[43.12386,36.3524126],[43.1238612,36.3524139],[43.1238625,36.3524151],[43.1238637,36.3524163],[43.1238649,36.3524175],[43.123866,36.3524186],[43.1238671,36.3524198],[43.1238682,36.3524208],[43.1238693,36.3524219],[43.1238703,36.3524229],[43.1238713,36.3524239],[43.1238722,36.3524248],[43.1238731,36.3524257],[43.1238739,36.3524266],[43.1238748,36.3524274],[43.1238755,36.3524282],[43.1238763,36.3524289],[43.123877,36.3524296],[43.1238776,36.3524302],[43.1238782,36.3524308],[43.1238787,36.3524314],[43.1238792,36.3524319],[43.1238797,36.3524323],[43.1238801,36.3524327],[43.1238804,36.3524331],[43.1238807,36.3524334],[43.123881,36.3524336],[43.1238812,36.3524338],[43.1238813,36.352434],[43.1238814,36.352434],[43.1238814,36.3524341]]},"properties":{"id":1,"Name":null,"kind":"street","source_record":"1966_Secondary_roads.geojson:35:0","component":1,"connectivity":1,"mean_depth":3.9324324324324325,"integration_1_md":0.2542955326460481,"component_size":75}},{"type":"Feature","geometry":{"type":"LineString","coordinates":[[43.1364478,36.3429968],[43.1364329,36.3432147],[43.136522,36.3435167],[43.1367399,36.3440613],[43.1368389,36.3442048],[43.1373241,36.3444771]]},"properties":{"id":1,"Name":null,"kind":"street","source_record":"1966_Secondary_roads.geojson:36:0","component":1,"connectivity":2,"mean_depth":3.7972972972972974,"integration_1_md":0.26334519572953735,"component_size":75}},{"type":"Feature","geometry":{"type":"LineString","coordinates":[[43.1364843,36.3452257],[43.1367034,36.345044],[43.1369866,36.3448355],[43.1373607,36.3444187],[43.1378524,36.343911],[43.1381356,36.3434621]]},"properties":{"id":1,"Name":null,"kind":"street","source_record":"1966_Secondary_roads.geojson:37:0","component":1,"connectivity":4,"mean_depth":3.324324324324324,"integration_1_md":0.3008130081300813,"component_size":75}},{"type":"Feature","geometry":{"type":"LineString","coordinates":[[43.1356816,36.3448737],[43.1348334,36.3458617],[43.134468,36.3456271],[43.1342514,36.3454828]]},"properties":{"id":1,"Name":null,"kind":"street","source_record":"1966_Secondary_roads.geojson:38:0","component":1,"connectivity":4,"mean_depth":3.27027027027027,"integration_1_md":0.3057851239669422,"component_size":75}},{"type":"Feature","geometry":{"type":"LineString","coordinates":[[43.1348294,36.3458619],[43.1346612,36.3460576],[43.1345243,36.3462258],[43.1344421,36.3462649],[43.1343404,36.3462532],[43.1342622,36.3462336],[43.1342191,36.3462884],[43.13418,36.3463236],[43.1340939,36.3464527],[43.1341252,36.3464879],[43.1340705,36.3466835],[43.1340274,36.3467422],[43.1340861,36.3467696],[43.1340079,36.3468595]]},"properties":{"id":1,"Name":null,"kind":"street","source_record":"1966_Secondary_roads.geojson:39:0","component":1,"connectivity":1,"mean_depth":4.256756756756757,"integration_1_md":0.23492063492063492,"component_size":75}},{"type":"Feature","geometry":{"type":"LineString","coordinates":[[43.1365264,36.345257600000004],[43.1365268,36.3452634],[43.1394404,36.346738499999994]]},"properties":{"id":1,"Name":"الجسر الحديدي","kind":"bridge","source_record":"1966_Bridges.geojson:0:0","bridge_targets":["1966_Main_Roads.geojson:0:0"],"approach_method":"nearest endpoint-to-street, at most 50 m, no building crossing","approach_added_m":0.645,"component":1,"connectivity":1,"mean_depth":3.418918918918919,"integration_1_md":0.29249011857707513,"component_size":75}},{"type":"Feature","geometry":{"type":"LineString","coordinates":[[43.1412792,36.338932899999996],[43.1413121,36.3389427],[43.1446945,36.340978299999996],[43.1446945,36.340978299999996]]},"properties":{"id":2,"Name":"الجسر الثاني (الحرية)","kind":"bridge","source_record":"1966_Bridges.geojson:1:0","bridge_targets":["1966_Main_Roads.geojson:8:0"],"approach_method":"nearest endpoint-to-street, at most 50 m, no building crossing","approach_added_m":3.147,"component":1,"connectivity":1,"mean_depth":4.094594594594595,"integration_1_md":0.2442244224422442,"component_size":75}}]}