{"type":"FeatureCollection","features":[{"type":"Feature","geometry":{"type":"LineString","coordinates":[[43.1370161,36.345446],[43.1346363,36.3442561],[43.1322564,36.3431102],[43.1289582,36.3416381],[43.12675,36.3406614],[43.1188153,36.3372295]]},"properties":{"id":1,"kind":"street","source_record":"2020-Roads.geojson:0:0","component":1,"connectivity":8,"mean_depth":2,"integration_1_md":0.5,"component_size":22}},{"type":"Feature","geometry":{"type":"LineString","coordinates":[[43.122456,36.3486989],[43.1231263,36.3473918],[43.1243508,36.3451672],[43.125807,36.3424733],[43.1268432,36.3405832],[43.1273428,36.3396377],[43.1294872,36.3356549],[43.1304401,36.3339246],[43.1305906,36.3336111],[43.1314679,36.3314468],[43.1321734,36.3293483],[43.1322773,36.3290463]]},"properties":{"id":1,"kind":"street","source_record":"2020-Roads.geojson:1:0","component":1,"connectivity":6,"mean_depth":2,"integration_1_md":0.5,"component_size":22}},{"type":"Feature","geometry":{"type":"LineString","coordinates":[[43.132433,36.3432141],[43.1317821,36.3437505],[43.1311812,36.3442727],[43.1309666,36.3444587],[43.1301798,36.345825],[43.1296164,36.3471204],[43.1291524,36.3476785],[43.1282362,36.348209],[43.1280931,36.3482686],[43.1277474,36.3487931],[43.1273541,36.3493295],[43.12677,36.3497824],[43.1261382,36.3504261],[43.1254111,36.3512963]]},"properties":{"id":1,"kind":"street","source_record":"2020-Roads.geojson:2:0","component":1,"connectivity":1,"mean_depth":2.9523809523809526,"integration_1_md":0.3387096774193548,"component_size":22}},{"type":"Feature","geometry":{"type":"LineString","coordinates":[[43.1243464,36.3451821],[43.1250618,36.3453398],[43.1261651,36.3455701],[43.1268441,36.3458126],[43.1272927,36.3459945],[43.1276807,36.3459824],[43.1283476,36.34614],[43.1289902,36.3463461],[43.1298026,36.3465401]]},"properties":{"id":1,"kind":"street","source_record":"2020-Roads.geojson:3:0","component":1,"connectivity":1,"mean_depth":2.9523809523809526,"integration_1_md":0.3387096774193548,"component_size":22}},{"type":"Feature","geometry":{"type":"LineString","coordinates":[[43.1257851,36.3425374],[43.1262708,36.3425787],[43.1268496,36.3425477],[43.127635,36.3423203],[43.1283481,36.342031],[43.1288545,36.341783],[43.1292678,36.3416073],[43.1297122,36.3413282],[43.1301669,36.3410905],[43.1314053,36.3404071],[43.1316345,36.3402288],[43.1319909,36.3397705],[43.1327727,36.3387054],[43.1330544,36.3386249],[43.1333966,36.3385042],[43.1337085,36.3384438],[43.1338896,36.3384035],[43.1357369,36.337568]]},"properties":{"id":1,"kind":"street","source_record":"2020-Roads.geojson:4:0","component":1,"connectivity":5,"mean_depth":2.0952380952380953,"integration_1_md":0.47727272727272724,"component_size":22}},{"type":"Feature","geometry":{"type":"LineString","coordinates":[[43.1316439,36.3402204],[43.1320873,36.3404559],[43.132808,36.3408994],[43.1332307,36.3411419],[43.1336118,36.3413775],[43.1340137,36.3416339],[43.1344225,36.3419041],[43.1343423,36.3441204]]},"properties":{"id":1,"kind":"street","source_record":"2020-Roads.geojson:5:0","component":1,"connectivity":5,"mean_depth":2.0952380952380953,"integration_1_md":0.47727272727272724,"component_size":22}},{"type":"Feature","geometry":{"type":"LineString","coordinates":[[43.1344238,36.3418991],[43.1347128,36.3418449],[43.1355707,36.3415649],[43.1361036,36.3416281],[43.1362571,36.3416372],[43.1374131,36.3413572],[43.1378736,36.340987],[43.1382439,36.340707],[43.1399511,36.3393736],[43.1403907,36.3388317]]},"properties":{"id":1,"kind":"street","source_record":"2020-Roads.geojson:6:0","component":1,"connectivity":6,"mean_depth":2.142857142857143,"integration_1_md":0.4666666666666667,"component_size":22}},{"type":"Feature","geometry":{"type":"LineString","coordinates":[[43.1355955,36.3415412],[43.1356466,36.3409584],[43.1357897,36.3399769],[43.1362703,36.3378911]]},"properties":{"id":1,"kind":"street","source_record":"2020-Roads.geojson:7:0","component":1,"connectivity":2,"mean_depth":2.9523809523809526,"integration_1_md":0.3387096774193548,"component_size":22}},{"type":"Feature","geometry":{"type":"LineString","coordinates":[[43.1223604,36.3490223],[43.1211266,36.3507781],[43.1199403,36.3526525],[43.1189912,36.3541473],[43.1167371,36.3550489],[43.1149813,36.3557133],[43.1131544,36.3564013]]},"properties":{"id":1,"kind":"street","source_record":"2020-Roads.geojson:8:0","component":2,"connectivity":2,"mean_depth":1,"integration_1_md":1,"component_size":3}},{"type":"Feature","geometry":{"type":"LineString","coordinates":[[43.1191098,36.3540761],[43.1203199,36.3537439],[43.1220994,36.3531508],[43.1233095,36.3526288],[43.1250178,36.351561]]},"properties":{"id":1,"kind":"street","source_record":"2020-Roads.geojson:9:0","component":3,"connectivity":1,"mean_depth":1,"integration_1_md":1,"component_size":2}},{"type":"Feature","geometry":{"type":"LineString","coordinates":[[43.1178286,36.3546456],[43.1193234,36.3566149]]},"properties":{"id":1,"kind":"street","source_record":"2020-Roads.geojson:10:0","component":2,"connectivity":1,"mean_depth":1.5,"integration_1_md":0.6666666666666666,"component_size":3}},{"type":"Feature","geometry":{"type":"LineString","coordinates":[[43.1194657,36.3540049],[43.1198216,36.3544557],[43.1213164,36.3557844]]},"properties":{"id":1,"kind":"street","source_record":"2020-Roads.geojson:11:0","component":3,"connectivity":1,"mean_depth":1,"integration_1_md":1,"component_size":2}},{"type":"Feature","geometry":{"type":"LineString","coordinates":[[43.1189636,36.3541089],[43.1183929,36.3532143],[43.1180999,36.3526127]]},"properties":{"id":1,"kind":"street","source_record":"2020-Roads.geojson:12:0","component":2,"connectivity":1,"mean_depth":1.5,"integration_1_md":0.6666666666666666,"component_size":3}},{"type":"Feature","geometry":{"type":"LineString","coordinates":[[43.1152084,36.3448368],[43.1136458,36.3486201],[43.1128233,36.3504295],[43.1109317,36.3541305],[43.1100681,36.3559399]]},"properties":{"id":1,"kind":"street","source_record":"2020-Roads.geojson:13:0","component":4,"connectivity":0,"mean_depth":null,"integration_1_md":null,"component_size":1}},{"type":"Feature","geometry":{"type":"LineString","coordinates":[[43.1150086,36.3443015],[43.1139245,36.3444343],[43.1121546,36.3450316],[43.1108492,36.3459387],[43.1097209,36.3472661],[43.1092121,36.3479962]]},"properties":{"id":1,"kind":"street","source_record":"2020-Roads.geojson:14:0","component":5,"connectivity":0,"mean_depth":null,"integration_1_md":null,"component_size":1}},{"type":"Feature","geometry":{"type":"LineString","coordinates":[[43.1323946,36.343142],[43.1325242,36.3428904],[43.1326919,36.3427456],[43.1331493,36.3424635],[43.1341251,36.3419909],[43.1344071,36.3422196]]},"properties":{"id":1,"kind":"street","source_record":"2020-Roads.geojson:15:0","component":1,"connectivity":2,"mean_depth":2.7142857142857144,"integration_1_md":0.3684210526315789,"component_size":22}},{"type":"Feature","geometry":{"type":"LineString","coordinates":[[43.1364197,36.3450768],[43.1367569,36.3449689],[43.1372965,36.3446992],[43.1374988,36.3444698],[43.1381328,36.3434312],[43.1388342,36.3422577],[43.1390635,36.3419744],[43.1393063,36.3415833],[43.1397784,36.3411247],[43.1400212,36.34072],[43.1401291,36.3405446],[43.1400886,36.3399377],[43.1398863,36.3394521]]},"properties":{"id":1,"kind":"street","source_record":"2020-Roads.geojson:16:0","component":1,"connectivity":3,"mean_depth":2.9047619047619047,"integration_1_md":0.3442622950819672,"component_size":22}},{"type":"Feature","geometry":{"type":"LineString","coordinates":[[43.1388344,36.3422076],[43.1383344,36.3419751],[43.1377298,36.3417425],[43.1375088,36.3416263],[43.1373577,36.3413821]]},"properties":{"id":1,"kind":"street","source_record":"2020-Roads.geojson:17:0","component":1,"connectivity":2,"mean_depth":3.0476190476190474,"integration_1_md":0.328125,"component_size":22}},{"type":"Feature","geometry":{"type":"LineString","coordinates":[[43.1392878,36.3416263],[43.1380088,36.3409403],[43.1359062,36.3400992],[43.1357874,36.340056],[43.1351068,36.3397751],[43.1343506,36.339343],[43.1336484,36.3385112],[43.1334901,36.3382484],[43.1333097,36.3376272],[43.1331394,36.3372164],[43.1327586,36.3361543],[43.1322676,36.3349418]]},"properties":{"id":1,"kind":"street","source_record":"2020-Roads.geojson:18:0","component":1,"connectivity":5,"mean_depth":2.2857142857142856,"integration_1_md":0.4375,"component_size":22}},{"type":"Feature","geometry":{"type":"LineString","coordinates":[[43.1263405,36.3521853],[43.1242688,36.3504663],[43.1224176,36.3488795],[43.1198611,36.3472486],[43.117569,36.3452651],[43.1159381,36.3432816],[43.1153651,36.3426204],[43.1128086,36.3417829]]},"properties":{"id":1,"kind":"street","source_record":"2020-_Big-Roads.geojson:0:0","component":1,"connectivity":3,"mean_depth":2.9047619047619047,"integration_1_md":0.3442622950819672,"component_size":22}},{"type":"Feature","geometry":{"type":"LineString","coordinates":[[43.1126763,36.3557997],[43.1150566,36.354257],[43.1179657,36.3524057],[43.1165552,36.3491439],[43.11585,36.3461907],[43.115321,36.3442513],[43.1155855,36.3426645],[43.116423,36.340725],[43.1176705,36.3387774],[43.1187949,36.3370793],[43.120388,36.3357273],[43.1208991,36.3354353],[43.1232842,36.3355083],[43.1249149,36.33563],[43.125426,36.3352162],[43.1261561,36.3345834],[43.1275191,36.3341453],[43.128882,36.3335125],[43.1298068,36.3336099],[43.1312671,36.3342427],[43.1328004,36.3353136],[43.1343094,36.3363845],[43.1359644,36.3376014],[43.1363295,36.3377474],[43.1403065,36.3387556],[43.1417645,36.3395062],[43.1430927,36.3403869]]},"properties":{"id":1,"kind":"street","source_record":"2020-_Big-Roads.geojson:1:0","component":1,"connectivity":4,"mean_depth":2.142857142857143,"integration_1_md":0.4666666666666667,"component_size":22}},{"type":"Feature","geometry":{"type":"LineString","coordinates":[[43.1176038,36.3448974],[43.1181869,36.3448974],[43.1182317,36.3444938],[43.118456,36.3440228],[43.118882,36.343821],[43.1197118,36.3435295],[43.1201154,36.3433949],[43.1205863,36.3434174],[43.121147,36.3429689],[43.1216852,36.3429464],[43.1221112,36.3429913],[43.1223131,36.3429016],[43.1224476,36.3425204],[43.1224028,36.3422064],[43.1224925,36.3417131],[43.1225822,36.3413094],[43.1228064,36.3412421],[43.1230082,36.3409282],[43.1230385,36.3407085],[43.1229865,36.340362],[43.1231251,36.3399116],[43.1232117,36.3397384],[43.1234976,36.3394699],[43.1235236,36.3393919],[43.1238143,36.338312],[43.1239421,36.3380564],[43.1240315,36.3378647],[43.1242487,36.3373281],[43.1245682,36.3367275],[43.1249004,36.3363058],[43.1249899,36.3361397],[43.1250154,36.3358714],[43.1249643,36.3356669]]},"properties":{"id":1,"kind":"street","source_record":"2020-_Small_Roads.geojson:0:0","component":1,"connectivity":2,"mean_depth":2.857142857142857,"integration_1_md":0.35,"component_size":22}},{"type":"Feature","geometry":{"type":"LineString","coordinates":[[43.1250282,36.3361014],[43.1251176,36.3364847],[43.1252965,36.3369192],[43.1257821,36.3372131],[43.1261654,36.3375836],[43.1265615,36.3379414],[43.1270982,36.338427],[43.1277626,36.3386953],[43.1280054,36.3387209],[43.1282482,36.3387336],[43.1284527,36.3387336],[43.1285549,36.3387975],[43.1285804,36.3390914],[43.1288743,36.3398709],[43.1292193,36.3404075],[43.1300499,36.3411103]]},"properties":{"id":1,"kind":"street","source_record":"2020-_Small_Roads.geojson:1:0","component":1,"connectivity":3,"mean_depth":2.619047619047619,"integration_1_md":0.38181818181818183,"component_size":22}},{"type":"Feature","geometry":{"type":"LineString","coordinates":[[43.1343389,36.3441556],[43.1342431,36.3446184],[43.1341953,36.3449695],[43.1342112,36.3452568],[43.1344666,36.3454483],[43.1342751,36.3455919],[43.1340836,36.3460069],[43.1339718,36.3465654],[43.133924,36.3468687],[43.1336846,36.3470123],[43.1330462,36.347523],[43.1328068,36.3477464],[43.1325036,36.3480497],[43.1321365,36.3482412],[43.1316098,36.3484008],[43.1310034,36.3485604],[43.130349,36.3488157],[43.1297266,36.3488476],[43.1291042,36.349087],[43.1285297,36.3492466],[43.1283062,36.3494062],[43.1275561,36.3499967],[43.1273965,36.3501404],[43.1274923,36.3505074],[43.1275561,36.3507628],[43.1278753,36.3510341]]},"properties":{"id":1,"kind":"street","source_record":"2020-_Small_Roads.geojson:2:0","component":1,"connectivity":3,"mean_depth":2.619047619047619,"integration_1_md":0.38181818181818183,"component_size":22}},{"type":"Feature","geometry":{"type":"LineString","coordinates":[[43.1274029,36.3501533],[43.1274029,36.3499041],[43.1274548,36.3493433]]},"properties":{"id":1,"kind":"street","source_record":"2020-_Small_Roads.geojson:3:0","component":1,"connectivity":1,"mean_depth":3.5714285714285716,"integration_1_md":0.27999999999999997,"component_size":22}},{"type":"Feature","geometry":{"type":"LineString","coordinates":[[43.1290386,36.3333055],[43.1293272,36.3329119],[43.1296945,36.3326495],[43.1309015,36.3318624],[43.1315049,36.331495],[43.1328955,36.3308391],[43.1346797,36.328845]]},"properties":{"id":1,"kind":"street","source_record":"2020-_Small_Roads.geojson:4:0","component":1,"connectivity":1,"mean_depth":2.9523809523809526,"integration_1_md":0.3387096774193548,"component_size":22}},{"type":"Feature","geometry":{"type":"LineString","coordinates":[[43.1263405,36.35218530000001],[43.126654,36.35243789999999],[43.132135,36.3573032],[43.132462700000005,36.35780509999999],[43.1328625,36.3586809],[43.1329957,36.3596708],[43.1328625,36.360737],[43.1325959,36.36155560000001]]},"properties":{"id":1,"Name":"الجسر الخامس","kind":"bridge","source_record":"2020_Bridge.geojson:0:0","bridge_targets":["2020-_Big-Roads.geojson:0:0"],"approach_method":"nearest endpoint-to-street, at most 50 m, no building crossing","approach_added_m":39.716,"component":1,"connectivity":2,"mean_depth":3.8095238095238093,"integration_1_md":0.2625,"component_size":22}},{"type":"Feature","geometry":{"type":"LineString","coordinates":[[43.1263405,36.35218530000001],[43.1267132,36.352295600000005],[43.131806,36.35677160000001],[43.1326965,36.3573594],[43.1336247,36.35773329999999],[43.1351329,36.35793950000001],[43.1366798,36.3576817],[43.1377755,36.3572176]]},"properties":{"id":1,"Name":"الجسر الخامس","kind":"bridge","source_record":"2020_Bridge.geojson:1:0","bridge_targets":["2020-_Big-Roads.geojson:0:0"],"approach_method":"nearest endpoint-to-street, at most 50 m, no building crossing","approach_added_m":35.621,"component":1,"connectivity":2,"mean_depth":3.8095238095238093,"integration_1_md":0.2625,"component_size":22}},{"type":"Feature","geometry":{"type":"LineString","coordinates":[[43.13265340000001,36.35730409999999],[43.1335948,36.35796800000001],[43.1342104,36.358656],[43.1345363,36.359392299999996],[43.1345846,36.36035789999999],[43.1341576,36.3612499],[43.13365280000001,36.3617845],[43.1327321,36.3623488]]},"properties":{"id":1,"Name":null,"kind":"bridge","source_record":"2020_Bridge.geojson:2:0","bridge_targets":[],"approach_method":"nearest endpoint-to-street, at most 50 m, no building crossing","approach_added_m":0,"component":6,"connectivity":0,"mean_depth":null,"integration_1_md":null,"component_size":1}},{"type":"Feature","geometry":{"type":"LineString","coordinates":[[43.1327184,36.358255099999994],[43.133243300000004,36.35868870000001],[43.1339279,36.35909949999999],[43.13486360000001,36.359373399999996],[43.135959,36.3594418],[43.1368262,36.3592136],[43.1376934,36.35871149999999]]},"properties":{"id":1,"Name":null,"kind":"bridge","source_record":"2020_Bridge.geojson:3:0","bridge_targets":[],"approach_method":"nearest endpoint-to-street, at most 50 m, no building crossing","approach_added_m":0,"component":7,"connectivity":0,"mean_depth":null,"integration_1_md":null,"component_size":1}},{"type":"Feature","geometry":{"type":"LineString","coordinates":[[43.1116779,36.3595177],[43.1151797,36.36180379999999],[43.1176291,36.36356379999999],[43.1192076,36.3646887]]},"properties":{"id":1,"Name":"الجسر الثالث","kind":"bridge","source_record":"2020_Bridge.geojson:4:0","bridge_targets":[],"approach_method":"nearest endpoint-to-street, at most 50 m, no building crossing","approach_added_m":0,"component":8,"connectivity":0,"mean_depth":null,"integration_1_md":null,"component_size":1}},{"type":"Feature","geometry":{"type":"LineString","coordinates":[[43.13675778396165,36.345316845968995],[43.136821,36.345234100000006],[43.1400215,36.3468003]]},"properties":{"id":1,"Name":"الجسر الحديدي (العتيق)","kind":"bridge","source_record":"2020_Bridge.geojson:5:0","bridge_targets":["2020-Roads.geojson:0:0"],"approach_method":"nearest endpoint-to-street, at most 50 m, no building crossing","approach_added_m":10.793,"component":1,"connectivity":1,"mean_depth":2.9523809523809526,"integration_1_md":0.3387096774193548,"component_size":22}},{"type":"Feature","geometry":{"type":"LineString","coordinates":[[43.1414478,36.3388807],[43.1456789,36.341393]]},"properties":{"id":1,"Name":"الجسر الثاني (الحرية)","kind":"bridge","source_record":"2020_Bridge.geojson:6:0","bridge_targets":[],"approach_method":"nearest endpoint-to-street, at most 50 m, no building crossing","approach_added_m":0,"component":9,"connectivity":0,"mean_depth":null,"integration_1_md":null,"component_size":1}},{"type":"Feature","geometry":{"type":"LineString","coordinates":[[43.148428200000005,36.33101969999999],[43.1561231,36.33432020000001]]},"properties":{"id":1,"Name":"الجسر الرابع","kind":"bridge","source_record":"2020_Bridge.geojson:7:0","bridge_targets":[],"approach_method":"nearest endpoint-to-street, at most 50 m, no building crossing","approach_added_m":0,"component":10,"connectivity":0,"mean_depth":null,"integration_1_md":null,"component_size":1}},{"type":"Feature","geometry":{"type":"LineString","coordinates":[[43.1485376,36.3308556],[43.1521845,36.332405499999986],[43.1562508,36.33411959999999]]},"properties":{"id":1,"Name":"الجسر الرابع","kind":"bridge","source_record":"2020_Bridge.geojson:8:0","bridge_targets":[],"approach_method":"nearest endpoint-to-street, at most 50 m, no building crossing","approach_added_m":0,"component":11,"connectivity":0,"mean_depth":null,"integration_1_md":null,"component_size":1}}]}