{
"type": "FeatureCollection",
"name": "1096_City_Borders",
"features": [
{ "type": "Feature", "properties": { "id": 1 }, "geometry": { "type": "MultiPolygon", "coordinates": [ [ [ [ 43.1164582, 36.3446338 ], [ 43.1164575, 36.3445617 ], [ 43.1163163, 36.3435929 ], [ 43.1161185, 36.3432633 ], [ 43.1162274, 36.3423419 ], [ 43.1173521, 36.3402222 ], [ 43.1190825, 36.3379295 ], [ 43.1202505, 36.3365885 ], [ 43.1212235, 36.3353127 ], [ 43.1232806, 36.3356375 ], [ 43.1251862, 36.3357241 ], [ 43.1260095, 36.3347237 ], [ 43.1290779, 36.3333216 ], [ 43.1307848, 36.334358 ], [ 43.1317195, 36.3350692 ], [ 43.1328307, 36.3381688 ], [ 43.133553, 36.3391689 ], [ 43.1341781, 36.3407107 ], [ 43.1351365, 36.3409746 ], [ 43.1352059, 36.341044 ], [ 43.1352476, 36.3414191 ], [ 43.1360393, 36.3424469 ], [ 43.136201, 36.3430059 ], [ 43.1380767, 36.3435218 ], [ 43.1369747, 36.3447058 ], [ 43.1369043, 36.344952 ], [ 43.1367754, 36.3452216 ], [ 43.1358855, 36.3459232 ], [ 43.1352997, 36.3458353 ], [ 43.1350654, 36.3461575 ], [ 43.1328103, 36.3480172 ], [ 43.132576, 36.3486615 ], [ 43.1313313, 36.3496427 ], [ 43.1307261, 36.3498722 ], [ 43.1305439, 36.3497812 ], [ 43.1295948, 36.3496574 ], [ 43.1278202, 36.349451 ], [ 43.1265409, 36.3490384 ], [ 43.1230745, 36.3475114 ], [ 43.1189064, 36.3456131 ], [ 43.1164582, 36.3446338 ] ] ] ] } }
]
}
