{
"type": "FeatureCollection",
"name": "1096_City_walls",
"features": [
{ "type": "Feature", "properties": { "id": 1 }, "geometry": { "type": "MultiLineString", "coordinates": [ [ [ 43.1250966, 36.3356534 ], [ 43.1235351, 36.3355754 ], [ 43.1234961, 36.3355233 ], [ 43.123431, 36.3355103 ], [ 43.123366, 36.3355493 ], [ 43.1213621, 36.3353151 ], [ 43.1213231, 36.3352761 ], [ 43.121271, 36.3352631 ], [ 43.121206, 36.3352761 ], [ 43.121206, 36.3353672 ], [ 43.1201186, 36.3367787 ], [ 43.1192348, 36.3376061 ], [ 43.1184075, 36.3386779 ], [ 43.1174485, 36.3400506 ], [ 43.1168279, 36.3409532 ], [ 43.1163014, 36.3421754 ], [ 43.1160382, 36.343078 ], [ 43.116151, 36.3434541 ], [ 43.1160194, 36.3435105 ], [ 43.116057, 36.3436986 ], [ 43.116245, 36.3436798 ], [ 43.1162871, 36.3439848 ], [ 43.11634, 36.3444612 ], [ 43.1211105, 36.3466294 ], [ 43.1232934, 36.3476153 ], [ 43.1267791, 36.3491997 ], [ 43.1276945, 36.3494461 ], [ 43.1294198, 36.3497278 ], [ 43.1303352, 36.349763 ], [ 43.1307577, 36.3498334 ], [ 43.1313259, 36.3496488 ], [ 43.132582, 36.3486021 ], [ 43.1327913, 36.3479931 ], [ 43.1353605, 36.3458997 ], [ 43.1359124, 36.3459759 ], [ 43.1367116, 36.3453669 ], [ 43.1368829, 36.3451956 ], [ 43.13694, 36.3447769 ], [ 43.1372445, 36.3444534 ], [ 43.138139, 36.3435209 ], [ 43.1362359, 36.342969 ], [ 43.1360319, 36.3425294 ], [ 43.1359885, 36.3423884 ], [ 43.135305, 36.3414771 ], [ 43.1352942, 36.3411625 ], [ 43.1351531, 36.340913 ], [ 43.1341985, 36.3406852 ], [ 43.1335829, 36.3393092 ], [ 43.133558, 36.3391848 ], [ 43.1334087, 36.3389982 ], [ 43.1328736, 36.3381769 ], [ 43.1324316, 36.3369333 ], [ 43.1319806, 36.3356479 ], [ 43.1316855, 36.335025 ], [ 43.1305053, 36.3341973 ], [ 43.1305709, 36.3340497 ], [ 43.1303414, 36.3339268 ], [ 43.1302513, 36.3340252 ], [ 43.1291367, 36.3333531 ], [ 43.1291203, 36.3332957 ], [ 43.1290711, 36.3332302 ], [ 43.1290301, 36.3332466 ], [ 43.1290137, 36.3332875 ], [ 43.1289973, 36.3333531 ], [ 43.1269894, 36.3343284 ], [ 43.1260035, 36.3347202 ], [ 43.1251051, 36.3356523 ] ] ] } }
]
}
