{"type":"FeatureCollection","name":"1096_Heritage_Buildings","features":[{"type":"Feature","geometry":{"type":"MultiPolygon","coordinates":[[[[43.1211453,36.3554737],[43.1216963,36.3551659],[43.1222188,36.3557599],[43.1218752,36.3559675],[43.1218466,36.3559174],[43.1216248,36.3560319],[43.1211453,36.3554737]]]]},"properties":{"id":28,"Building N":"قلعة باشطابيا","heritage_identity":"I01:1","heritage_year":1096,"heritage_added_from_workbook":"Heritage Buildings Years.xlsx","heritage_workbook_row":26,"heritage_geometry_source_file":"1852_Heritage_Building.geojson","heritage_geometry_source_record":11,"heritage_geometry_source_year":1852}}]}