{
"type": "FeatureCollection",
"name": "1127_City_walls",
"features": [
{ "type": "Feature", "properties": { "id": 1 }, "geometry": { "type": "MultiLineString", "coordinates": [ [ [ 43.1251297, 36.3356917 ], [ 43.1232203, 36.3355794 ], [ 43.1212323, 36.3353098 ], [ 43.1206707, 36.3361073 ], [ 43.1200867, 36.3367924 ], [ 43.119278, 36.3376011 ], [ 43.1184679, 36.3385991 ], [ 43.1178067, 36.3394807 ], [ 43.1169985, 36.3407444 ], [ 43.1165871, 36.3415819 ], [ 43.1162549, 36.3422431 ], [ 43.116055, 36.3432216 ], [ 43.1162689, 36.3437349 ], [ 43.1163438, 36.3442698 ], [ 43.1163866, 36.3446764 ], [ 43.1163866, 36.3460885 ], [ 43.11642, 36.3472985 ], [ 43.1165091, 36.3476676 ], [ 43.1172219, 36.3492713 ], [ 43.1177941, 36.35022 ], [ 43.1183108, 36.3514869 ], [ 43.1191609, 36.3529704 ], [ 43.1203778, 36.3547873 ], [ 43.1207111, 36.355204 ], [ 43.121928, 36.3561875 ], [ 43.1228948, 36.355304 ], [ 43.1234615, 36.354704 ], [ 43.1240449, 36.3542206 ], [ 43.124695, 36.3535705 ], [ 43.1256451, 36.3531371 ], [ 43.1262619, 36.3531371 ], [ 43.1268886, 36.3525379 ], [ 43.127881, 36.3516318 ], [ 43.1288733, 36.3508337 ], [ 43.1297577, 36.3501649 ], [ 43.1302539, 36.3499061 ], [ 43.1305343, 36.3499924 ], [ 43.1312894, 36.3496904 ], [ 43.1326053, 36.3486549 ], [ 43.1327994, 36.3480509 ], [ 43.1338303, 36.3471495 ], [ 43.1350191, 36.3462288 ], [ 43.1352988, 36.3458908 ], [ 43.1358815, 36.3459841 ], [ 43.1363244, 36.3456111 ], [ 43.1367906, 36.3452149 ], [ 43.1369304, 36.3449468 ], [ 43.1369887, 36.3447137 ], [ 43.1381075, 36.3435133 ], [ 43.1362078, 36.3429772 ], [ 43.1360298, 36.34254 ], [ 43.1360298, 36.3424347 ], [ 43.1359362, 36.3423294 ], [ 43.135281, 36.3414637 ], [ 43.1352225, 36.3410309 ], [ 43.1351406, 36.3409373 ], [ 43.134193, 36.3406682 ], [ 43.1335613, 36.3392058 ], [ 43.1328608, 36.3381771 ], [ 43.1325128, 36.3372618 ], [ 43.1319799, 36.3357099 ], [ 43.1317643, 36.3350287 ], [ 43.1305831, 36.3342096 ], [ 43.1302382, 36.3340027 ], [ 43.1290484, 36.3332957 ], [ 43.1269704, 36.3343131 ], [ 43.1259875, 36.3347528 ], [ 43.1251253, 36.335684 ] ] ] } },
{ "type": "Feature", "properties": { "id": 1 }, "geometry": { "type": "MultiLineString", "coordinates": [ [ [ 43.1164779, 36.344388 ], [ 43.1181095, 36.3453204 ], [ 43.1194148, 36.3458331 ], [ 43.122072, 36.3470452 ], [ 43.1244029, 36.348164 ], [ 43.1264074, 36.3490031 ], [ 43.1276661, 36.3494693 ], [ 43.1291112, 36.3496092 ], [ 43.1301834, 36.3498423 ], [ 43.1302818, 36.3499189 ] ] ] } }
]
}
