{
"type": "FeatureCollection",
"name": "1127_City_Borders",
"features": [
{ "type": "Feature", "properties": { "id": 1 }, "geometry": { "type": "MultiPolygon", "coordinates": [ [ [ [ 43.1219352, 36.3561778 ], [ 43.1207293, 36.3552121 ], [ 43.1192228, 36.3530194 ], [ 43.118346, 36.3514499 ], [ 43.117814, 36.3501511 ], [ 43.117235, 36.3493218 ], [ 43.1164839, 36.3474753 ], [ 43.1164575, 36.3445617 ], [ 43.1163163, 36.3435929 ], [ 43.1161185, 36.3432633 ], [ 43.1162274, 36.3423419 ], [ 43.1173521, 36.3402222 ], [ 43.1190825, 36.3379295 ], [ 43.1202505, 36.3365885 ], [ 43.1212235, 36.3353127 ], [ 43.1232806, 36.3356375 ], [ 43.1251862, 36.3357241 ], [ 43.1260095, 36.3347237 ], [ 43.1290779, 36.3333216 ], [ 43.1307848, 36.334358 ], [ 43.1317195, 36.3350692 ], [ 43.1328307, 36.3381688 ], [ 43.133553, 36.3391689 ], [ 43.1341781, 36.3407107 ], [ 43.1351365, 36.3409746 ], [ 43.1352059, 36.341044 ], [ 43.1352476, 36.3414191 ], [ 43.1360393, 36.3424469 ], [ 43.136201, 36.3430059 ], [ 43.1380767, 36.3435218 ], [ 43.1369747, 36.3447058 ], [ 43.1369043, 36.344952 ], [ 43.1367754, 36.3452216 ], [ 43.1358855, 36.3459232 ], [ 43.1352997, 36.3458353 ], [ 43.1350654, 36.3461575 ], [ 43.1328103, 36.3480172 ], [ 43.132576, 36.3486615 ], [ 43.1313313, 36.3496427 ], [ 43.130482, 36.3499648 ], [ 43.1301891, 36.3499063 ], [ 43.1287895, 36.3508402 ], [ 43.1279087, 36.3515663 ], [ 43.126266, 36.3531138 ], [ 43.125659, 36.3531019 ], [ 43.1246829, 36.3535423 ], [ 43.1240163, 36.3542327 ], [ 43.1234569, 36.3546731 ], [ 43.1228633, 36.3553229 ], [ 43.1219352, 36.3561778 ] ] ] ] } }
]
}
