{"type":"FeatureCollection","name":"1127_Heritage_Buildings","features":[{"type":"Feature","geometry":{"type":"MultiPolygon","coordinates":[[[[43.1250532,36.3428557],[43.1253818,36.3422658],[43.1264347,36.3424898],[43.1261285,36.3431694],[43.1250532,36.3428557]]]]},"properties":{"id":36,"Building N":"الجامع النوري","heritage_identity":"A03:1","heritage_year":1127,"heritage_added_from_workbook":"Heritage Buildings Years.xlsx","heritage_workbook_row":31,"heritage_geometry_source_file":"1778_Heritage_Buildings.geojson","heritage_geometry_source_record":3,"heritage_geometry_source_year":1778}},{"type":"Feature","geometry":{"type":"MultiPolygon","coordinates":[[[[43.1406011,36.3404486],[43.1410099,36.3401998],[43.1412765,36.3404219],[43.1408766,36.3407241],[43.1406011,36.3404486]]]]},"properties":{"id":37,"Building N":"الجامع المجاهدي","heritage_identity":"A04:1","heritage_year":1127,"heritage_added_from_workbook":"Heritage Buildings Years.xlsx","heritage_workbook_row":34,"heritage_geometry_source_file":"1778_Heritage_Buildings.geojson","heritage_geometry_source_record":4,"heritage_geometry_source_year":1778}},{"type":"Feature","geometry":{"type":"MultiPolygon","coordinates":[[[[43.1314255,36.3491271],[43.131259,36.3492434],[43.1313489,36.3493385],[43.1311983,36.3494178],[43.1308785,36.3490241],[43.1309869,36.3489818],[43.1310371,36.3489607],[43.1310899,36.3489395],[43.1312221,36.3488893],[43.1313013,36.3489871],[43.1314255,36.3491271]]]]},"properties":{"id":38,"Building N":"جامع شيخ الشط","heritage_identity":"A21:1","heritage_year":1127,"heritage_added_from_workbook":"Heritage Buildings Years.xlsx","heritage_workbook_row":43,"heritage_geometry_source_file":"1906_Heritage_Buildings.geojson","heritage_geometry_source_record":11,"heritage_geometry_source_year":1906}},{"type":"Feature","geometry":{"type":"MultiPolygon","coordinates":[[[[43.1182812,36.3464846],[43.1183458,36.3464539],[43.1183181,36.3464047],[43.1184995,36.3463401],[43.1185549,36.3464508],[43.118521,36.3464631],[43.1185272,36.3464846],[43.118398,36.3465277],[43.1183857,36.3465092],[43.1182997,36.3465369],[43.1182812,36.3464846]]]]},"properties":{"id":39,"Building N":"مرقد الشيخ فتحي","heritage_identity":"C02:1","heritage_year":1127,"heritage_added_from_workbook":"Heritage Buildings Years.xlsx","heritage_workbook_row":46,"heritage_geometry_source_file":"1906_Heritage_Buildings.geojson","heritage_geometry_source_record":31,"heritage_geometry_source_year":1906}},{"type":"Feature","geometry":{"type":"MultiPolygon","coordinates":[[[[43.1247334,36.3533227],[43.1258192,36.3525061],[43.1259213,36.3526638],[43.1248726,36.3534712],[43.1247334,36.3533227]]]]},"properties":{"id":40,"Building N":"قره سراي","heritage_identity":"I03:1","heritage_year":1127,"heritage_added_from_workbook":"Heritage Buildings Years.xlsx","heritage_workbook_row":55,"heritage_geometry_source_file":"1778_Heritage_Buildings.geojson","heritage_geometry_source_record":5,"heritage_geometry_source_year":1778}}]}