{"type":"FeatureCollection","name":"1778_Heritage_Buildings_Points","features":[{"type":"Feature","properties":{"id":25,"Building N":"مشهد الامام الباهر"},"geometry":{"type":"Point","coordinates":[43.1206724,36.3444579]}},{"type":"Feature","properties":{"id":26,"Building N":"مرقد الامام عون الدين"},"geometry":{"type":"Point","coordinates":[43.1307873,36.3387947]}},{"type":"Feature","properties":{"id":27,"Building N":"مرقد زيد بن علي"},"geometry":{"type":"Point","coordinates":[43.1267207,36.3356469]}},{"type":"Feature","geometry":{"type":"Point","coordinates":[43.1261414,36.3378201]},"properties":{"id":28,"Building N":"كنيسة شمعون الصفا","heritage_identity":"B15:1","heritage_year":1778,"heritage_added_from_workbook":"Heritage Buildings Years.xlsx","heritage_workbook_row":17,"heritage_geometry_source_file":"1127_Heritage_Buildings.geojson","heritage_geometry_source_record":14,"heritage_geometry_source_year":1127}},{"type":"Feature","geometry":{"type":"Point","coordinates":[43.1226079,36.3538844]},"properties":{"id":29,"Building N":"كنيسة الطاهرة القديمة","heritage_identity":"B07:1","heritage_year":1778,"heritage_added_from_workbook":"Heritage Buildings Years.xlsx","heritage_workbook_row":20,"heritage_geometry_source_file":"1127_Heritage_Buildings.geojson","heritage_geometry_source_record":15,"heritage_geometry_source_year":1127}}]}