{"type":"FeatureCollection","name":"1778_Heritage_Buildings","features":[{"type":"Feature","properties":{"id":1,"Building N":"ايج قلعة"},"geometry":{"type":"MultiPolygon","coordinates":[[[[43.1337994,36.3469745],[43.1338139,36.3468152],[43.1339088,36.3467461],[43.1345477,36.3462195],[43.1351176,36.3458137],[43.1354975,36.3455892],[43.1357219,36.3455806],[43.1357392,36.3456496],[43.1351348,36.3463403],[43.13466,36.3466252],[43.1341363,36.3469324],[43.1337994,36.3469745]]]]}},{"type":"Feature","properties":{"id":9,"Building N":"سراي الحكم"},"geometry":{"type":"MultiPolygon","coordinates":[[[[43.1335743,36.3404208],[43.1335558,36.3402628],[43.1344944,36.3399561],[43.1347174,36.3406159],[43.1337695,36.3408483],[43.1335743,36.3404208]]]]}},{"type":"Feature","properties":{"id":10,"Building N":"الجامع النوري"},"geometry":{"type":"MultiPolygon","coordinates":[[[[43.1250532,36.3428557],[43.1253818,36.3422658],[43.1264347,36.3424898],[43.1261285,36.3431694],[43.1250532,36.3428557]]]]}},{"type":"Feature","properties":{"id":11,"Building N":"الجامع المجاهدي"},"geometry":{"type":"MultiPolygon","coordinates":[[[[43.1406011,36.3404486],[43.1410099,36.3401998],[43.1412765,36.3404219],[43.1408766,36.3407241],[43.1406011,36.3404486]]]]}},{"type":"Feature","properties":{"id":12,"Building N":"قره سراي"},"geometry":{"type":"MultiPolygon","coordinates":[[[[43.1247334,36.3533227],[43.1258192,36.3525061],[43.1259213,36.3526638],[43.1248726,36.3534712],[43.1247334,36.3533227]]]]}},{"type":"Feature","properties":{"id":1,"Building N":"المدرسة (المعهد الرياضي)"},"geometry":{"type":"MultiPolygon","coordinates":[[[[43.1291209,36.3494742],[43.1292538,36.3496337],[43.1284031,36.350285],[43.1281971,36.3501388],[43.1291209,36.3494742]]]]}},{"type":"Feature","properties":{"id":1,"Building N":"مرقد الامام يحيى ابو القاسم","heritage_original_name":"يحيى ابو القاسم"},"geometry":{"type":"MultiPolygon","coordinates":[[[[43.1229092,36.3545525],[43.1232457,36.3542866],[43.1233922,36.3544168],[43.1230666,36.3546827],[43.1229092,36.3545525]]]]}},{"type":"Feature","properties":{"id":15,"Building N":"كنيسة الطاهرة الخارجية للسريان"},"geometry":{"type":"MultiPolygon","coordinates":[[[[43.1235012,36.3528439],[43.1239239,36.3526214],[43.1241575,36.3528216],[43.1237682,36.3530997],[43.1235012,36.3528439]]]]}},{"type":"Feature","properties":{"id":16,"Building N":"كنيسة الطاهرة الخارجية للسريان الارثدوكس"},"geometry":{"type":"MultiPolygon","coordinates":[[[[43.1218827,36.3522882],[43.1222681,36.3520591],[43.1225076,36.3522778],[43.1221743,36.3525173],[43.1218827,36.3522882]]]]}},{"type":"Feature","geometry":{"type":"MultiPolygon","coordinates":[[[[43.1321525,36.3465543],[43.1321619,36.3463885],[43.1322807,36.3463903],[43.13239,36.3464205],[43.132488,36.3464751],[43.1324691,36.3466052],[43.1323862,36.3466089],[43.1321525,36.3465543]]]]},"properties":{"id":17,"Building N":"الجامع الأموي","heritage_identity":"A01/A02:1","heritage_year":1778,"heritage_added_from_workbook":"Heritage Buildings Years.xlsx","heritage_workbook_row":11,"heritage_geometry_source_file":"1906_Heritage_Buildings.geojson","heritage_geometry_source_record":7,"heritage_geometry_source_year":1906}},{"type":"Feature","geometry":{"type":"MultiPolygon","coordinates":[[[[43.1290534,36.3485358],[43.1291201,36.3484342],[43.1292517,36.3482842],[43.1294117,36.3484058],[43.1291367,36.3487124],[43.1290534,36.3485358]]]]},"properties":{"id":18,"Building N":"كنيسة مار إشعيا","heritage_identity":"B03:1","heritage_year":1778,"heritage_added_from_workbook":"Heritage Buildings Years.xlsx","heritage_workbook_row":14,"heritage_geometry_source_file":"1906_Heritage_Buildings.geojson","heritage_geometry_source_record":35,"heritage_geometry_source_year":1906}},{"type":"Feature","geometry":{"type":"MultiPolygon","coordinates":[[[[43.1247658,36.3406407],[43.125041,36.3403853],[43.1253855,36.3406778],[43.1251674,36.3409009],[43.1247658,36.3406407]]]]},"properties":{"id":19,"Building N":"كنيسة مار توما","heritage_identity":"B11/B12:1","heritage_year":1778,"heritage_added_from_workbook":"Heritage Buildings Years.xlsx","heritage_workbook_row":23,"heritage_geometry_source_file":"1906_Heritage_Buildings.geojson","heritage_geometry_source_record":26,"heritage_geometry_source_year":1906}},{"type":"Feature","geometry":{"type":"MultiPolygon","coordinates":[[[[43.1248317,36.3411639],[43.1250809,36.3408541],[43.1252852,36.3410023],[43.1252785,36.3410225],[43.125256,36.3410337],[43.1250786,36.3413345],[43.1248317,36.3411639]]]]},"properties":{"id":20,"Building N":"كنيسة مار توما للسريان الكاثوليك","heritage_identity":"B11/B12:2","heritage_year":1778,"heritage_added_from_workbook":"Heritage Buildings Years.xlsx","heritage_workbook_row":23,"heritage_geometry_source_file":"1906_Heritage_Buildings.geojson","heritage_geometry_source_record":27,"heritage_geometry_source_year":1906}},{"type":"Feature","geometry":{"type":"MultiPolygon","coordinates":[[[[43.1211453,36.3554737],[43.1216963,36.3551659],[43.1222188,36.3557599],[43.1218752,36.3559675],[43.1218466,36.3559174],[43.1216248,36.3560319],[43.1211453,36.3554737]]]]},"properties":{"id":21,"Building N":"قلعة باشطابيا","heritage_identity":"I01:1","heritage_year":1778,"heritage_added_from_workbook":"Heritage Buildings Years.xlsx","heritage_workbook_row":26,"heritage_geometry_source_file":"1852_Heritage_Building.geojson","heritage_geometry_source_record":11,"heritage_geometry_source_year":1852}},{"type":"Feature","geometry":{"type":"MultiPolygon","coordinates":[[[[43.1299017,36.3445929],[43.1304674,36.3443127],[43.1307638,36.344733],[43.1302304,36.3450132],[43.1299017,36.3445929]]]]},"properties":{"id":22,"Building N":"جامع النبي جرجيس","heritage_identity":"A06:1","heritage_year":1778,"heritage_added_from_workbook":"Heritage Buildings Years.xlsx","heritage_workbook_row":37,"heritage_geometry_source_file":"1852_Heritage_Building.geojson","heritage_geometry_source_record":2,"heritage_geometry_source_year":1852}},{"type":"Feature","geometry":{"type":"MultiPolygon","coordinates":[[[[43.1314255,36.3491271],[43.131259,36.3492434],[43.1313489,36.3493385],[43.1311983,36.3494178],[43.1308785,36.3490241],[43.1309869,36.3489818],[43.1310371,36.3489607],[43.1310899,36.3489395],[43.1312221,36.3488893],[43.1313013,36.3489871],[43.1314255,36.3491271]]]]},"properties":{"id":23,"Building N":"جامع شيخ الشط","heritage_identity":"A21:1","heritage_year":1778,"heritage_added_from_workbook":"Heritage Buildings Years.xlsx","heritage_workbook_row":43,"heritage_geometry_source_file":"1906_Heritage_Buildings.geojson","heritage_geometry_source_record":11,"heritage_geometry_source_year":1906}},{"type":"Feature","geometry":{"type":"MultiPolygon","coordinates":[[[[43.1182812,36.3464846],[43.1183458,36.3464539],[43.1183181,36.3464047],[43.1184995,36.3463401],[43.1185549,36.3464508],[43.118521,36.3464631],[43.1185272,36.3464846],[43.118398,36.3465277],[43.1183857,36.3465092],[43.1182997,36.3465369],[43.1182812,36.3464846]]]]},"properties":{"id":24,"Building N":"مرقد الشيخ فتحي","heritage_identity":"C02:1","heritage_year":1778,"heritage_added_from_workbook":"Heritage Buildings Years.xlsx","heritage_workbook_row":46,"heritage_geometry_source_file":"1906_Heritage_Buildings.geojson","heritage_geometry_source_record":31,"heritage_geometry_source_year":1906}},{"type":"Feature","geometry":{"type":"MultiPolygon","coordinates":[[[[43.1343975,36.3428511],[43.1346684,36.3429011],[43.1348017,36.3429552],[43.1347621,36.3430677],[43.1347017,36.3431573],[43.134683,36.3431719],[43.1343704,36.3431427],[43.1342559,36.3431323],[43.1342517,36.3430677],[43.1342788,36.3430427],[43.1343496,36.3429969],[43.1343725,36.3429552],[43.134385,36.3429115],[43.1343975,36.3428511]]]]},"properties":{"id":25,"Building N":"جامع عبدال","heritage_identity":"A09:1","heritage_year":1778,"heritage_added_from_workbook":"Heritage Buildings Years.xlsx","heritage_workbook_row":64,"heritage_geometry_source_file":"1906_Heritage_Buildings.geojson","heritage_geometry_source_record":18,"heritage_geometry_source_year":1906}},{"type":"Feature","geometry":{"type":"MultiPolygon","coordinates":[[[[43.1284939,36.3376828],[43.1285467,36.3378125],[43.1284807,36.3378587],[43.1284477,36.3378873],[43.1283752,36.3379291],[43.1282344,36.3377135],[43.1282916,36.337685],[43.1283664,36.3376476],[43.1284675,36.33763],[43.1284939,36.3376828]]]]},"properties":{"id":26,"Building N":"جامع عمر الاسود","heritage_identity":"A10:1","heritage_year":1778,"heritage_added_from_workbook":"Heritage Buildings Years.xlsx","heritage_workbook_row":67,"heritage_geometry_source_file":"1906_Heritage_Buildings.geojson","heritage_geometry_source_record":19,"heritage_geometry_source_year":1906}},{"type":"Feature","geometry":{"type":"MultiPolygon","coordinates":[[[[43.1356929,36.3445725],[43.1359948,36.3442064],[43.1367141,36.3444826],[43.1365472,36.3448551],[43.1363224,36.3448744],[43.1361104,36.3449257],[43.1356929,36.3445725]]]]},"properties":{"id":27,"Building N":"جامع الاغوات","heritage_identity":"A13:1","heritage_year":1778,"heritage_added_from_workbook":"Heritage Buildings Years.xlsx","heritage_workbook_row":73,"heritage_geometry_source_file":"1852_Heritage_Building.geojson","heritage_geometry_source_record":5,"heritage_geometry_source_year":1852}},{"type":"Feature","geometry":{"type":"MultiPolygon","coordinates":[[[[43.1354662,36.3430323],[43.1360713,36.3427879],[43.1364869,36.3433563],[43.1359124,36.3436313],[43.1354662,36.3430323]]]]},"properties":{"id":28,"Building N":"جامع الباشا","heritage_identity":"A14:1","heritage_year":1778,"heritage_added_from_workbook":"Heritage Buildings Years.xlsx","heritage_workbook_row":76,"heritage_geometry_source_file":"1852_Heritage_Building.geojson","heritage_geometry_source_record":6,"heritage_geometry_source_year":1852}},{"type":"Feature","geometry":{"type":"MultiPolygon","coordinates":[[[[43.1284623,36.3391498],[43.1285341,36.3393174],[43.1282742,36.3393584],[43.1281955,36.3391737],[43.12837,36.3391669],[43.1284623,36.3391498]]]]},"properties":{"id":29,"Building N":"جامع الرابعية","heritage_identity":"A16:1","heritage_year":1778,"heritage_added_from_workbook":"Heritage Buildings Years.xlsx","heritage_workbook_row":82,"heritage_geometry_source_file":"1906_Heritage_Buildings.geojson","heritage_geometry_source_record":20,"heritage_geometry_source_year":1906}},{"type":"Feature","geometry":{"type":"MultiPolygon","coordinates":[[[[43.1248699,36.3357909],[43.1250284,36.3356671],[43.1251597,36.3356398],[43.1252662,36.3358182],[43.1253455,36.3358033],[43.1252514,36.3359395],[43.1248947,36.3358603],[43.1248699,36.3357909]]]]},"properties":{"id":30,"Building N":"جامع الزيواني","heritage_identity":"A17:1","heritage_year":1778,"heritage_added_from_workbook":"Heritage Buildings Years.xlsx","heritage_workbook_row":85,"heritage_geometry_source_file":"1906_Heritage_Buildings.geojson","heritage_geometry_source_record":28,"heritage_geometry_source_year":1906}},{"type":"Feature","geometry":{"type":"MultiPolygon","coordinates":[[[[43.1352666,36.33482],[43.1360484,36.3344539],[43.1365772,36.3352177],[43.1363829,36.3353261],[43.1362834,36.3351815],[43.135705,36.3354707],[43.1352666,36.33482]]]]},"properties":{"id":31,"Building N":"جامع النبي شيت","heritage_identity":"A18:1","heritage_year":1778,"heritage_added_from_workbook":"Heritage Buildings Years.xlsx","heritage_workbook_row":88,"heritage_geometry_source_file":"1852_Heritage_Building.geojson","heritage_geometry_source_record":20,"heritage_geometry_source_year":1852}},{"type":"Feature","geometry":{"type":"MultiPolygon","coordinates":[[[[43.1358387,36.3445472],[43.1358603,36.3445011],[43.1359002,36.3444703],[43.1361308,36.3442398],[43.1363398,36.3443566],[43.1364013,36.3443197],[43.1365795,36.3444457],[43.1363213,36.3446855],[43.136266,36.3447162],[43.1362291,36.3447162],[43.1361646,36.3446855],[43.1359678,36.3445994],[43.1358387,36.3445472]]]]},"properties":{"id":32,"Building N":"خان الكمرك","heritage_identity":"D01:1","heritage_year":1778,"heritage_added_from_workbook":"Heritage Buildings Years.xlsx","heritage_workbook_row":94,"heritage_geometry_source_file":"1906_Heritage_Buildings.geojson","heritage_geometry_source_record":9,"heritage_geometry_source_year":1906}},{"type":"Feature","geometry":{"type":"MultiPolygon","coordinates":[[[[43.1288089,36.3375813],[43.1289781,36.3374752],[43.1291025,36.3375466],[43.1293859,36.3378117],[43.1293798,36.3379177],[43.1289251,36.3378504],[43.1288986,36.3378545],[43.1288803,36.3378382],[43.1289761,36.3377342],[43.1289618,36.3377199],[43.1289822,36.3376995],[43.1288089,36.3375813]]]]},"properties":{"id":33,"Building N":"حمام عبيد اغا الجليلي","heritage_identity":"E04:1","heritage_year":1778,"heritage_added_from_workbook":"Heritage Buildings Years.xlsx","heritage_workbook_row":97,"heritage_geometry_source_file":"1906_Heritage_Buildings.geojson","heritage_geometry_source_record":38,"heritage_geometry_source_year":1906}},{"type":"Feature","geometry":{"type":"MultiPolygon","coordinates":[[[[43.1326025,36.3319109],[43.1326121,36.3315916],[43.1329981,36.3315964],[43.1329695,36.3319252],[43.1326025,36.3319109]]]]},"properties":{"id":34,"Building N":"جامع الرضواني","heritage_identity":"I48:1","heritage_year":1778,"heritage_added_from_workbook":"Heritage Buildings Years.xlsx","heritage_workbook_row":100,"heritage_geometry_source_file":"1852_Heritage_Building.geojson","heritage_geometry_source_record":19,"heritage_geometry_source_year":1852}}]}