{"type":"FeatureCollection","name":"1852_Heritage_Building","features":[{"type":"Feature","properties":{"id":1,"Name":"الجامع النوري"},"geometry":{"type":"MultiPolygon","coordinates":[[[[43.1257557,36.3429013],[43.1268359,36.3423822],[43.1275728,36.3435796],[43.1264591,36.3440569],[43.1257557,36.3429013]]]]}},{"type":"Feature","properties":{"id":1,"Name":"جامع النبي جرجيس"},"geometry":{"type":"MultiPolygon","coordinates":[[[[43.1299017,36.3445929],[43.1304674,36.3443127],[43.1307638,36.344733],[43.1302304,36.3450132],[43.1299017,36.3445929]]]]}},{"type":"Feature","properties":{"id":1,"Name":"حمام القلعة"},"geometry":{"type":"MultiPolygon","coordinates":[[[[43.1328923,36.3468817],[43.1337005,36.3461752],[43.1342486,36.346633],[43.1334801,36.3473677],[43.1328923,36.3468817]]]]}},{"type":"Feature","properties":{"id":1,"Name":"ايج قلعة"},"geometry":{"type":"MultiPolygon","coordinates":[[[[43.1351586,36.3463978],[43.1350883,36.346236],[43.135257,36.3458071],[43.1357141,36.3453289],[43.136122,36.3450968],[43.1365298,36.3450406],[43.1370572,36.3451461],[43.1371698,36.3452164],[43.1370994,36.34535],[43.1363892,36.3459618],[43.1355594,36.3465876],[43.1351586,36.3463978]]]]}},{"type":"Feature","properties":{"id":1,"Name":"جامع الاغوات","heritage_original_name":"جامع الجسر (الاغوات)"},"geometry":{"type":"MultiPolygon","coordinates":[[[[43.1356929,36.3445725],[43.1359948,36.3442064],[43.1367141,36.3444826],[43.1365472,36.3448551],[43.1363224,36.3448744],[43.1361104,36.3449257],[43.1356929,36.3445725]]]]}},{"type":"Feature","properties":{"id":1,"Name":"جامع الباشا"},"geometry":{"type":"MultiPolygon","coordinates":[[[[43.1354662,36.3430323],[43.1360713,36.3427879],[43.1364869,36.3433563],[43.1359124,36.3436313],[43.1354662,36.3430323]]]]}},{"type":"Feature","properties":{"id":1,"Name":"سراي"},"geometry":{"type":"MultiPolygon","coordinates":[[[[43.1345681,36.3415898],[43.1351881,36.3412648],[43.1361511,36.3424505],[43.1358502,36.3425648],[43.1358863,36.3426612],[43.1356154,36.3427755],[43.1354529,36.3425468],[43.1353205,36.3425949],[43.1345681,36.3415898]]]]}},{"type":"Feature","properties":{"id":1,"Name":"مركز الشرطة"},"geometry":{"type":"MultiPolygon","coordinates":[[[[43.1338799,36.3407083],[43.1344964,36.3403873],[43.135118,36.3411668],[43.1345066,36.3414878],[43.1338799,36.3407083]]]]}},{"type":"Feature","properties":{"id":1,"Name":"مرقد الامام عون الدين"},"geometry":{"type":"MultiPolygon","coordinates":[[[[43.1308075,36.3394664],[43.1313138,36.339223],[43.1315621,36.3396222],[43.1310363,36.3398559],[43.1308075,36.3394664]]]]}},{"type":"Feature","properties":{"id":1,"Name":"جامع حسين باشا"},"geometry":{"type":"MultiPolygon","coordinates":[[[[43.1332101,36.3401911],[43.1337943,36.3399038],[43.1341486,36.3403683],[43.1335692,36.3406652],[43.1332101,36.3401911]]]]}},{"type":"Feature","properties":{"id":1,"Name":"قلعة باشطابيا"},"geometry":{"type":"MultiPolygon","coordinates":[[[[43.1211453,36.3554737],[43.1216963,36.3551659],[43.1222188,36.3557599],[43.1218752,36.3559675],[43.1218466,36.3559174],[43.1216248,36.3560319],[43.1211453,36.3554737]]]]}},{"type":"Feature","properties":{"id":1,"Name":"مرقد الامام يحيى ابو القاسم"},"geometry":{"type":"MultiPolygon","coordinates":[[[[43.1231777,36.3547652],[43.1231849,36.3544789],[43.1234282,36.3544718],[43.1234282,36.3547652],[43.1231777,36.3547652]]]]}},{"type":"Feature","properties":{"id":1,"Name":"قره سراي","heritage_original_name":"قراسراي"},"geometry":{"type":"MultiPolygon","coordinates":[[[[43.1260341,36.3528254],[43.1260489,36.3525596],[43.1265289,36.3525522],[43.1265436,36.3527959],[43.1260341,36.3528254]]]]}},{"type":"Feature","properties":{"id":1,"Name":"كنيسة الطاهرة الخارجية (الكلدان)"},"geometry":{"type":"MultiPolygon","coordinates":[[[[43.1231436,36.3536741],[43.1231524,36.352868],[43.1238709,36.352868],[43.1238271,36.3536741],[43.1231436,36.3536741]]]]}},{"type":"Feature","properties":{"id":1,"Name":"كنيسة الطاهرة الخارجية (السريان)"},"geometry":{"type":"MultiPolygon","coordinates":[[[[43.1208744,36.3534463],[43.1208919,36.3529031],[43.1218557,36.3528505],[43.1218294,36.3534288],[43.1208744,36.3534463]]]]}},{"type":"Feature","properties":{"id":1,"Name":"عيسى داده"},"geometry":{"type":"MultiPolygon","coordinates":[[[[43.1317109,36.3492616],[43.1314233,36.3490717],[43.1317543,36.348757],[43.1320527,36.3489524],[43.1317109,36.3492616]]]]}},{"type":"Feature","properties":{"id":1,"Name":"جامع قضيب البان"},"geometry":{"type":"MultiPolygon","coordinates":[[[[43.1155848,36.3396301],[43.1152381,36.3396505],[43.1152504,36.3395159],[43.1150913,36.3395159],[43.1150832,36.3390061],[43.1156011,36.338998],[43.1155848,36.3396301]]]]}},{"type":"Feature","properties":{"id":1,"Name":"جامع اسامة بن زيد"},"geometry":{"type":"MultiPolygon","coordinates":[[[[43.1250593,36.3323242],[43.1251227,36.332062],[43.1254272,36.3321127],[43.125368,36.3323707],[43.1250593,36.3323242]]]]}},{"type":"Feature","properties":{"id":1,"Name":"جامع الرضواني"},"geometry":{"type":"MultiPolygon","coordinates":[[[[43.1326025,36.3319109],[43.1326121,36.3315916],[43.1329981,36.3315964],[43.1329695,36.3319252],[43.1326025,36.3319109]]]]}},{"type":"Feature","properties":{"id":1,"Name":"جامع النبي شيت"},"geometry":{"type":"MultiPolygon","coordinates":[[[[43.1352666,36.33482],[43.1360484,36.3344539],[43.1365772,36.3352177],[43.1363829,36.3353261],[43.1362834,36.3351815],[43.135705,36.3354707],[43.1352666,36.33482]]]]}},{"type":"Feature","properties":{"id":1,"Name":"الجامع المجاهدي","heritage_original_name":"جامع الخضر (المجاهدي)"},"geometry":{"type":"MultiPolygon","coordinates":[[[[43.1406305,36.3398139],[43.1410322,36.3400253],[43.1407926,36.3403635],[43.1406728,36.3403213],[43.14056,36.3405115],[43.1403274,36.340434],[43.1403556,36.3403142],[43.1401372,36.3402367],[43.1403133,36.3400041],[43.1404261,36.3400605],[43.1406305,36.3398139]]]]}},{"type":"Feature","properties":{"id":1,"Name":"طوب خانة"},"geometry":{"type":"MultiPolygon","coordinates":[[[[43.139119,36.3406075],[43.1398954,36.3406006],[43.1398676,36.3413215],[43.1395072,36.3413354],[43.1395002,36.3410443],[43.1391398,36.341065],[43.139119,36.3406075]]]]}},{"type":"Feature","properties":{"id":1,"Name":"القشلة"},"geometry":{"type":"MultiPolygon","coordinates":[[[[43.1423353,36.3364653],[43.1423538,36.3362164],[43.1422154,36.3362164],[43.1422247,36.3359766],[43.1424091,36.3359674],[43.1423814,36.3357369],[43.1422615,36.3357276],[43.1422523,36.3356078],[43.1425566,36.335617],[43.1425751,36.3356907],[43.1428148,36.3357],[43.1428148,36.335617],[43.1429808,36.3356446],[43.14299,36.3357],[43.1432575,36.3357184],[43.1432482,36.3356354],[43.1435987,36.3356446],[43.1435894,36.3357645],[43.1434511,36.3357645],[43.1434511,36.3359674],[43.1435618,36.3359766],[43.1435525,36.3361242],[43.1434419,36.3361242],[43.1434327,36.3363178],[43.1435249,36.336327],[43.1435341,36.3364653],[43.1434234,36.3364746],[43.1433958,36.3365944],[43.1431284,36.3366221],[43.143156,36.3365115],[43.1428241,36.3365115],[43.1428056,36.3366313],[43.1426396,36.3366313],[43.1426488,36.3365207],[43.1423353,36.3364653]]]]}},{"type":"Feature","properties":{"id":1,"Name":"قصر الحاكم"},"geometry":{"type":"MultiPolygon","coordinates":[[[[43.1423538,36.337074],[43.1429993,36.3374244],[43.1421417,36.3384664],[43.1402052,36.3376272],[43.14074,36.3368526],[43.1420679,36.3373875],[43.1423538,36.337074]]]]}},{"type":"Feature","properties":{"id":1,"Name":null},"geometry":{"type":"MultiPolygon","coordinates":[[[[43.1203181,36.3519449],[43.1202769,36.3515183],[43.1205391,36.3514874],[43.1205339,36.3513846],[43.1205442,36.3513075],[43.1205751,36.3512664],[43.1206522,36.3512304],[43.1208064,36.3512613],[43.1208526,36.3513281],[43.1208629,36.3513795],[43.1208578,36.3514515],[43.1211097,36.3514412],[43.1211405,36.3518729],[43.1203181,36.3519449]]]]}},{"type":"Feature","properties":{"id":1,"Name":"جامع باب البيض"},"geometry":{"type":"MultiPolygon","coordinates":[[[[43.125868,36.3361863],[43.1264848,36.3359475],[43.1267534,36.3365444],[43.1261864,36.3367733],[43.125868,36.3361863]]]]}},{"type":"Feature","properties":{"id":1,"Name":"جامع باب جديد"},"geometry":{"type":"MultiPolygon","coordinates":[[[[43.1305838,36.3357485],[43.130932,36.3352909],[43.1316284,36.3357485],[43.1312603,36.3361465],[43.1305838,36.3357485]]]]}},{"type":"Feature","properties":{"id":23,"Name":"دير مار ميخائيل"},"geometry":{"type":"MultiPolygon","coordinates":[[[[43.0731487,36.3904684],[43.0731487,36.3901839],[43.0734333,36.3901715],[43.0734394,36.3900787],[43.0737549,36.3900787],[43.0737301,36.3904931],[43.0731487,36.3904684]]]]}},{"type":"Feature","geometry":{"type":"MultiPolygon","coordinates":[[[[43.1321525,36.3465543],[43.1321619,36.3463885],[43.1322807,36.3463903],[43.13239,36.3464205],[43.132488,36.3464751],[43.1324691,36.3466052],[43.1323862,36.3466089],[43.1321525,36.3465543]]]]},"properties":{"id":24,"Building N":"الجامع الأموي","heritage_identity":"A01/A02:1","heritage_year":1852,"heritage_added_from_workbook":"Heritage Buildings Years.xlsx","heritage_workbook_row":11,"heritage_geometry_source_file":"1906_Heritage_Buildings.geojson","heritage_geometry_source_record":7,"heritage_geometry_source_year":1906}},{"type":"Feature","geometry":{"type":"MultiPolygon","coordinates":[[[[43.1290534,36.3485358],[43.1291201,36.3484342],[43.1292517,36.3482842],[43.1294117,36.3484058],[43.1291367,36.3487124],[43.1290534,36.3485358]]]]},"properties":{"id":25,"Building N":"كنيسة مار إشعيا","heritage_identity":"B03:1","heritage_year":1852,"heritage_added_from_workbook":"Heritage Buildings Years.xlsx","heritage_workbook_row":14,"heritage_geometry_source_file":"1906_Heritage_Buildings.geojson","heritage_geometry_source_record":35,"heritage_geometry_source_year":1906}},{"type":"Feature","geometry":{"type":"MultiPolygon","coordinates":[[[[43.1247658,36.3406407],[43.125041,36.3403853],[43.1253855,36.3406778],[43.1251674,36.3409009],[43.1247658,36.3406407]]]]},"properties":{"id":26,"Building N":"كنيسة مار توما","heritage_identity":"B11/B12:1","heritage_year":1852,"heritage_added_from_workbook":"Heritage Buildings Years.xlsx","heritage_workbook_row":23,"heritage_geometry_source_file":"1906_Heritage_Buildings.geojson","heritage_geometry_source_record":26,"heritage_geometry_source_year":1906}},{"type":"Feature","geometry":{"type":"MultiPolygon","coordinates":[[[[43.1248317,36.3411639],[43.1250809,36.3408541],[43.1252852,36.3410023],[43.1252785,36.3410225],[43.125256,36.3410337],[43.1250786,36.3413345],[43.1248317,36.3411639]]]]},"properties":{"id":27,"Building N":"كنيسة مار توما للسريان الكاثوليك","heritage_identity":"B11/B12:2","heritage_year":1852,"heritage_added_from_workbook":"Heritage Buildings Years.xlsx","heritage_workbook_row":23,"heritage_geometry_source_file":"1906_Heritage_Buildings.geojson","heritage_geometry_source_record":27,"heritage_geometry_source_year":1906}},{"type":"Feature","geometry":{"type":"MultiPolygon","coordinates":[[[[43.1314255,36.3491271],[43.131259,36.3492434],[43.1313489,36.3493385],[43.1311983,36.3494178],[43.1308785,36.3490241],[43.1309869,36.3489818],[43.1310371,36.3489607],[43.1310899,36.3489395],[43.1312221,36.3488893],[43.1313013,36.3489871],[43.1314255,36.3491271]]]]},"properties":{"id":28,"Building N":"جامع شيخ الشط","heritage_identity":"A21:1","heritage_year":1852,"heritage_added_from_workbook":"Heritage Buildings Years.xlsx","heritage_workbook_row":43,"heritage_geometry_source_file":"1906_Heritage_Buildings.geojson","heritage_geometry_source_record":11,"heritage_geometry_source_year":1906}},{"type":"Feature","geometry":{"type":"MultiPolygon","coordinates":[[[[43.1182812,36.3464846],[43.1183458,36.3464539],[43.1183181,36.3464047],[43.1184995,36.3463401],[43.1185549,36.3464508],[43.118521,36.3464631],[43.1185272,36.3464846],[43.118398,36.3465277],[43.1183857,36.3465092],[43.1182997,36.3465369],[43.1182812,36.3464846]]]]},"properties":{"id":29,"Building N":"مرقد الشيخ فتحي","heritage_identity":"C02:1","heritage_year":1852,"heritage_added_from_workbook":"Heritage Buildings Years.xlsx","heritage_workbook_row":46,"heritage_geometry_source_file":"1906_Heritage_Buildings.geojson","heritage_geometry_source_record":31,"heritage_geometry_source_year":1906}},{"type":"Feature","geometry":{"type":"MultiPolygon","coordinates":[[[[43.1343975,36.3428511],[43.1346684,36.3429011],[43.1348017,36.3429552],[43.1347621,36.3430677],[43.1347017,36.3431573],[43.134683,36.3431719],[43.1343704,36.3431427],[43.1342559,36.3431323],[43.1342517,36.3430677],[43.1342788,36.3430427],[43.1343496,36.3429969],[43.1343725,36.3429552],[43.134385,36.3429115],[43.1343975,36.3428511]]]]},"properties":{"id":30,"Building N":"جامع عبدال","heritage_identity":"A09:1","heritage_year":1852,"heritage_added_from_workbook":"Heritage Buildings Years.xlsx","heritage_workbook_row":64,"heritage_geometry_source_file":"1906_Heritage_Buildings.geojson","heritage_geometry_source_record":18,"heritage_geometry_source_year":1906}},{"type":"Feature","geometry":{"type":"MultiPolygon","coordinates":[[[[43.1284939,36.3376828],[43.1285467,36.3378125],[43.1284807,36.3378587],[43.1284477,36.3378873],[43.1283752,36.3379291],[43.1282344,36.3377135],[43.1282916,36.337685],[43.1283664,36.3376476],[43.1284675,36.33763],[43.1284939,36.3376828]]]]},"properties":{"id":31,"Building N":"جامع عمر الاسود","heritage_identity":"A10:1","heritage_year":1852,"heritage_added_from_workbook":"Heritage Buildings Years.xlsx","heritage_workbook_row":67,"heritage_geometry_source_file":"1906_Heritage_Buildings.geojson","heritage_geometry_source_record":19,"heritage_geometry_source_year":1906}},{"type":"Feature","geometry":{"type":"MultiPolygon","coordinates":[[[[43.1205682,36.3442181],[43.1206913,36.3438414],[43.1207361,36.3438227],[43.1214933,36.3439272],[43.1211464,36.3443113],[43.1211128,36.3443934],[43.1210643,36.344427],[43.1209226,36.3443748],[43.1205682,36.3442181]]]]},"properties":{"id":32,"Building N":"مشهد الامام الباهر","heritage_identity":"A15:1","heritage_year":1852,"heritage_added_from_workbook":"Heritage Buildings Years.xlsx","heritage_workbook_row":79,"heritage_geometry_source_file":"1906_Heritage_Buildings.geojson","heritage_geometry_source_record":30,"heritage_geometry_source_year":1906}},{"type":"Feature","geometry":{"type":"MultiPolygon","coordinates":[[[[43.1284623,36.3391498],[43.1285341,36.3393174],[43.1282742,36.3393584],[43.1281955,36.3391737],[43.12837,36.3391669],[43.1284623,36.3391498]]]]},"properties":{"id":33,"Building N":"جامع الرابعية","heritage_identity":"A16:1","heritage_year":1852,"heritage_added_from_workbook":"Heritage Buildings Years.xlsx","heritage_workbook_row":82,"heritage_geometry_source_file":"1906_Heritage_Buildings.geojson","heritage_geometry_source_record":20,"heritage_geometry_source_year":1906}},{"type":"Feature","geometry":{"type":"MultiPolygon","coordinates":[[[[43.125241,36.3363965],[43.125428,36.3362568],[43.1255592,36.3362296],[43.1256851,36.3361767],[43.1256851,36.3363568],[43.1255285,36.3364272],[43.1252468,36.3364409],[43.125241,36.3363965]]]]},"properties":{"id":34,"Building N":"جامع الزيواني","heritage_identity":"A17:1","heritage_year":1852,"heritage_added_from_workbook":"Heritage Buildings Years.xlsx","heritage_workbook_row":85,"heritage_geometry_source_file":"1919_Heritage_Buidlings.geojson","heritage_geometry_source_record":33,"heritage_geometry_source_year":1919,"heritage_location_correction":"1852 location corrected from mapped 1919 footprint inside the 1852 historic wall"}},{"type":"Feature","geometry":{"type":"MultiPolygon","coordinates":[[[[43.1358387,36.3445472],[43.1358603,36.3445011],[43.1359002,36.3444703],[43.1361308,36.3442398],[43.1363398,36.3443566],[43.1364013,36.3443197],[43.1365795,36.3444457],[43.1363213,36.3446855],[43.136266,36.3447162],[43.1362291,36.3447162],[43.1361646,36.3446855],[43.1359678,36.3445994],[43.1358387,36.3445472]]]]},"properties":{"id":35,"Building N":"خان الكمرك","heritage_identity":"D01:1","heritage_year":1852,"heritage_added_from_workbook":"Heritage Buildings Years.xlsx","heritage_workbook_row":94,"heritage_geometry_source_file":"1906_Heritage_Buildings.geojson","heritage_geometry_source_record":9,"heritage_geometry_source_year":1906}},{"type":"Feature","geometry":{"type":"MultiPolygon","coordinates":[[[[43.1288089,36.3375813],[43.1289781,36.3374752],[43.1291025,36.3375466],[43.1293859,36.3378117],[43.1293798,36.3379177],[43.1289251,36.3378504],[43.1288986,36.3378545],[43.1288803,36.3378382],[43.1289761,36.3377342],[43.1289618,36.3377199],[43.1289822,36.3376995],[43.1288089,36.3375813]]]]},"properties":{"id":36,"Building N":"حمام عبيد اغا الجليلي","heritage_identity":"E04:1","heritage_year":1852,"heritage_added_from_workbook":"Heritage Buildings Years.xlsx","heritage_workbook_row":97,"heritage_geometry_source_file":"1906_Heritage_Buildings.geojson","heritage_geometry_source_record":38,"heritage_geometry_source_year":1906}},{"type":"Feature","geometry":{"type":"MultiPolygon","coordinates":[[[[43.1304709,36.3409575],[43.1306248,36.3411113],[43.1304236,36.3412623],[43.1303644,36.3412504],[43.1302372,36.3411025],[43.1304709,36.3409575]]]]},"properties":{"id":37,"Building N":"جامع القطانين","heritage_identity":"A20:1","heritage_year":1852,"heritage_added_from_workbook":"Heritage Buildings Years.xlsx","heritage_workbook_row":106,"heritage_geometry_source_file":"1906_Heritage_Buildings.geojson","heritage_geometry_source_record":3,"heritage_geometry_source_year":1906}},{"type":"Feature","geometry":{"type":"MultiPolygon","coordinates":[[[[43.1270721,36.3400944],[43.1275046,36.3401298],[43.1273757,36.3402879],[43.1271302,36.3406039],[43.1268701,36.3405869],[43.1268536,36.3405637],[43.1267807,36.3405595],[43.1268984,36.3402317],[43.1269138,36.3401868],[43.1269607,36.3400827],[43.1270721,36.3400944]]]]},"properties":{"id":38,"Building N":"كنيسة الساعة","heritage_identity":"B10:1","heritage_year":1852,"heritage_added_from_workbook":"Heritage Buildings Years.xlsx","heritage_workbook_row":109,"heritage_geometry_source_file":"1906_Heritage_Buildings.geojson","heritage_geometry_source_record":1,"heritage_geometry_source_year":1906}}]}