{
"type": "FeatureCollection",
"name": "1852_Agriculture_Land",
"features": [
{ "type": "Feature", "properties": { "id": 1 }, "geometry": { "type": "MultiPolygon", "coordinates": [ [ [ [ 43.1203037, 36.3467075 ], [ 43.1203769, 36.3473178 ], [ 43.1216707, 36.3480745 ], [ 43.1194493, 36.348343 ], [ 43.1179114, 36.3486238 ], [ 43.1177039, 36.3478304 ], [ 43.1173744, 36.3471591 ], [ 43.1173012, 36.3468418 ], [ 43.1172401, 36.3462437 ], [ 43.1203037, 36.3467075 ] ] ] ] } },
{ "type": "Feature", "properties": { "id": 1 }, "geometry": { "type": "MultiPolygon", "coordinates": [ [ [ [ 43.123745, 36.3479079 ], [ 43.1245176, 36.3483342 ], [ 43.1252369, 36.3480944 ], [ 43.1261427, 36.3486006 ], [ 43.1250238, 36.3492933 ], [ 43.1233987, 36.3497995 ], [ 43.1208411, 36.3505721 ], [ 43.1186298, 36.350652 ], [ 43.1184167, 36.3504655 ], [ 43.1178838, 36.3488937 ], [ 43.123745, 36.3479079 ] ] ] ] } },
{ "type": "Feature", "properties": { "id": 1 }, "geometry": { "type": "MultiPolygon", "coordinates": [ [ [ [ 43.1279353, 36.3489907 ], [ 43.1267427, 36.3499341 ], [ 43.1257458, 36.3507351 ], [ 43.1250872, 36.3512336 ], [ 43.1244108, 36.3515718 ], [ 43.1237877, 36.3516608 ], [ 43.1233783, 36.3516252 ], [ 43.1225773, 36.351376 ], [ 43.1219009, 36.351198 ], [ 43.1212066, 36.3510199 ], [ 43.1210108, 36.3509665 ], [ 43.1223459, 36.3505037 ], [ 43.1237699, 36.3500587 ], [ 43.1249092, 36.3496493 ], [ 43.1257102, 36.3493467 ], [ 43.1263867, 36.3489017 ], [ 43.1279353, 36.3489907 ] ] ] ] } },
{ "type": "Feature", "properties": { "id": 1 }, "geometry": { "type": "MultiPolygon", "coordinates": [ [ [ [ 43.1247512, 36.3517543 ], [ 43.1278957, 36.3493627 ], [ 43.1285748, 36.3498794 ], [ 43.1296968, 36.349776 ], [ 43.1290915, 36.3504404 ], [ 43.1288553, 36.3503075 ], [ 43.1274971, 36.3511047 ], [ 43.1277038, 36.3512671 ], [ 43.1259913, 36.3521086 ], [ 43.125637, 36.3520938 ], [ 43.1247512, 36.3517543 ] ] ] ] } },
{ "type": "Feature", "properties": { "id": 1 }, "geometry": { "type": "MultiPolygon", "coordinates": [ [ [ [ 43.118725, 36.3510483 ], [ 43.1194365, 36.3508886 ], [ 43.1201916, 36.3509757 ], [ 43.1212807, 36.35115 ], [ 43.1217889, 36.3513968 ], [ 43.122515, 36.3516292 ], [ 43.1229506, 36.3518324 ], [ 43.1234298, 36.3519051 ], [ 43.123938, 36.3519486 ], [ 43.1244172, 36.3520212 ], [ 43.1251578, 36.3522681 ], [ 43.1256079, 36.3523842 ], [ 43.1256225, 36.3525149 ], [ 43.1241994, 36.3530958 ], [ 43.1238799, 36.3540396 ], [ 43.1235024, 36.3541558 ], [ 43.1235895, 36.354301 ], [ 43.1230958, 36.354998 ], [ 43.1222536, 36.3546205 ], [ 43.1219922, 36.3546931 ], [ 43.1202787, 36.3533136 ], [ 43.1191606, 36.3524714 ], [ 43.118725, 36.3510483 ] ] ] ] } }
]
}
