{
"type": "FeatureCollection",
"name": "1852_River",
"features": [
{ "type": "Feature", "properties": { "id": 1 }, "geometry": { "type": "MultiPolygon", "coordinates": [ [ [ [ 43.020406, 36.4075202 ], [ 43.0235029, 36.4029114 ], [ 43.0256856, 36.4025996 ], [ 43.0274941, 36.4015394 ], [ 43.0294897, 36.4006663 ], [ 43.0317347, 36.399918 ], [ 43.037971, 36.3990449 ], [ 43.0437707, 36.3976729 ], [ 43.0469512, 36.3964257 ], [ 43.0486973, 36.3962386 ], [ 43.0511918, 36.3962386 ], [ 43.0550583, 36.3958644 ], [ 43.0606709, 36.3946795 ], [ 43.0692163, 36.3930316 ], [ 43.0714192, 36.3919302 ], [ 43.0742228, 36.3905284 ], [ 43.0780277, 36.3883256 ], [ 43.0810315, 36.3861227 ], [ 43.0835347, 36.3839199 ], [ 43.0864385, 36.3815168 ], [ 43.0922459, 36.375409 ], [ 43.0941484, 36.3733063 ], [ 43.0950495, 36.3714038 ], [ 43.096952, 36.3696015 ], [ 43.0987543, 36.3677992 ], [ 43.1010572, 36.3653961 ], [ 43.1031599, 36.362993 ], [ 43.1065643, 36.3602896 ], [ 43.1102691, 36.3584872 ], [ 43.1120714, 36.3581869 ], [ 43.1143743, 36.3581869 ], [ 43.1163769, 36.3583871 ], [ 43.1177787, 36.3579866 ], [ 43.1196812, 36.3572857 ], [ 43.1206825, 36.3565848 ], [ 43.1221844, 36.3560842 ], [ 43.122685, 36.3557838 ], [ 43.124187, 36.3544821 ], [ 43.1251882, 36.3531804 ], [ 43.1259893, 36.35288 ], [ 43.1271908, 36.3522793 ], [ 43.1282922, 36.3518788 ], [ 43.1298943, 36.3508775 ], [ 43.1317135, 36.3494798 ], [ 43.1323959, 36.3488827 ], [ 43.1335901, 36.3477739 ], [ 43.1346137, 36.3470915 ], [ 43.1357226, 36.3464944 ], [ 43.1369167, 36.345812 ], [ 43.1377697, 36.3451296 ], [ 43.1383668, 36.3436796 ], [ 43.1393051, 36.3424001 ], [ 43.1404992, 36.3407794 ], [ 43.1417787, 36.3390735 ], [ 43.1432288, 36.3370263 ], [ 43.1457024, 36.3340409 ], [ 43.1468113, 36.3317378 ], [ 43.1481795, 36.3298759 ], [ 43.1517981, 36.3280666 ], [ 43.1569998, 36.3255788 ], [ 43.1583568, 36.3246742 ], [ 43.1590352, 36.3217341 ], [ 43.1597137, 36.3185678 ], [ 43.1588091, 36.3151754 ], [ 43.1574521, 36.3126876 ], [ 43.1588091, 36.3099737 ], [ 43.1651416, 36.3031888 ], [ 43.1692125, 36.3054504 ], [ 43.1684012, 36.3108526 ], [ 43.1688172, 36.3121004 ], [ 43.1693717, 36.3139027 ], [ 43.1708968, 36.3152891 ], [ 43.1728377, 36.317646 ], [ 43.1739469, 36.3193097 ], [ 43.1764424, 36.3212507 ], [ 43.1781061, 36.323053 ], [ 43.1757492, 36.3263804 ], [ 43.1740855, 36.3281827 ], [ 43.1733923, 36.3297078 ], [ 43.1732537, 36.3315101 ], [ 43.1726991, 36.3330351 ], [ 43.1713127, 36.3348375 ], [ 43.1700649, 36.335392 ], [ 43.1668762, 36.3369171 ], [ 43.1649352, 36.3367784 ], [ 43.1616078, 36.3370557 ], [ 43.1566168, 36.3374717 ], [ 43.151903, 36.3371944 ], [ 43.1505166, 36.3378876 ], [ 43.1501006, 36.339274 ], [ 43.1495461, 36.3399672 ], [ 43.148021, 36.340799 ], [ 43.1466346, 36.3419082 ], [ 43.144555, 36.3434332 ], [ 43.1431686, 36.3450969 ], [ 43.1423368, 36.3474538 ], [ 43.1412276, 36.3488402 ], [ 43.1401185, 36.3499493 ], [ 43.1388707, 36.351613 ], [ 43.1381775, 36.3532767 ], [ 43.1379002, 36.3543858 ], [ 43.1383162, 36.3557722 ], [ 43.1385934, 36.3571587 ], [ 43.1395639, 36.3592383 ], [ 43.1405344, 36.3610406 ], [ 43.1412276, 36.3632589 ], [ 43.1412276, 36.3654771 ], [ 43.1408117, 36.3668635 ], [ 43.1408117, 36.3688045 ], [ 43.1415049, 36.3710227 ], [ 43.1416435, 36.3735183 ], [ 43.1415228, 36.3765711 ], [ 43.140451, 36.3781788 ], [ 43.1391112, 36.3789827 ], [ 43.1371015, 36.3796526 ], [ 43.1349578, 36.3801885 ], [ 43.1329482, 36.3803225 ], [ 43.1313404, 36.3801885 ], [ 43.1287948, 36.3803225 ], [ 43.1267851, 36.3813943 ], [ 43.1246415, 36.3828681 ], [ 43.1233017, 36.38327 ], [ 43.121158, 36.383672 ], [ 43.1188804, 36.3843419 ], [ 43.1176746, 36.3848778 ], [ 43.1163348, 36.3870214 ], [ 43.115397, 36.3883612 ], [ 43.114861, 36.389701 ], [ 43.1136552, 36.3907728 ], [ 43.1115116, 36.3918447 ], [ 43.1103058, 36.3934524 ], [ 43.1099038, 36.3946582 ], [ 43.1100378, 36.3966679 ], [ 43.108832, 36.3978737 ], [ 43.1070903, 36.3982757 ], [ 43.1054825, 36.3981417 ], [ 43.1034728, 36.3976058 ], [ 43.1017311, 36.3974718 ], [ 43.1002574, 36.3981417 ], [ 43.0981137, 36.3992135 ], [ 43.0953001, 36.3992135 ], [ 43.0923526, 36.3992135 ], [ 43.0877973, 36.3982757 ], [ 43.0853857, 36.3974718 ], [ 43.0820363, 36.3970698 ], [ 43.0785528, 36.3977397 ], [ 43.0722558, 36.4006873 ], [ 43.0702461, 36.4020271 ], [ 43.0689063, 36.4036348 ], [ 43.0667627, 36.4052425 ], [ 43.0636812, 36.4059124 ], [ 43.0607336, 36.4056445 ], [ 43.0571162, 36.4047066 ], [ 43.0532308, 36.4028309 ], [ 43.04613, 36.4014911 ], [ 43.0403689, 36.4017591 ], [ 43.033402, 36.402563 ], [ 43.027239, 36.4041707 ], [ 43.0229516, 36.4064484 ], [ 43.020406, 36.4075202 ] ] ] ] } }
]
}
