{
  "type": "FeatureCollection",
  "name": "1852_Photos",
  "features": [
    {
      "type": "Feature",
      "properties": {
        "id": 1,
        "Photo": "Old Photos/Gallica/72 phot. de G\u00e9orgie, Perse, Turquie, Irak, par H. Binder, donateur en 1887/[72_phot_de_G\u00e9orgie_Perse_[...]Binder_Henry_btv1b53174369p_page-0050.jpg",
        "Descriptio": "\u0635\u0648\u0631\u0629 \u0645\u0646 \u062e\u0627\u0631\u062c \u0627\u0644\u0633\u0648\u0631 \u0628\u0623\u062a\u062c\u0627\u0647 \u0627\u0644\u062c\u0633\u0631 \u0627\u0644\u062d\u062c\u0631\u064a \u0648\u062c\u0633\u0631 \u0627\u0644\u0642\u0648\u0627\u0631\u0628"
      },
      "geometry": {
        "type": "Point",
        "coordinates": [
          43.1402035,
          36.340688
        ]
      }
    },
    {
      "type": "Feature",
      "properties": {
        "id": 2,
        "Photo": "Old Photos/Gallica/72 phot. de G\u00e9orgie, Perse, Turquie, Irak, par H. Binder, donateur en 1887/[72_phot_de_G\u00e9orgie_Perse_[...]Binder_Henry_btv1b53174369p_page-0051.jpg",
        "Descriptio": "\u0635\u0648\u0631\u0629 \u064a\u0638\u0647\u0631 \u0641\u064a\u0647\u0627 \u0627\u0644\u062c\u0627\u0645\u0639 \u0627\u0644\u0645\u062c\u0627\u0647\u062f\u064a"
      },
      "geometry": {
        "type": "Point",
        "coordinates": [
          43.1400086,
          36.340258
        ]
      }
    },
    {
      "type": "Feature",
      "properties": {
        "id": 3,
        "Photo": "Old Photos/Gallica/72 phot. de G\u00e9orgie, Perse, Turquie, Irak, par H. Binder, donateur en 1887/[72_phot_de_G\u00e9orgie_Perse_[...]Binder_Henry_btv1b53174369p_page-0055.jpg",
        "Descriptio": "\u0635\u0648\u0631\u0629 \u0645\u0646 \u0627\u0639\u0644\u0649 \u0642\u0644\u0639\u0629 \u0628\u0627\u0634\u0637\u0627\u0628\u064a\u0627 \u0628\u0627\u062a\u062c\u0627\u0647 \u0627\u0644\u0645\u0648\u0635\u0644\u060c \u064a\u0638\u0647\u0631 \u0641\u064a\u0647\u0627 \u0645\u0631\u0642\u062f \u0627\u0644\u0627\u0645\u0627\u0645 \u064a\u062d\u064a\u0649 \u0627\u0628\u0646 \u0627\u0644\u0642\u0627\u0633\u0645"
      },
      "geometry": {
        "type": "Point",
        "coordinates": [
          43.1220301,
          36.3554769
        ]
      }
    },
    {
      "type": "Feature",
      "properties": {
        "id": 4,
        "Photo": "Old Photos/Gallica/72 phot. de G\u00e9orgie, Perse, Turquie, Irak, par H. Binder, donateur en 1887/[72_phot_de_G\u00e9orgie_Perse_[...]Binder_Henry_btv1b53174369p_page-0056.jpg",
        "Descriptio": "\u0635\u0648\u0631\u0629 \u0645\u0646 \u0639\u0644\u0649 \u062c\u0633\u0631 \u0627\u0644\u0642\u0648\u0627\u0631\u0628 \u064a\u0638\u0647\u0631 \u0641\u064a\u0647\u0627 \u0628\u0627\u0628 \u0627\u0644\u062c\u0633\u0631 \u0648\u062c\u0627\u0645\u0639 \u0627\u0644\u0627\u063a\u0648\u0627\u062a"
      },
      "geometry": {
        "type": "Point",
        "coordinates": [
          43.140501,
          36.3456753
        ]
      }
    },
    {
      "type": "Feature",
      "properties": {
        "id": 5,
        "Photo": "Old Photos/Gallica/72 phot. de G\u00e9orgie, Perse, Turquie, Irak, par H. Binder, donateur en 1887/[72_phot_de_G\u00e9orgie_Perse_[...]Binder_Henry_btv1b53174369p_page-0058.jpg",
        "Descriptio": "\u0635\u0648\u0631\u0629 \u0645\u0646 \u062e\u0627\u0631\u062c \u0627\u0644\u0633\u0648\u0631 \u064a\u0638\u0647\u0631 \u0641\u064a\u0647\u0627 \u0628\u0627\u0628 \u0644\u0643\u0634 \u0648\u0627\u0644\u0642\u0628\u0629 \u0627\u0644\u0645\u062e\u0631\u0648\u0637\u064a\u0629 \u0644\u0645\u0631\u0642\u062f \u0627\u0644\u0627\u0645\u0627\u0645 \u0639\u0648\u0646 \u0627\u0644\u062f\u064a\u0646"
      },
      "geometry": {
        "type": "Point",
        "coordinates": [
          43.1339999,
          36.3383753
        ]
      }
    },
    {
      "type": "Feature",
      "properties": {
        "id": 6,
        "Photo": "Old Photos/Gallica/1852-1916/[275_dessins_et_aquarelles_de_[...]Gallois_Eug\u00e8ne_btv1b8478923k_3.jpg",
        "Descriptio": "\u0635\u0648\u0631\u0629 \u0639\u0627\u0645\u0629 \u0644\u0644\u0645\u0648\u0635\u0644\u060c \u062a\u0638\u0647\u0631 \u0641\u064a\u0647\u0627 \u0645\u0646\u0627\u0631\u0629 \u0627\u0644\u062d\u062f\u0628\u0627\u0621 \u0648\u0627\u0644\u062c\u0627\u0645\u0639 \u0627\u0644\u0646\u0648\u0631\u064a"
      },
      "geometry": {
        "type": "Point",
        "coordinates": [
          43.1250868,
          36.3416186
        ]
      }
    },
    {
      "type": "Feature",
      "properties": {
        "id": 7,
        "Photo": "Old Photos/Gallica/1852-1916/[275_dessins_et_aquarelles_de_[...]Gallois_Eug\u00e8ne_btv1b8478923k_5.jpg",
        "Descriptio": "\u0635\u0648\u0631\u0629 \u0639\u0627\u0645\u0629 \u0644\u0644\u0645\u0648\u0635\u0644\u060c \u064a\u0638\u0647\u0631 \u0641\u064a\u0647\u0627 \u0645\u0631\u0642\u062f \u0639\u0648\u0646 \u0627\u0644\u062f\u064a\u0646 \u0627\u0628\u0646 \u0627\u0644\u062d\u0633\u0646 \u0648 \u0628\u064a\u062a \u0627\u0645\u064a\u0646 \u0628\u0643 \u0627\u0644\u062c\u0644\u064a\u0644\u064a"
      },
      "geometry": {
        "type": "Point",
        "coordinates": [
          43.1287451,
          36.3397816
        ]
      }
    },
    {
      "type": "Feature",
      "properties": {
        "id": null,
        "Photo": "Old Photos/Gallica/f1-10.jpg",
        "Descriptio": "\u0635\u0648\u0631\u0629 \u0644\u0645\u0646\u0627\u0631\u0629 \u0627\u0644\u062d\u062f\u0628\u0627\u0621 \u0639\u0627\u0645 1852"
      },
      "geometry": {
        "type": "Point",
        "coordinates": [
          43.1265724,
          36.3436326
        ]
      }
    },
    {
      "type": "Feature",
      "properties": {
        "id": null,
        "Photo": "Old Photos/Sultan Abdulhamid II 1842-1919/90478---0033.jpg",
        "Descriptio": "\u0635\u0648\u0631\u0629 \u0644\u0644\u0648\u0627\u062c\u0647\u0629 \u0627\u0644\u0646\u0647\u0631\u064a\u0629 \u062a\u0648\u0636\u062d \u0627\u064a\u062c \u0642\u0644\u0639\u0629 \u0648\u0627\u0644\u062e\u0646\u062f\u0642 \u0627\u0644\u0645\u062d\u064a\u0637 \u0628\u0647\u0627"
      },
      "geometry": {
        "type": "Point",
        "coordinates": [
          43.1398966,
          36.3469093
        ]
      }
    },
    {
      "type": "Feature",
      "properties": {
        "id": null,
        "Photo": "Old Photos/Sultan Abdulhamid II 1842-1919/90573---0028.jpg",
        "Descriptio": "\u0635\u0648\u0631\u0629 \u0645\u0646 \u0627\u0644\u0636\u0641\u0629 \u0627\u0644\u064a\u0633\u0631\u0649 \u0644\u0646\u0647\u0631 \u062f\u062c\u0644\u0629 \u0628\u0623\u062a\u062c\u0627\u0647 \u0642\u0644\u0639\u0629 \u0628\u0627\u0634\u0637\u0627\u0628\u064a\u0627"
      },
      "geometry": {
        "type": "Point",
        "coordinates": [
          43.1411425,
          36.3495076
        ]
      }
    },
    {
      "type": "Feature",
      "properties": {
        "id": null,
        "Photo": "Old Photos/Sultan Abdulhamid II 1842-1919/90800---0002.jpg",
        "Descriptio": "\u0635\u0648\u0631\u0629 \u0645\u0646 \u0627\u0644\u0636\u0641\u0629 \u0627\u0644\u064a\u0633\u0631\u0649 \u062a\u0638\u0647\u0631 \u062f\u0627\u0631 \u0627\u0644\u0627\u0645\u0627\u0631\u0629 \u0648\u0627\u0644\u0642\u0634\u0644\u0629 \u0627\u0644\u0639\u0633\u0643\u0631\u064a\u0629 \u0641\u064a \u0627\u0644\u0645\u0648\u0635\u0644"
      },
      "geometry": {
        "type": "Point",
        "coordinates": [
          43.1495294,
          36.3410879
        ]
      }
    },
    {
      "type": "Feature",
      "properties": {
        "id": null,
        "Photo": "Old Photos/Sultan Abdulhamid II 1842-1919/90800---0006.jpg",
        "Descriptio": "\u0635\u0648\u0631\u0629 \u0645\u0646 \u062e\u0627\u0631\u062c \u0627\u0644\u0633\u0648\u0631 \u0642\u0631\u0628 \u0627\u0644\u0628\u0627\u0628 \u0627\u0644\u062c\u062f\u064a\u062f \u062a\u0638\u0647\u0631 \u0627\u0644\u062c\u0627\u0645\u0639 \u0627\u0644\u0639\u0645\u0631\u064a \u0648\u0627\u062d\u062f \u0627\u0628\u0631\u0627\u062c \u0627\u0644\u0633\u0648\u0631"
      },
      "geometry": {
        "type": "Point",
        "coordinates": [
          43.1342111,
          36.3353364
        ]
      }
    },
    {
      "type": "Feature",
      "properties": {
        "id": null,
        "Photo": "Old Photos/Sultan Abdulhamid II 1842-1919/90801---0010.jpg",
        "Descriptio": "\u0635\u0648\u0631\u0629 \u0644\u0644\u062c\u0627\u0645\u0639 \u0627\u0644\u0645\u062c\u0627\u0647\u062f\u064a \u0645\u0646 \u0642\u0631\u0628 \u062f\u0627\u0631 \u0627\u0644\u0627\u0645\u0627\u0631\u0629"
      },
      "geometry": {
        "type": "Point",
        "coordinates": [
          43.142057,
          36.3385172
        ]
      }
    }
  ]
}