{
"type": "FeatureCollection",
"name": "1852_Landscape",
"features": [
{ "type": "Feature", "properties": { "id": 1 }, "geometry": { "type": "MultiPolygon", "coordinates": [ [ [ [ 43.1177193, 36.3445475 ], [ 43.1183403, 36.344645 ], [ 43.1206297, 36.3453634 ], [ 43.1205931, 36.3460941 ], [ 43.1209219, 36.3464837 ], [ 43.12175, 36.3472265 ], [ 43.1204227, 36.3472265 ], [ 43.1193511, 36.3472022 ], [ 43.1180968, 36.3471657 ], [ 43.1177193, 36.3445475 ] ] ] ] } },
{ "type": "Feature", "properties": { "id": 1 }, "geometry": { "type": "MultiPolygon", "coordinates": [ [ [ [ 43.1236984, 36.3472874 ], [ 43.1243925, 36.3478963 ], [ 43.1252692, 36.3477015 ], [ 43.126073, 36.3482982 ], [ 43.1253423, 36.3487 ], [ 43.1243681, 36.3490288 ], [ 43.1235766, 36.3491749 ], [ 43.1226268, 36.3495037 ], [ 43.1212264, 36.3498447 ], [ 43.1207515, 36.3499177 ], [ 43.1196555, 36.3499177 ], [ 43.1187665, 36.3498081 ], [ 43.1185108, 36.3496377 ], [ 43.1181333, 36.3483347 ], [ 43.1180724, 36.347324 ], [ 43.1199599, 36.3474701 ], [ 43.1218596, 36.3474336 ], [ 43.1236984, 36.3472874 ] ] ] ] } },
{ "type": "Feature", "properties": { "id": 1 }, "geometry": { "type": "MultiPolygon", "coordinates": [ [ [ [ 43.1275284, 36.3490172 ], [ 43.1264082, 36.3498437 ], [ 43.1250488, 36.3508878 ], [ 43.1240482, 36.3514098 ], [ 43.1235915, 36.3514207 ], [ 43.1230803, 36.3513337 ], [ 43.1224604, 36.3510944 ], [ 43.1218732, 36.3507355 ], [ 43.1210793, 36.3504201 ], [ 43.1207747, 36.3503005 ], [ 43.121971, 36.3499851 ], [ 43.1238307, 36.3494957 ], [ 43.1248965, 36.3492456 ], [ 43.1260167, 36.3488215 ], [ 43.1261037, 36.348691 ], [ 43.1275284, 36.3490172 ] ] ] ] } },
{ "type": "Feature", "properties": { "id": 1 }, "geometry": { "type": "MultiPolygon", "coordinates": [ [ [ [ 43.1286839, 36.3508915 ], [ 43.1284576, 36.350862 ], [ 43.1281921, 36.3506948 ], [ 43.1269922, 36.3513636 ], [ 43.1271298, 36.3515013 ], [ 43.1270905, 36.3515898 ], [ 43.1266381, 36.3517964 ], [ 43.1252906, 36.3522783 ], [ 43.1242677, 36.3517275 ], [ 43.1254676, 36.3509505 ], [ 43.1271495, 36.3497014 ], [ 43.1285363, 36.3498588 ], [ 43.1291658, 36.350321 ], [ 43.1286839, 36.3508915 ] ] ] ] } },
{ "type": "Feature", "properties": { "id": 1 }, "geometry": { "type": "MultiPolygon", "coordinates": [ [ [ [ 43.1252568, 36.3524916 ], [ 43.1251768, 36.3526675 ], [ 43.1247769, 36.3528115 ], [ 43.1235292, 36.3531794 ], [ 43.1233372, 36.3537393 ], [ 43.1231932, 36.3541392 ], [ 43.1226973, 36.3547471 ], [ 43.1222014, 36.3550831 ], [ 43.1215936, 36.3545072 ], [ 43.1213696, 36.3546511 ], [ 43.1209217, 36.3538673 ], [ 43.1202498, 36.3530515 ], [ 43.1198179, 36.3526835 ], [ 43.1189861, 36.3515158 ], [ 43.1186182, 36.350188 ], [ 43.1187781, 36.3501401 ], [ 43.119578, 36.350204 ], [ 43.1204418, 36.350412 ], [ 43.1214016, 36.3507799 ], [ 43.1217535, 36.3510519 ], [ 43.1226174, 36.3515798 ], [ 43.1237211, 36.3518837 ], [ 43.124121, 36.3520117 ], [ 43.1247129, 36.3524436 ], [ 43.1252568, 36.3524916 ] ] ] ] } }
]
}
