{
"type": "FeatureCollection",
"name": "1906_Heritage_Buildings",
"features": [
{ "type": "Feature", "properties": { "id": 1, "Building N": "كنيسة الساعة" }, "geometry": { "type": "MultiPolygon", "coordinates": [ [ [ [ 43.1270721, 36.3400944 ], [ 43.1275046, 36.3401298 ], [ 43.1273757, 36.3402879 ], [ 43.1271302, 36.3406039 ], [ 43.1268701, 36.3405869 ], [ 43.1268536, 36.3405637 ], [ 43.1267807, 36.3405595 ], [ 43.1268984, 36.3402317 ], [ 43.1269138, 36.3401868 ], [ 43.1269607, 36.3400827 ], [ 43.1270721, 36.3400944 ] ] ] ] } },
{ "type": "Feature", "properties": { "id": 2, "Building N": "بيت التتنجي" }, "geometry": { "type": "MultiPolygon", "coordinates": [ [ [ [ 43.1307995, 36.3416061 ], [ 43.1305682, 36.3414385 ], [ 43.1307249, 36.3413019 ], [ 43.1306957, 36.3412673 ], [ 43.1307686, 36.3412199 ], [ 43.1310272, 36.3414549 ], [ 43.1307995, 36.3416061 ] ] ] ] } },
{ "type": "Feature", "properties": { "id": 4, "Building N": "جامع القطانين" }, "geometry": { "type": "MultiPolygon", "coordinates": [ [ [ [ 43.1304709, 36.3409575 ], [ 43.1306248, 36.3411113 ], [ 43.1304236, 36.3412623 ], [ 43.1303644, 36.3412504 ], [ 43.1302372, 36.3411025 ], [ 43.1304709, 36.3409575 ] ] ] ] } },
{ "type": "Feature", "properties": { "id": 6, "Building N": "كنيسة الطاهرة" }, "geometry": { "type": "MultiPolygon", "coordinates": [ [ [ [ 43.1327333, 36.3450249 ], [ 43.1324155, 36.3449786 ], [ 43.1323723, 36.3449477 ], [ 43.1323538, 36.3448552 ], [ 43.1323322, 36.3448243 ], [ 43.1323692, 36.3446052 ], [ 43.132616, 36.3446608 ], [ 43.1328505, 36.3447225 ], [ 43.1327333, 36.3450249 ] ] ] ] } },
{ "type": "Feature", "properties": { "id": 6, "Building N": "كنائس حوش البيعة" }, "geometry": { "type": "MultiPolygon", "coordinates": [ [ [ [ 43.1322112, 36.3438253 ], [ 43.132495, 36.3439919 ], [ 43.1324858, 36.3439919 ], [ 43.1323531, 36.344177 ], [ 43.132276, 36.3441554 ], [ 43.1320013, 36.3440228 ], [ 43.1320908, 36.3439209 ], [ 43.1322112, 36.3438253 ] ] ] ] } },
{ "type": "Feature", "properties": { "id": 7, "Building N": "بيت سليمان الصائغ" }, "geometry": { "type": "MultiPolygon", "coordinates": [ [ [ [ 43.1330085, 36.3450318 ], [ 43.1328772, 36.3450001 ], [ 43.1328782, 36.3449918 ], [ 43.132879, 36.3449838 ], [ 43.1328844, 36.3449639 ], [ 43.1328926, 36.3449395 ], [ 43.1328989, 36.3449123 ], [ 43.1330458, 36.3449523 ], [ 43.1330085, 36.3450318 ] ] ] ] } },
{ "type": "Feature", "properties": { "id": 8, "Building N": "الجامع الاموي (المصفي)" }, "geometry": { "type": "MultiPolygon", "coordinates": [ [ [ [ 43.1321525, 36.3465543 ], [ 43.1321619, 36.3463885 ], [ 43.1322807, 36.3463903 ], [ 43.13239, 36.3464205 ], [ 43.132488, 36.3464751 ], [ 43.1324691, 36.3466052 ], [ 43.1323862, 36.3466089 ], [ 43.1321525, 36.3465543 ] ] ] ] } },
{ "type": "Feature", "properties": { "id": 9, "Building N": "جامع الاغوات" }, "geometry": { "type": "MultiPolygon", "coordinates": [ [ [ [ 43.1366298, 36.3445033 ], [ 43.1366606, 36.3444921 ], [ 43.1366914, 36.3445005 ], [ 43.1367391, 36.3445117 ], [ 43.1368567, 36.3446126 ], [ 43.1368819, 36.3446546 ], [ 43.1370024, 36.3447386 ], [ 43.1369351, 36.3448114 ], [ 43.1368847, 36.3448423 ], [ 43.1367475, 36.3448563 ], [ 43.1365626, 36.3448815 ], [ 43.1364954, 36.3448843 ], [ 43.1364197, 36.3448787 ], [ 43.1364029, 36.3446742 ], [ 43.1364562, 36.344593 ], [ 43.1366298, 36.3445033 ] ] ] ] } },
{ "type": "Feature", "properties": { "id": 10, "Building N": "خان الكمرك" }, "geometry": { "type": "MultiPolygon", "coordinates": [ [ [ [ 43.1358387, 36.3445472 ], [ 43.1358603, 36.3445011 ], [ 43.1359002, 36.3444703 ], [ 43.1361308, 36.3442398 ], [ 43.1363398, 36.3443566 ], [ 43.1364013, 36.3443197 ], [ 43.1365795, 36.3444457 ], [ 43.1363213, 36.3446855 ], [ 43.136266, 36.3447162 ], [ 43.1362291, 36.3447162 ], [ 43.1361646, 36.3446855 ], [ 43.1359678, 36.3445994 ], [ 43.1358387, 36.3445472 ] ] ] ] } },
{ "type": "Feature", "properties": { "id": 11, "Building N": "حمام القلعة" }, "geometry": { "type": "MultiPolygon", "coordinates": [ [ [ [ 43.1342931, 36.3460656 ], [ 43.1343343, 36.3460037 ], [ 43.1343281, 36.3459686 ], [ 43.1343116, 36.3459129 ], [ 43.1343261, 36.3458696 ], [ 43.1343611, 36.345816 ], [ 43.1344375, 36.345717 ], [ 43.1344767, 36.3456778 ], [ 43.1347592, 36.3458634 ], [ 43.134753, 36.3459109 ], [ 43.1346169, 36.3460717 ], [ 43.1345262, 36.3461728 ], [ 43.1344684, 36.3462244 ], [ 43.1344189, 36.3462429 ], [ 43.1343694, 36.346245 ], [ 43.1343261, 36.3462244 ], [ 43.1342869, 36.3462099 ], [ 43.134256, 36.3461934 ], [ 43.1342126, 36.3461852 ], [ 43.1342931, 36.3460656 ] ] ] ] } },
{ "type": "Feature", "properties": { "id": 12, "Building N": "جامع شيخ الشط" }, "geometry": { "type": "MultiPolygon", "coordinates": [ [ [ [ 43.1314255, 36.3491271 ], [ 43.131259, 36.3492434 ], [ 43.1313489, 36.3493385 ], [ 43.1311983, 36.3494178 ], [ 43.1308785, 36.3490241 ], [ 43.1309869, 36.3489818 ], [ 43.1310371, 36.3489607 ], [ 43.1310899, 36.3489395 ], [ 43.1312221, 36.3488893 ], [ 43.1313013, 36.3489871 ], [ 43.1314255, 36.3491271 ] ] ] ] } },
{ "type": "Feature", "properties": { "id": 14, "Building N": "قلعة باشطابيا" }, "geometry": { "type": "MultiPolygon", "coordinates": [ [ [ [ 43.1212299, 36.3556215 ], [ 43.1212117, 36.3555891 ], [ 43.1212311, 36.3555658 ], [ 43.121291, 36.3555048 ], [ 43.1210687, 36.3553159 ], [ 43.1215133, 36.3549713 ], [ 43.1218411, 36.3553436 ], [ 43.1216855, 36.3555048 ], [ 43.121441, 36.3557159 ], [ 43.121341, 36.3557493 ], [ 43.1212299, 36.3556215 ] ] ] ] } },
{ "type": "Feature", "properties": { "id": 15, "Building N": "البارود خانة" }, "geometry": { "type": "MultiPolygon", "coordinates": [ [ [ [ 43.1177557, 36.3493115 ], [ 43.1177277, 36.3492755 ], [ 43.1177038, 36.3492216 ], [ 43.1176438, 36.3490997 ], [ 43.1177297, 36.3490738 ], [ 43.1178516, 36.3490438 ], [ 43.1179155, 36.3492316 ], [ 43.1179175, 36.3492815 ], [ 43.1178876, 36.3492835 ], [ 43.1178416, 36.3492855 ], [ 43.1178057, 36.3493035 ], [ 43.1177557, 36.3493115 ] ] ] ] } },
{ "type": "Feature", "properties": { "id": 16, "Building N": "الجامع المجاهدي" }, "geometry": { "type": "MultiPolygon", "coordinates": [ [ [ [ 43.1408658, 36.3399974 ], [ 43.1408442, 36.3400528 ], [ 43.1405976, 36.3402717 ], [ 43.1402554, 36.3401577 ], [ 43.1402739, 36.3401268 ], [ 43.1402492, 36.3401052 ], [ 43.140351, 36.3398586 ], [ 43.1405267, 36.3398802 ], [ 43.1405945, 36.3398494 ], [ 43.1407055, 36.3398216 ], [ 43.1408565, 36.3398463 ], [ 43.1409059, 36.3398617 ], [ 43.1408658, 36.3399974 ] ] ] ] } },
{ "type": "Feature", "properties": { "id": 16, "Building N": "الاعدادية الشرقية" }, "geometry": { "type": "MultiPolygon", "coordinates": [ [ [ [ 43.1389471, 36.3393278 ], [ 43.1392878, 36.3390869 ], [ 43.1395619, 36.3393611 ], [ 43.1392628, 36.339602 ], [ 43.1389471, 36.3393278 ] ] ] ] } },
{ "type": "Feature", "properties": { "id": 19, "Building N": "خان حمو القدو" }, "geometry": { "type": "MultiPolygon", "coordinates": [ [ [ [ 43.1351329, 36.3420533 ], [ 43.1353153, 36.3425327 ], [ 43.1348317, 36.3426769 ], [ 43.1346874, 36.3427321 ], [ 43.1342971, 36.3422527 ], [ 43.1351329, 36.3420533 ] ] ] ] } },
{ "type": "Feature", "properties": { "id": 19, "Building N": "جامع الباشا" }, "geometry": { "type": "MultiPolygon", "coordinates": [ [ [ [ 43.1355104, 36.3431748 ], [ 43.1358229, 36.3428804 ], [ 43.1361029, 36.3431477 ], [ 43.1358048, 36.3433789 ], [ 43.1355104, 36.3431748 ] ] ] ] } },
{ "type": "Feature", "properties": { "id": 20, "Building N": "جامع عبدال" }, "geometry": { "type": "MultiPolygon", "coordinates": [ [ [ [ 43.1343975, 36.3428511 ], [ 43.1346684, 36.3429011 ], [ 43.1348017, 36.3429552 ], [ 43.1347621, 36.3430677 ], [ 43.1347017, 36.3431573 ], [ 43.134683, 36.3431719 ], [ 43.1343704, 36.3431427 ], [ 43.1342559, 36.3431323 ], [ 43.1342517, 36.3430677 ], [ 43.1342788, 36.3430427 ], [ 43.1343496, 36.3429969 ], [ 43.1343725, 36.3429552 ], [ 43.134385, 36.3429115 ], [ 43.1343975, 36.3428511 ] ] ] ] } },
{ "type": "Feature", "properties": { "id": 21, "Building N": "جامع عمر الاسود" }, "geometry": { "type": "MultiPolygon", "coordinates": [ [ [ [ 43.1284939, 36.3376828 ], [ 43.1285467, 36.3378125 ], [ 43.1284807, 36.3378587 ], [ 43.1284477, 36.3378873 ], [ 43.1283752, 36.3379291 ], [ 43.1282344, 36.3377135 ], [ 43.1282916, 36.337685 ], [ 43.1283664, 36.3376476 ], [ 43.1284675, 36.33763 ], [ 43.1284939, 36.3376828 ] ] ] ] } },
{ "type": "Feature", "properties": { "id": 22, "Building N": "جامع الرابعية" }, "geometry": { "type": "MultiPolygon", "coordinates": [ [ [ [ 43.1284623, 36.3391498 ], [ 43.1285341, 36.3393174 ], [ 43.1282742, 36.3393584 ], [ 43.1281955, 36.3391737 ], [ 43.12837, 36.3391669 ], [ 43.1284623, 36.3391498 ] ] ] ] } },
{ "type": "Feature", "properties": { "id": 23, "Building N": "جامع النبي شيت" }, "geometry": { "type": "MultiPolygon", "coordinates": [ [ [ [ 43.1349293, 36.3349255 ], [ 43.1349496, 36.3341231 ], [ 43.1357314, 36.3341487 ], [ 43.1356975, 36.3349651 ], [ 43.1356009, 36.3349387 ], [ 43.1353902, 36.3349299 ], [ 43.1352322, 36.3349255 ], [ 43.1349293, 36.3349255 ] ] ] ] } },
{ "type": "Feature", "properties": { "id": 1, "Building N": "جامع النبي جرجيس" }, "geometry": { "type": "MultiPolygon", "coordinates": [ [ [ [ 43.1312083, 36.3443629 ], [ 43.131063, 36.3445245 ], [ 43.131034, 36.3445181 ], [ 43.1309341, 36.344634 ], [ 43.1308843, 36.3446309 ], [ 43.1308469, 36.3447399 ], [ 43.1307783, 36.3448365 ], [ 43.1305665, 36.3447898 ], [ 43.1303577, 36.3447618 ], [ 43.1301458, 36.344687 ], [ 43.1300866, 36.3446465 ], [ 43.1299838, 36.3446184 ], [ 43.1299869, 36.3445717 ], [ 43.1299932, 36.3445063 ], [ 43.1300337, 36.3444564 ], [ 43.1300679, 36.3443006 ], [ 43.1301552, 36.3443131 ], [ 43.1306444, 36.3443318 ], [ 43.1308812, 36.3443193 ], [ 43.1311148, 36.3443162 ], [ 43.1312083, 36.3443629 ] ] ] ] } },
{ "type": "Feature", "properties": { "id": 1, "Building N": "الجامع النوري الكبير" }, "geometry": { "type": "MultiPolygon", "coordinates": [ [ [ [ 43.1270896, 36.3425696 ], [ 43.1272736, 36.3435064 ], [ 43.1270729, 36.3435733 ], [ 43.1268052, 36.3436514 ], [ 43.1266044, 36.3436737 ], [ 43.1265319, 36.3436235 ], [ 43.126426, 36.3435343 ], [ 43.1264037, 36.3433558 ], [ 43.1263981, 36.3432499 ], [ 43.1263033, 36.3429265 ], [ 43.1262698, 36.3426755 ], [ 43.1263981, 36.3426197 ], [ 43.1267829, 36.3425807 ], [ 43.1270115, 36.3425361 ], [ 43.1270896, 36.3425696 ] ] ] ] } },
{ "type": "Feature", "properties": { "id": 1, "Building N": "مرقد الامام يحيى ابو القاسم" }, "geometry": { "type": "MultiPolygon", "coordinates": [ [ [ [ 43.1226593, 36.354623 ], [ 43.1224583, 36.3544321 ], [ 43.1227422, 36.3541544 ], [ 43.1230965, 36.3544107 ], [ 43.1230098, 36.3544924 ], [ 43.122844, 36.3545678 ], [ 43.1227196, 36.354613 ], [ 43.1226593, 36.354623 ] ] ] ] } },
{ "type": "Feature", "properties": { "id": 1, "Building N": "قشلة الخيالة" }, "geometry": { "type": "MultiPolygon", "coordinates": [ [ [ [ 43.1422088, 36.3365095 ], [ 43.1421918, 36.336155 ], [ 43.1421044, 36.3361526 ], [ 43.1420947, 36.3360651 ], [ 43.1421869, 36.3360603 ], [ 43.1421869, 36.3358417 ], [ 43.1420801, 36.335679 ], [ 43.1421117, 36.3356499 ], [ 43.1421724, 36.3356499 ], [ 43.1421991, 36.3356912 ], [ 43.1421942, 36.33573 ], [ 43.1423666, 36.3357446 ], [ 43.1423788, 36.3357009 ], [ 43.1427406, 36.3357276 ], [ 43.1427479, 36.3357786 ], [ 43.14293, 36.335798 ], [ 43.1429251, 36.3365484 ], [ 43.1422088, 36.3365095 ] ] ] ] } },
{ "type": "Feature", "properties": { "id": 1, "Building N": "كنيسة مارتوما" }, "geometry": { "type": "MultiPolygon", "coordinates": [ [ [ [ 43.1247658, 36.3406407 ], [ 43.125041, 36.3403853 ], [ 43.1253855, 36.3406778 ], [ 43.1251674, 36.3409009 ], [ 43.1247658, 36.3406407 ] ] ] ] } },
{ "type": "Feature", "properties": { "id": 1, "Building N": "كنيسة مارتوما للسريان الكاثوليك" }, "geometry": { "type": "MultiPolygon", "coordinates": [ [ [ [ 43.1248317, 36.3411639 ], [ 43.1250809, 36.3408541 ], [ 43.1252852, 36.3410023 ], [ 43.1252785, 36.3410225 ], [ 43.125256, 36.3410337 ], [ 43.1250786, 36.3413345 ], [ 43.1248317, 36.3411639 ] ] ] ] } },
{ "type": "Feature", "properties": { "id": null, "Building N": "جامع الزيواني" }, "geometry": { "type": "MultiPolygon", "coordinates": [ [ [ [ 43.1248699, 36.3357909 ], [ 43.1250284, 36.3356671 ], [ 43.1251597, 36.3356398 ], [ 43.1252662, 36.3358182 ], [ 43.1253455, 36.3358033 ], [ 43.1252514, 36.3359395 ], [ 43.1248947, 36.3358603 ], [ 43.1248699, 36.3357909 ] ] ] ] } },
{ "type": "Feature", "properties": { "id": null, "Building N": "مرقد زيد بن علي" }, "geometry": { "type": "MultiPolygon", "coordinates": [ [ [ [ 43.126029, 36.3354265 ], [ 43.1262003, 36.3353763 ], [ 43.126256, 36.3355003 ], [ 43.126075, 36.3355448 ], [ 43.126029, 36.3354265 ] ] ] ] } },
{ "type": "Feature", "properties": { "id": null, "Building N": "مرقد الامام الباهر" }, "geometry": { "type": "MultiPolygon", "coordinates": [ [ [ [ 43.1205682, 36.3442181 ], [ 43.1206913, 36.3438414 ], [ 43.1207361, 36.3438227 ], [ 43.1214933, 36.3439272 ], [ 43.1211464, 36.3443113 ], [ 43.1211128, 36.3443934 ], [ 43.1210643, 36.344427 ], [ 43.1209226, 36.3443748 ], [ 43.1205682, 36.3442181 ] ] ] ] } },
{ "type": "Feature", "properties": { "id": null, "Building N": "مرقد الشيخ فتحي" }, "geometry": { "type": "MultiPolygon", "coordinates": [ [ [ [ 43.1182812, 36.3464846 ], [ 43.1183458, 36.3464539 ], [ 43.1183181, 36.3464047 ], [ 43.1184995, 36.3463401 ], [ 43.1185549, 36.3464508 ], [ 43.118521, 36.3464631 ], [ 43.1185272, 36.3464846 ], [ 43.118398, 36.3465277 ], [ 43.1183857, 36.3465092 ], [ 43.1182997, 36.3465369 ], [ 43.1182812, 36.3464846 ] ] ] ] } },
{ "type": "Feature", "properties": { "id": null, "Building N": "مرقد الامام عون الدين ابن الحسن" }, "geometry": { "type": "MultiPolygon", "coordinates": [ [ [ [ 43.1310316, 36.3389424 ], [ 43.1311543, 36.339023 ], [ 43.1310596, 36.3391141 ], [ 43.1309509, 36.33903 ], [ 43.1310316, 36.3389424 ] ] ] ] } },
{ "type": "Feature", "properties": { "id": 12, "Building N": "جامع الامام ابراهيم" }, "geometry": { "type": "MultiPolygon", "coordinates": [ [ [ [ 43.1297372, 36.3457938 ], [ 43.1298043, 36.3456809 ], [ 43.1300904, 36.3457894 ], [ 43.1301397, 36.3457762 ], [ 43.1303206, 36.345842 ], [ 43.1302186, 36.3460295 ], [ 43.1300838, 36.3459505 ], [ 43.1300246, 36.3459768 ], [ 43.1299391, 36.3459341 ], [ 43.1299391, 36.3458979 ], [ 43.1297372, 36.3457938 ] ] ] ] } },
{ "type": "Feature", "properties": { "id": null, "Building N": "قلعة قره سراي" }, "geometry": { "type": "MultiPolygon", "coordinates": [ [ [ [ 43.1259835, 36.3528545 ], [ 43.1259415, 36.3527902 ], [ 43.1259513, 36.3527828 ], [ 43.125981, 36.3527606 ], [ 43.1260032, 36.3527853 ], [ 43.1260329, 36.3527705 ], [ 43.1260106, 36.3527433 ], [ 43.1260428, 36.3527186 ], [ 43.1260699, 36.3527433 ], [ 43.1261119, 36.3527211 ], [ 43.1260848, 36.3526914 ], [ 43.1261292, 36.3526642 ], [ 43.1261737, 36.3527013 ], [ 43.1259835, 36.3528545 ] ] ] ] } },
{ "type": "Feature", "properties": { "id": null, "Building N": "كنيسة مار اشعيا" }, "geometry": { "type": "MultiPolygon", "coordinates": [ [ [ [ 43.1290534, 36.3485358 ], [ 43.1291201, 36.3484342 ], [ 43.1292517, 36.3482842 ], [ 43.1294117, 36.3484058 ], [ 43.1291367, 36.3487124 ], [ 43.1290534, 36.3485358 ] ] ] ] } },
{ "type": "Feature", "properties": { "id": 1, "Building N": "قصر الحكم والقشلة العسكرية" }, "geometry": { "type": "MultiPolygon", "coordinates": [ [ [ [ 43.1405749, 36.3366911 ], [ 43.1416838, 36.3369146 ], [ 43.1415632, 36.3374999 ], [ 43.1422427, 36.3377852 ], [ 43.142278, 36.3377205 ], [ 43.1425044, 36.337847 ], [ 43.1422074, 36.3382676 ], [ 43.1422632, 36.3382823 ], [ 43.1421779, 36.3383911 ], [ 43.1419309, 36.3382235 ], [ 43.1419544, 36.3381911 ], [ 43.1418015, 36.3381 ], [ 43.1418132, 36.3380794 ], [ 43.141372, 36.3378882 ], [ 43.1403896, 36.3376852 ], [ 43.1405749, 36.3366911 ] ] ] ] } },
{ "type": "Feature", "properties": { "id": null, "Building N": "قصر امين بك الجليلي" }, "geometry": { "type": "MultiPolygon", "coordinates": [ [ [ [ 43.1291887, 36.3395689 ], [ 43.1289894, 36.3392734 ], [ 43.1288577, 36.3393197 ], [ 43.1286975, 36.3390848 ], [ 43.1286691, 36.339099 ], [ 43.128629, 36.3389857 ], [ 43.1285982, 36.3389857 ], [ 43.1285771, 36.3388933 ], [ 43.1286063, 36.3388917 ], [ 43.1285949, 36.3388333 ], [ 43.1294894, 36.3387037 ], [ 43.1294959, 36.3387361 ], [ 43.1293387, 36.3388155 ], [ 43.1294765, 36.3389646 ], [ 43.1294603, 36.3389792 ], [ 43.1296307, 36.3391833 ], [ 43.1296441, 36.3392872 ], [ 43.1295754, 36.3393509 ], [ 43.1295637, 36.3393777 ], [ 43.1293006, 36.3395335 ], [ 43.1291973, 36.3395829 ], [ 43.1291887, 36.3395689 ] ] ] ] } },
{ "type": "Feature", "properties": { "id": null, "Building N": "حمام عبيد اغا الجليلي" }, "geometry": { "type": "MultiPolygon", "coordinates": [ [ [ [ 43.1288089, 36.3375813 ], [ 43.1289781, 36.3374752 ], [ 43.1291025, 36.3375466 ], [ 43.1293859, 36.3378117 ], [ 43.1293798, 36.3379177 ], [ 43.1289251, 36.3378504 ], [ 43.1288986, 36.3378545 ], [ 43.1288803, 36.3378382 ], [ 43.1289761, 36.3377342 ], [ 43.1289618, 36.3377199 ], [ 43.1289822, 36.3376995 ], [ 43.1288089, 36.3375813 ] ] ] ] } }
]
}
