{
  "type": "FeatureCollection",
  "name": "1906_Photos",
  "features": [
    {
      "type": "Feature",
      "properties": {
        "id": 1,
        "Photos": "Old Photos/Congress Library 1932/1934-Al-Nouri Mosque.jpg",
        "Descriptio": null
      },
      "geometry": {
        "type": "Point",
        "coordinates": [
          43.1269628,
          36.3425919
        ]
      }
    },
    {
      "type": "Feature",
      "properties": {
        "id": 2,
        "Photos": "Old Photos/Gertrude Bell Archive 1909/View of Mosul from across water, bridge of boats in foreground.jpg",
        "Descriptio": "\u0635\u0648\u0631\u0629 \u0645\u0646 \u0639\u0644\u0649 \u062c\u0633\u0631 \u0627\u0644\u0642\u0648\u0627\u0631\u0628 \u0628\u0623\u062a\u062c\u0627\u0647 \u0627\u0644\u0648\u0627\u062c\u0647\u0629 \u0627\u0644\u0646\u0647\u0631\u064a\u0629"
      },
      "geometry": {
        "type": "Point",
        "coordinates": [
          43.1385717,
          36.3450129
        ]
      }
    },
    {
      "type": "Feature",
      "properties": {
        "id": 3,
        "Photos": "Old Photos/Gertrude Bell Archive 1909/Tomb of Imam Yahya Abu al-Qasim - Exterior Showing Pyramidal Dome.jpg",
        "Descriptio": "\u0635\u0648\u0631\u0629 \u0644\u0636\u0631\u064a\u062d \u0627\u0644\u0627\u0645\u0627\u0645 \u064a\u062d\u064a\u0649 \u0627\u0628\u0646 \u0627\u0644\u0642\u0627\u0633\u0645"
      },
      "geometry": {
        "type": "Point",
        "coordinates": [
          43.1223501,
          36.3546907
        ]
      }
    },
    {
      "type": "Feature",
      "properties": {
        "id": 4,
        "Photos": "Old Photos/Gertrude Bell Archive 1909/View Over Mosul And Tigris, Showing Funerary Monuments To Left Of Photograph. Tomb At Extreme Left Of Photograph Is The Tomb of Imam Yahya Abu al-Qasim.jpg",
        "Descriptio": "\u0635\u0648\u0631\u0629 \u0644\u0645\u062f\u064a\u0646\u0629 \u0627\u0644\u0645\u0648\u0635\u0644 \u0645\u0646 \u0623\u0639\u0644\u0649 \u0642\u0644\u0639\u0629 \u0628\u0627\u0634\u0637\u0627\u0628\u064a\u0627"
      },
      "geometry": {
        "type": "Point",
        "coordinates": [
          43.1216605,
          36.355132
        ]
      }
    },
    {
      "type": "Feature",
      "properties": {
        "id": 5,
        "Photos": "Old Photos/Deutschlands Kulturerbe digital 1906/Yazidi church near Mosul..jpg",
        "Descriptio": "\u0635\u0648\u0631\u0629 \u0644\u0645\u0631\u0642\u062f \u0648\u062c\u0627\u0645\u0639 \u0627\u0644\u0646\u0628\u064a \u062c\u0631\u062c\u064a\u0633"
      },
      "geometry": {
        "type": "Point",
        "coordinates": [
          43.1363842,
          36.3336693
        ]
      }
    },
    {
      "type": "Feature",
      "properties": {
        "id": 6,
        "Photos": "Old Photos/Gertrude Bell Archive 1909/Mar Tuma (the Church of St. Thomas the Apostle) - View Of Exterior And Cemetery.jpg",
        "Descriptio": "\u0635\u0648\u0631\u0629 \u062f\u0627\u062e\u0644 \u0643\u0646\u064a\u0633\u0629 \u0645\u0627\u0631\u062a\u0648\u0645\u0627"
      },
      "geometry": {
        "type": "Point",
        "coordinates": [
          43.1250659,
          36.3411786
        ]
      }
    }
  ]
}