{
"type": "FeatureCollection",
"name": "1919_Heritage_Buidlings",
"features": [
{ "type": "Feature", "properties": { "id": 1, "Building N": "الجامع النوري" }, "geometry": { "type": "MultiPolygon", "coordinates": [ [ [ [ 43.1261369, 36.3427651 ], [ 43.1264149, 36.3427716 ], [ 43.1269579, 36.3426746 ], [ 43.1270556, 36.3434373 ], [ 43.1270436, 36.3435002 ], [ 43.1265524, 36.3436529 ], [ 43.1263577, 36.343617 ], [ 43.1262469, 36.3435481 ], [ 43.1261369, 36.3427651 ] ] ] ] } },
{ "type": "Feature", "properties": { "id": 2, "Building N": "جامع النبي جرجيس" }, "geometry": { "type": "MultiPolygon", "coordinates": [ [ [ [ 43.1297466, 36.3442583 ], [ 43.1308839, 36.3442552 ], [ 43.1310245, 36.3442705 ], [ 43.1306087, 36.3446802 ], [ 43.1304131, 36.3447016 ], [ 43.1297099, 36.3445671 ], [ 43.1296488, 36.3445029 ], [ 43.1297496, 36.3443653 ], [ 43.1297466, 36.3442583 ] ] ] ] } },
{ "type": "Feature", "properties": { "id": 3, "Building N": "كنيسة الطاهرة" }, "geometry": { "type": "MultiPolygon", "coordinates": [ [ [ [ 43.1322257, 36.3444289 ], [ 43.1327273, 36.3445602 ], [ 43.1326094, 36.3449036 ], [ 43.132091, 36.3447959 ], [ 43.1322257, 36.3444289 ] ] ] ] } },
{ "type": "Feature", "properties": { "id": 4, "Building N": "كنيسة الساعة" }, "geometry": { "type": "MultiPolygon", "coordinates": [ [ [ [ 43.1268164, 36.3408019 ], [ 43.1269044, 36.3406134 ], [ 43.1272271, 36.3406972 ], [ 43.1271181, 36.3408229 ], [ 43.1269086, 36.3408313 ], [ 43.1268164, 36.3408019 ] ] ] ] } },
{ "type": "Feature", "properties": { "id": 5, "Building N": "جامع الرابعية" }, "geometry": { "type": "MultiPolygon", "coordinates": [ [ [ [ 43.1283613, 36.3397562 ], [ 43.1281829, 36.3394456 ], [ 43.1285233, 36.3392836 ], [ 43.1286654, 36.3397199 ], [ 43.1283613, 36.3397562 ] ] ] ] } },
{ "type": "Feature", "properties": { "id": 6, "Building N": "قلعة باشطابيا" }, "geometry": { "type": "MultiPolygon", "coordinates": [ [ [ [ 43.1206779, 36.3549087 ], [ 43.1211743, 36.3546689 ], [ 43.1213639, 36.3549255 ], [ 43.1213193, 36.3551374 ], [ 43.1211408, 36.355221 ], [ 43.1208062, 36.355076 ], [ 43.1206779, 36.3549087 ] ] ] ] } },
{ "type": "Feature", "properties": { "id": 7, "Building N": "مرقد الامام يحيى ابو القاسم" }, "geometry": { "type": "MultiPolygon", "coordinates": [ [ [ [ 43.1223845, 36.3542562 ], [ 43.1221447, 36.3541391 ], [ 43.1223733, 36.3538881 ], [ 43.1227135, 36.3540778 ], [ 43.1223845, 36.3542562 ] ] ] ] } },
{ "type": "Feature", "properties": { "id": 8, "Building N": "قره سراي" }, "geometry": { "type": "MultiPolygon", "coordinates": [ [ [ [ 43.1241592, 36.3527408 ], [ 43.1239534, 36.3523743 ], [ 43.1245514, 36.3521814 ], [ 43.1247251, 36.3525351 ], [ 43.1241592, 36.3527408 ] ] ] ] } },
{ "type": "Feature", "properties": { "id": 9, "Building N": "كنيسة الطاهرة الخارجية" }, "geometry": { "type": "MultiPolygon", "coordinates": [ [ [ [ 43.1227573, 36.3529466 ], [ 43.1230209, 36.3528116 ], [ 43.1232524, 36.3530302 ], [ 43.123111, 36.3532039 ], [ 43.1227573, 36.3529466 ] ] ] ] } },
{ "type": "Feature", "properties": { "id": 9, "Building N": "مرقد الامام محسن" }, "geometry": { "type": "MultiPolygon", "coordinates": [ [ [ [ 43.1218827, 36.3529981 ], [ 43.1217412, 36.3527151 ], [ 43.121902, 36.3526187 ], [ 43.1218634, 36.3525672 ], [ 43.1221078, 36.3524193 ], [ 43.1222814, 36.3525801 ], [ 43.12241, 36.3525158 ], [ 43.1225901, 36.3527087 ], [ 43.1218827, 36.3529981 ] ] ] ] } },
{ "type": "Feature", "properties": { "id": 10, "Building N": "كنيسة الطاهرة الخارجية" }, "geometry": { "type": "MultiPolygon", "coordinates": [ [ [ [ 43.1200342, 36.3527985 ], [ 43.1199558, 36.3524012 ], [ 43.1201765, 36.352362 ], [ 43.1202451, 36.3525238 ], [ 43.1203481, 36.3526562 ], [ 43.1202648, 36.3527887 ], [ 43.1200342, 36.3527985 ] ] ] ] } },
{ "type": "Feature", "properties": { "id": 11, "Building N": "كنيسة مار يوحنا" }, "geometry": { "type": "MultiPolygon", "coordinates": [ [ [ [ 43.1288112, 36.3483111 ], [ 43.1289519, 36.3482242 ], [ 43.1290822, 36.3483632 ], [ 43.1291639, 36.3483649 ], [ 43.1291882, 36.3484118 ], [ 43.1291812, 36.34849 ], [ 43.1292004, 36.3485647 ], [ 43.1289936, 36.3487454 ], [ 43.1289363, 36.3487106 ], [ 43.1290266, 36.3486046 ], [ 43.1288112, 36.3483111 ] ] ] ] } },
{ "type": "Feature", "properties": { "id": 12, "Building N": "جامع الامام ابراهيم" }, "geometry": { "type": "MultiPolygon", "coordinates": [ [ [ [ 43.129452, 36.3456038 ], [ 43.1295191, 36.3454908 ], [ 43.1298052, 36.3455993 ], [ 43.1298546, 36.3455861 ], [ 43.1300354, 36.3456519 ], [ 43.1299335, 36.3458394 ], [ 43.1297987, 36.3457604 ], [ 43.1297395, 36.3457867 ], [ 43.129654, 36.345744 ], [ 43.129654, 36.3457078 ], [ 43.129452, 36.3456038 ] ] ] ] } },
{ "type": "Feature", "properties": { "id": 13, "Building N": "جامع المصفي" }, "geometry": { "type": "MultiPolygon", "coordinates": [ [ [ [ 43.1320047, 36.3464087 ], [ 43.1320493, 36.3463004 ], [ 43.1323042, 36.3463035 ], [ 43.1323742, 36.3463354 ], [ 43.1323774, 36.3465265 ], [ 43.1322181, 36.3464501 ], [ 43.1320047, 36.3464087 ] ] ] ] } },
{ "type": "Feature", "properties": { "id": 13, "Building N": "جامع الاغوات" }, "geometry": { "type": "MultiPolygon", "coordinates": [ [ [ [ 43.1360341, 36.34489 ], [ 43.1357787, 36.3447601 ], [ 43.1360124, 36.3447645 ], [ 43.1362375, 36.3447039 ], [ 43.1364971, 36.3445048 ], [ 43.1367438, 36.344336 ], [ 43.1368693, 36.3444096 ], [ 43.1367914, 36.3444875 ], [ 43.1370381, 36.3446909 ], [ 43.1368347, 36.3448294 ], [ 43.136086, 36.3448207 ], [ 43.1360341, 36.34489 ] ] ] ] } },
{ "type": "Feature", "properties": { "id": 14, "Building N": "خان الكمرك" }, "geometry": { "type": "MultiPolygon", "coordinates": [ [ [ [ 43.1358307, 36.3445308 ], [ 43.1360947, 36.3443014 ], [ 43.1364842, 36.3444788 ], [ 43.1364668, 36.3445005 ], [ 43.1362331, 36.3446909 ], [ 43.1361466, 36.3446693 ], [ 43.1358307, 36.3445308 ] ] ] ] } },
{ "type": "Feature", "properties": { "id": 15, "Building N": "جامع الباشا" }, "geometry": { "type": "MultiPolygon", "coordinates": [ [ [ [ 43.1355057, 36.3432495 ], [ 43.1358145, 36.3429326 ], [ 43.1359093, 36.342938 ], [ 43.1362533, 36.3432577 ], [ 43.1361964, 36.3433254 ], [ 43.1358443, 36.3435692 ], [ 43.1355057, 36.3432495 ] ] ] ] } },
{ "type": "Feature", "properties": { "id": 16, "Building N": "قصر الحكم" }, "geometry": { "type": "MultiPolygon", "coordinates": [ [ [ [ 43.1406382, 36.3378621 ], [ 43.1407725, 36.336964 ], [ 43.1413012, 36.3370144 ], [ 43.1413516, 36.3369472 ], [ 43.1422581, 36.3370312 ], [ 43.1422917, 36.3369388 ], [ 43.1425602, 36.3368465 ], [ 43.1438444, 36.3368381 ], [ 43.1425854, 36.3384329 ], [ 43.142149, 36.3381307 ], [ 43.1406382, 36.3378621 ] ] ] ] } },
{ "type": "Feature", "properties": { "id": 17, "Building N": "القشلة" }, "geometry": { "type": "MultiPolygon", "coordinates": [ [ [ [ 43.142577, 36.3367878 ], [ 43.1425519, 36.3359988 ], [ 43.143601, 36.3359988 ], [ 43.1441634, 36.3360659 ], [ 43.1441802, 36.3364017 ], [ 43.14392, 36.3366031 ], [ 43.1439116, 36.3367206 ], [ 43.1438109, 36.3367374 ], [ 43.142577, 36.3367878 ] ] ] ] } },
{ "type": "Feature", "properties": { "id": 18, "Building N": "الاعدادية الشرقية" }, "geometry": { "type": "MultiPolygon", "coordinates": [ [ [ [ 43.1390424, 36.3394469 ], [ 43.1393554, 36.339186 ], [ 43.1397205, 36.3394664 ], [ 43.1393293, 36.3397272 ], [ 43.1390424, 36.3394469 ] ] ] ] } },
{ "type": "Feature", "properties": { "id": 19, "Building N": "جامع النبي شيت" }, "geometry": { "type": "MultiPolygon", "coordinates": [ [ [ [ 43.135159, 36.3354027 ], [ 43.1351988, 36.3349499 ], [ 43.1356913, 36.3349748 ], [ 43.1356764, 36.3354275 ], [ 43.135159, 36.3354027 ] ] ] ] } },
{ "type": "Feature", "properties": { "id": 20, "Building N": "مرقد الامام عون الدين" }, "geometry": { "type": "MultiPolygon", "coordinates": [ [ [ [ 43.1307441, 36.3391331 ], [ 43.1314771, 36.3390454 ], [ 43.1314646, 36.3397471 ], [ 43.1312453, 36.339722 ], [ 43.1307692, 36.339296 ], [ 43.1307441, 36.3391331 ] ] ] ] } },
{ "type": "Feature", "properties": { "id": null, "Building N": "الجامع المجاهدي" }, "geometry": { "type": "MultiPolygon", "coordinates": [ [ [ [ 43.1405502, 36.3403875 ], [ 43.1403239, 36.3403851 ], [ 43.1403263, 36.3402975 ], [ 43.1402558, 36.3402975 ], [ 43.1402752, 36.3402318 ], [ 43.1403799, 36.3402196 ], [ 43.1404018, 36.3400663 ], [ 43.1408691, 36.3401223 ], [ 43.1410102, 36.3401442 ], [ 43.1407961, 36.3403924 ], [ 43.1405502, 36.3403875 ] ] ] ] } },
{ "type": "Feature", "properties": { "id": 10, "Building N": "خان الكمرك" }, "geometry": { "type": "MultiPolygon", "coordinates": [ [ [ [ 43.1358387, 36.3445472 ], [ 43.1358603, 36.3445011 ], [ 43.1359002, 36.3444703 ], [ 43.1361308, 36.3442398 ], [ 43.1363398, 36.3443566 ], [ 43.1364013, 36.3443197 ], [ 43.1365795, 36.3444457 ], [ 43.1363213, 36.3446855 ], [ 43.136266, 36.3447162 ], [ 43.1362291, 36.3447162 ], [ 43.1361646, 36.3446855 ], [ 43.1359678, 36.3445994 ], [ 43.1358387, 36.3445472 ] ] ] ] } },
{ "type": "Feature", "properties": { "id": 11, "Building N": "حمام القلعة" }, "geometry": { "type": "MultiPolygon", "coordinates": [ [ [ [ 43.1342931, 36.3460656 ], [ 43.1343343, 36.3460037 ], [ 43.1343281, 36.3459686 ], [ 43.1343116, 36.3459129 ], [ 43.1343261, 36.3458696 ], [ 43.1343611, 36.345816 ], [ 43.1344375, 36.345717 ], [ 43.1344767, 36.3456778 ], [ 43.1347592, 36.3458634 ], [ 43.134753, 36.3459109 ], [ 43.1346169, 36.3460717 ], [ 43.1345262, 36.3461728 ], [ 43.1344684, 36.3462244 ], [ 43.1344189, 36.3462429 ], [ 43.1343694, 36.346245 ], [ 43.1343261, 36.3462244 ], [ 43.1342869, 36.3462099 ], [ 43.134256, 36.3461934 ], [ 43.1342126, 36.3461852 ], [ 43.1342931, 36.3460656 ] ] ] ] } },
{ "type": "Feature", "properties": { "id": 12, "Building N": "جامع شيخ الشط" }, "geometry": { "type": "MultiPolygon", "coordinates": [ [ [ [ 43.1312339, 36.348943 ], [ 43.1309785, 36.3491362 ], [ 43.1307951, 36.3492279 ], [ 43.130579, 36.3489692 ], [ 43.1306477, 36.3489004 ], [ 43.1308475, 36.3488022 ], [ 43.1310341, 36.3487105 ], [ 43.1311258, 36.3487858 ], [ 43.1311848, 36.3488284 ], [ 43.1312339, 36.348943 ] ] ] ] } },
{ "type": "Feature", "properties": { "id": 15, "Building N": "البارود خانة" }, "geometry": { "type": "MultiPolygon", "coordinates": [ [ [ [ 43.1177557, 36.3493115 ], [ 43.1177277, 36.3492755 ], [ 43.1177038, 36.3492216 ], [ 43.1176438, 36.3490997 ], [ 43.1177297, 36.3490738 ], [ 43.1178516, 36.3490438 ], [ 43.1179155, 36.3492316 ], [ 43.1179175, 36.3492815 ], [ 43.1178876, 36.3492835 ], [ 43.1178416, 36.3492855 ], [ 43.1178057, 36.3493035 ], [ 43.1177557, 36.3493115 ] ] ] ] } },
{ "type": "Feature", "properties": { "id": 19, "Building N": "خان حمو القدو" }, "geometry": { "type": "MultiPolygon", "coordinates": [ [ [ [ 43.1352149, 36.3421821 ], [ 43.135382, 36.3425878 ], [ 43.134857, 36.342731 ], [ 43.1347734, 36.3427489 ], [ 43.1344811, 36.3424446 ], [ 43.1344692, 36.342373 ], [ 43.1352149, 36.3421821 ] ] ] ] } },
{ "type": "Feature", "properties": { "id": 20, "Building N": "جامع عبدال" }, "geometry": { "type": "MultiPolygon", "coordinates": [ [ [ [ 43.1343975, 36.3428511 ], [ 43.1346684, 36.3429011 ], [ 43.1348017, 36.3429552 ], [ 43.1347621, 36.3430677 ], [ 43.1347017, 36.3431573 ], [ 43.134683, 36.3431719 ], [ 43.1343704, 36.3431427 ], [ 43.1342559, 36.3431323 ], [ 43.1342517, 36.3430677 ], [ 43.1342788, 36.3430427 ], [ 43.1343496, 36.3429969 ], [ 43.1343725, 36.3429552 ], [ 43.134385, 36.3429115 ], [ 43.1343975, 36.3428511 ] ] ] ] } },
{ "type": "Feature", "properties": { "id": 21, "Building N": "جامع عمر الاسود" }, "geometry": { "type": "MultiPolygon", "coordinates": [ [ [ [ 43.1287373, 36.3378753 ], [ 43.1287571, 36.3380797 ], [ 43.1287043, 36.3381105 ], [ 43.128579, 36.3381875 ], [ 43.1284361, 36.3382886 ], [ 43.1282866, 36.3382007 ], [ 43.1283613, 36.3380138 ], [ 43.1284163, 36.3378994 ], [ 43.1284757, 36.3379016 ], [ 43.1287373, 36.3378753 ] ] ] ] } },
{ "type": "Feature", "properties": { "id": 1, "Building N": "كنيسة مارتوما" }, "geometry": { "type": "MultiPolygon", "coordinates": [ [ [ [ 43.1245959, 36.3407706 ], [ 43.124871, 36.3405152 ], [ 43.1252156, 36.3408078 ], [ 43.1249974, 36.3410309 ], [ 43.1245959, 36.3407706 ] ] ] ] } },
{ "type": "Feature", "properties": { "id": 1, "Building N": "كنيسة مارتوما للسريان الكاثوليك" }, "geometry": { "type": "MultiPolygon", "coordinates": [ [ [ [ 43.1248975, 36.3413056 ], [ 43.1251467, 36.3409958 ], [ 43.125351, 36.341144 ], [ 43.1253442, 36.3411642 ], [ 43.1253218, 36.3411754 ], [ 43.1251444, 36.3414762 ], [ 43.1248975, 36.3413056 ] ] ] ] } },
{ "type": "Feature", "properties": { "id": null, "Building N": "جامع الزيواني" }, "geometry": { "type": "MultiPolygon", "coordinates": [ [ [ [ 43.1248699, 36.3357909 ], [ 43.1250284, 36.3356671 ], [ 43.1251597, 36.3356398 ], [ 43.1252662, 36.3358182 ], [ 43.1253455, 36.3358033 ], [ 43.1252514, 36.3359395 ], [ 43.1248947, 36.3358603 ], [ 43.1248699, 36.3357909 ] ] ] ] } },
{ "type": "Feature", "properties": { "id": null, "Building N": "مرقد زيد بن علي" }, "geometry": { "type": "MultiPolygon", "coordinates": [ [ [ [ 43.126029, 36.3354265 ], [ 43.1262003, 36.3353763 ], [ 43.126256, 36.3355003 ], [ 43.126075, 36.3355448 ], [ 43.126029, 36.3354265 ] ] ] ] } },
{ "type": "Feature", "properties": { "id": null, "Building N": "مرقد الشيخ فتحي" }, "geometry": { "type": "MultiPolygon", "coordinates": [ [ [ [ 43.1182812, 36.3464846 ], [ 43.1183458, 36.3464539 ], [ 43.1183181, 36.3464047 ], [ 43.1184995, 36.3463401 ], [ 43.1185549, 36.3464508 ], [ 43.118521, 36.3464631 ], [ 43.1185272, 36.3464846 ], [ 43.118398, 36.3465277 ], [ 43.1183857, 36.3465092 ], [ 43.1182997, 36.3465369 ], [ 43.1182812, 36.3464846 ] ] ] ] } },
{ "type": "Feature", "properties": { "id": null, "Building N": "قصر امين بك الجليلي" }, "geometry": { "type": "MultiPolygon", "coordinates": [ [ [ [ 43.1290243, 36.3391247 ], [ 43.1292991, 36.3391126 ], [ 43.129423, 36.3393633 ], [ 43.1295438, 36.3393149 ], [ 43.1295679, 36.3393542 ], [ 43.1296374, 36.3394569 ], [ 43.1296525, 36.3395294 ], [ 43.1296464, 36.3395898 ], [ 43.1296193, 36.3396683 ], [ 43.129284, 36.3398374 ], [ 43.1290515, 36.3394508 ], [ 43.1291693, 36.3394237 ], [ 43.1290243, 36.3391247 ] ] ] ] } },
{ "type": "Feature", "properties": { "id": 3, "Building N": "بيت التتنجي" }, "geometry": { "type": "MultiPolygon", "coordinates": [ [ [ [ 43.1307366, 36.341711 ], [ 43.1305053, 36.3415434 ], [ 43.1306619, 36.3414068 ], [ 43.1306328, 36.3413722 ], [ 43.1307056, 36.3413248 ], [ 43.1309643, 36.3415598 ], [ 43.1307366, 36.341711 ] ] ] ] } },
{ "type": "Feature", "properties": { "id": 4, "Building N": "جامع القطانين" }, "geometry": { "type": "MultiPolygon", "coordinates": [ [ [ [ 43.130429, 36.3410288 ], [ 43.1305829, 36.3411827 ], [ 43.1303816, 36.3413336 ], [ 43.1303225, 36.3413218 ], [ 43.1301952, 36.3411738 ], [ 43.130429, 36.3410288 ] ] ] ] } },
{ "type": "Feature", "properties": { "id": 7, "Building N": "بيت سليمان الصائغ" }, "geometry": { "type": "MultiPolygon", "coordinates": [ [ [ [ 43.1329689, 36.3450302 ], [ 43.1328376, 36.3449985 ], [ 43.1328386, 36.3449901 ], [ 43.1328394, 36.3449822 ], [ 43.1328448, 36.3449623 ], [ 43.132853, 36.3449378 ], [ 43.1328593, 36.3449106 ], [ 43.1330063, 36.3449507 ], [ 43.1329689, 36.3450302 ] ] ] ] } }
]
}
