{
  "type": "FeatureCollection",
  "name": "1919_Photos",
  "features": [
    {
      "type": "Feature",
      "properties": {
        "id": 1,
        "Photo": "Old Photos/Sultan Abdulhamid II 1842-1919/90478---0031.jpg",
        "Descriptio": "\u0635\u0648\u0631\u0629 \u064a\u0638\u0647\u0631 \u0641\u064a\u0647\u0627 \u0627\u0644\u062c\u0627\u0645\u0639 \u0627\u0644\u0646\u0648\u0631\u064a \u0645\u0639 \u0645\u0646\u0627\u0631\u0629 \u0627\u0644\u062d\u062f\u0628\u0627\u0621"
      },
      "geometry": {
        "type": "Point",
        "coordinates": [
          43.1266624,
          36.342611
        ]
      }
    },
    {
      "type": "Feature",
      "properties": {
        "id": 2,
        "Photo": "Old Photos/Gallica/13 cartes postales de Mossoul, don El Banna en 1923/[13_cartes_postales_de_Mossoul_[...]_btv1b53194864z_page-0009.jpg",
        "Descriptio": "\u0635\u0648\u0631\u0629 \u0644\u0645\u0631\u0642\u062f \u0639\u0648\u0646 \u0627\u0644\u062f\u064a\u0646 \u0627\u0628\u0646 \u0627\u0644\u062d\u0633\u0646"
      },
      "geometry": {
        "type": "Point",
        "coordinates": [
          43.1311971,
          36.3392245
        ]
      }
    },
    {
      "type": "Feature",
      "properties": {
        "id": 3,
        "Photo": "Old Photos/Gallica/13 cartes postales de Mossoul, don El Banna en 1923/[13_cartes_postales_de_Mossoul_[...]_btv1b53194864z_page-0007.jpg",
        "Descriptio": "\u0635\u0648\u0631\u0629 \u0645\u0646 \u0627\u0644\u0636\u0641\u0629 \u0627\u0644\u064a\u0633\u0631\u0649 \u062a\u0638\u0647\u0631 \u0628\u0646\u0627\u0621 \u0627\u0644\u0628\u0644\u062f\u064a\u0629 \u0641\u0648\u0642 \u0627\u064a\u062c \u0642\u0644\u0639\u0629 \u0648\u062c\u0627\u0645\u0639 \u0627\u0644\u0627\u063a\u0648\u0627\u062a"
      },
      "geometry": {
        "type": "Point",
        "coordinates": [
          43.1387677,
          36.3466294
        ]
      }
    },
    {
      "type": "Feature",
      "properties": {
        "id": 4,
        "Photo": "Old Photos/Gallica/13 cartes postales de Mossoul, don El Banna en 1923/[13_cartes_postales_de_Mossoul_[...]_btv1b53194864z_page-0008.jpg",
        "Descriptio": "\u0635\u0648\u0631\u0629 \u0641\u064a \u0634\u0627\u0631\u0639 \u0646\u064a\u0646\u0648\u0649"
      },
      "geometry": {
        "type": "Point",
        "coordinates": [
          43.1336145,
          36.3438426
        ]
      }
    },
    {
      "type": "Feature",
      "properties": {
        "id": 6,
        "Photo": "Old Photos/Gallica/13 cartes postales de Mossoul, don El Banna en 1923/[13_cartes_postales_de_Mossoul_[...]_btv1b53194864z_page-0005.jpg",
        "Descriptio": "\u0635\u0648\u0631\u0629 \u0645\u0646 \u0627\u0644\u0636\u0641\u0629 \u0627\u0644\u064a\u0633\u0631\u0649 \u064a\u0638\u0647\u0631 \u0641\u064a\u0647\u0627 \u062c\u0632\u0621 \u0645\u0646 \u062c\u0633\u0631 \u0627\u0644\u0632\u0648\u0627\u0631\u0642 \u0648\u062c\u0632\u0621 \u0645\u0646 \u0627\u0644\u0648\u0627\u062c\u0647\u0629 \u0627\u0644\u0646\u0647\u0631\u064a\u0629"
      },
      "geometry": {
        "type": "Point",
        "coordinates": [
          43.1403377,
          36.3458275
        ]
      }
    },
    {
      "type": "Feature",
      "properties": {
        "id": null,
        "Photo": "Old Photos/Gallica/13 cartes postales de Mossoul, don El Banna en 1923/[13_cartes_postales_de_Mossoul_[...]_btv1b53194864z_page-0004.jpg",
        "Descriptio": "\u0635\u0648\u0631\u0629 \u062a\u0638\u0647\u0631 \u0627\u0644\u062c\u0632\u0621 \u062e\u0627\u0631\u062c \u0633\u0648\u0631 \u0627\u0644\u0645\u0648\u0635\u0644 \u0627\u0644\u0642\u062f\u064a\u0645 \u0648\u064a\u0638\u0647\u0631 \u0641\u064a\u0647\u0627 \u0627\u0644\u062c\u0627\u0645\u0639 \u0627\u0644\u0645\u062c\u0627\u0647\u062f\u064a"
      },
      "geometry": {
        "type": "Point",
        "coordinates": [
          43.140299,
          36.3438129
        ]
      }
    },
    {
      "type": "Feature",
      "properties": {
        "id": null,
        "Photo": "Old Photos/Gallica/f1-12.jpg",
        "Descriptio": "\u0635\u0648\u0631\u0629 \u0645\u0642\u0644\u0648\u0628\u0629 \u062a\u0638\u0647\u0631 \u0645\u0631\u0642\u062f \u064a\u062d\u064a\u0649 \u0627\u0628\u0646 \u0627\u0644\u0642\u0627\u0633\u0645 \u0648\u0642\u0644\u0639\u0629 \u0628\u0627\u0634\u0637\u0627\u0628\u064a\u0627"
      },
      "geometry": {
        "type": "Point",
        "coordinates": [
          43.12373,
          36.3532689
        ]
      }
    },
    {
      "type": "Feature",
      "properties": {
        "id": null,
        "Photo": "Old Photos/Gallica/f1.jpg",
        "Descriptio": "\u0635\u0648\u0631\u0629 \u0645\u0642\u0644\u0648\u0628\u0629 \u0645\u0646 \u0627\u0639\u0644\u0649 \u0642\u0644\u0639\u0629 \u0628\u0627\u0634\u0637\u0627\u0628\u064a\u0627 \u0628\u0627\u062a\u062c\u0627\u0647 \u0645\u0631\u0642\u062f \u064a\u062d\u064a\u0649 \u0627\u0628\u0646 \u0627\u0644\u0642\u0627\u0633\u0645"
      },
      "geometry": {
        "type": "Point",
        "coordinates": [
          43.1213377,
          36.3548702
        ]
      }
    },
    {
      "type": "Feature",
      "properties": {
        "id": null,
        "Photo": "Old Photos/Gallica/f1-5.jpg",
        "Descriptio": "\u0635\u0648\u0631\u0629 \u0645\u0642\u0644\u0648\u0628\u0629 \u0644\u0645\u0631\u0642\u062f \u0648\u062c\u0627\u0645\u0639 \u0627\u0644\u0646\u0628\u064a \u0634\u064a\u062a \u0648\u0627\u0644\u0645\u0642\u0628\u0631\u0629 \u0627\u0644\u062a\u064a \u0643\u0627\u0646\u062a \u062d\u0648\u0644\u0647"
      },
      "geometry": {
        "type": "Point",
        "coordinates": [
          43.1351974,
          36.3348072
        ]
      }
    },
    {
      "type": "Feature",
      "properties": {
        "id": null,
        "Photo": "Old Photos/Gallica/f1-14.jpg",
        "Descriptio": "\u0635\u0648\u0631\u0629 \u0645\u0642\u0644\u0648\u0628\u0629 \u0644\u0644\u0648\u0627\u062c\u0647\u0629 \u0627\u0644\u0646\u0647\u0631\u064a\u0629 \u0648\u062a\u0638\u0647\u0631 \u0641\u064a \u0627\u0644\u0635\u0648\u0631\u0629 \u0642\u0628\u0629 \u062c\u0627\u0645\u0639 \u0634\u064a\u062e \u0627\u0644\u0634\u0637 \u0648 \u0642\u0644\u0639\u0629 \u0628\u0627\u0634\u0637\u0627\u0628\u064a\u0627"
      },
      "geometry": {
        "type": "Point",
        "coordinates": [
          43.1393003,
          36.3449961
        ]
      }
    },
    {
      "type": "Feature",
      "properties": {
        "id": null,
        "Photo": "Old Photos/Gallica/f1-6.jpg",
        "Descriptio": "\u0635\u0648\u0631\u0629 \u0645\u0642\u0644\u0648\u0628\u0629 \u0644\u0645\u0631\u0642\u062f \u0648\u062c\u0627\u0645\u0639 \u0627\u0644\u0646\u0628\u064a \u0634\u064a\u062a \u0648\u0627\u0644\u0645\u0642\u0628\u0631\u0629 \u0627\u0644\u062a\u064a \u062d\u0648\u0644\u0647"
      },
      "geometry": {
        "type": "Point",
        "coordinates": [
          43.1357589,
          36.3347632
        ]
      }
    },
    {
      "type": "Feature",
      "properties": {
        "id": null,
        "Photo": "Old Photos/Gallica/f1-11.jpg",
        "Descriptio": "\u0635\u0648\u0631\u0629 \u0645\u0642\u0644\u0648\u0628\u0629 \u0644\u0642\u0644\u0639\u0629 \u0642\u0631\u0647 \u0633\u0631\u0627\u064a"
      },
      "geometry": {
        "type": "Point",
        "coordinates": [
          43.124372,
          36.3517976
        ]
      }
    },
    {
      "type": "Feature",
      "properties": {
        "id": null,
        "Photo": "Old Photos/Mosul __ \u56fd __ \u6771\u6587\u7814\u30a2\u30fc\u30ab\u30a4\u30d6\u30c7\u30fc\u30bf\u30d9\u30fc\u30b9/imgi_19_08_011.jpg",
        "Descriptio": "\u0635\u0648\u0631\u0629 \u0644\u0645\u0646\u0627\u0631\u0629 \u0627\u0644\u062d\u062f\u0628\u0627\u0621"
      },
      "geometry": {
        "type": "Point",
        "coordinates": [
          43.1264452,
          36.3432641
        ]
      }
    },
    {
      "type": "Feature",
      "properties": {
        "id": null,
        "Photo": "Old Photos/Mosul __ \u56fd __ \u6771\u6587\u7814\u30a2\u30fc\u30ab\u30a4\u30d6\u30c7\u30fc\u30bf\u30d9\u30fc\u30b9/16_030.jpeg",
        "Descriptio": "\u0635\u0648\u0631\u0629 \u0645\u0646 \u062e\u0627\u0631\u062c \u0627\u0644\u062c\u0627\u0645\u0639 \u0627\u0644\u0646\u0648\u0631\u064a \u062a\u0648\u0636\u062d \u0634\u0643\u0644 \u0627\u0644\u062c\u0627\u0645\u0639 \u0648\u0627\u0644\u0642\u0628\u0629 \u0645\u0639 \u0627\u0644\u0645\u0646\u0627\u0631\u0629 \u0627\u0644\u062d\u062f\u0628\u0627\u0621"
      },
      "geometry": {
        "type": "Point",
        "coordinates": [
          43.1270687,
          36.342617
        ]
      }
    },
    {
      "type": "Feature",
      "properties": {
        "id": null,
        "Photo": "Old Photos/Mosul __ \u56fd __ \u6771\u6587\u7814\u30a2\u30fc\u30ab\u30a4\u30d6\u30c7\u30fc\u30bf\u30d9\u30fc\u30b9/imgi_11_07_050.jpg",
        "Descriptio": "\u0628\u0642\u0627\u064a\u0627 \u0627\u0637\u0644\u0627\u0644 \u0645\u0646\u0627\u0631\u0629 \u0627\u0644\u062c\u0627\u0645\u0639 \u0627\u0644\u0627\u0645\u0648\u064a"
      },
      "geometry": {
        "type": "Point",
        "coordinates": [
          43.1306804,
          36.3463301
        ]
      }
    },
    {
      "type": "Feature",
      "properties": {
        "id": null,
        "Photo": "Old Photos/Mosul __ \u56fd __ \u6771\u6587\u7814\u30a2\u30fc\u30ab\u30a4\u30d6\u30c7\u30fc\u30bf\u30d9\u30fc\u30b9/imgi_6_08_018.jpg",
        "Descriptio": "\u0635\u0648\u0631\u0629 \u062a\u0648\u0636\u062d \u0642\u0644\u0639\u0629 \u0628\u0627\u0634\u0637\u0627\u0628\u064a\u0627"
      },
      "geometry": {
        "type": "Point",
        "coordinates": [
          43.1219296,
          36.3545418
        ]
      }
    },
    {
      "type": "Feature",
      "properties": {
        "id": null,
        "Photo": "Old Photos/Mosul __ \u56fd __ \u6771\u6587\u7814\u30a2\u30fc\u30ab\u30a4\u30d6\u30c7\u30fc\u30bf\u30d9\u30fc\u30b9/imgi_7_08_019.jpg",
        "Descriptio": "\u0635\u0648\u0631\u0629 \u062a\u0648\u0636\u062d \u0642\u0644\u0639\u0629 \u0642\u0631\u0647 \u0633\u0631\u0627\u064a"
      },
      "geometry": {
        "type": "Point",
        "coordinates": [
          43.1239891,
          36.3530577
        ]
      }
    },
    {
      "type": "Feature",
      "properties": {
        "id": null,
        "Photo": "Old Photos/Mosul __ \u56fd __ \u6771\u6587\u7814\u30a2\u30fc\u30ab\u30a4\u30d6\u30c7\u30fc\u30bf\u30d9\u30fc\u30b9/imgi_3_08_015.jpg",
        "Descriptio": "\u0635\u0648\u0631\u0629 \u062a\u0648\u0636\u062d \u0642\u0644\u0639\u0629 \u0642\u0631\u0647 \u0633\u0631\u0627\u064a"
      },
      "geometry": {
        "type": "Point",
        "coordinates": [
          43.1240648,
          36.351816
        ]
      }
    },
    {
      "type": "Feature",
      "properties": {
        "id": null,
        "Photo": "Old Photos/Mosul __ \u56fd __ \u6771\u6587\u7814\u30a2\u30fc\u30ab\u30a4\u30d6\u30c7\u30fc\u30bf\u30d9\u30fc\u30b9/imgi_21_08_013.jpg",
        "Descriptio": "\u0635\u0648\u0631\u0629 \u0644\u0645\u0631\u0642\u062f \u0627\u0644\u0627\u0645\u0627\u0645 \u064a\u062d\u064a\u0649 \u0627\u0628\u0646 \u0627\u0644\u0642\u0627\u0633\u0645"
      },
      "geometry": {
        "type": "Point",
        "coordinates": [
          43.1232925,
          36.3536483
        ]
      }
    },
    {
      "type": "Feature",
      "properties": {
        "id": null,
        "Photo": "Old Photos/Mosul __ \u56fd __ \u6771\u6587\u7814\u30a2\u30fc\u30ab\u30a4\u30d6\u30c7\u30fc\u30bf\u30d9\u30fc\u30b9/16_024.jpeg",
        "Descriptio": "\u0635\u0648\u0631\u0629 \u062e\u0627\u0631\u062c \u0633\u0648\u0631 \u0627\u0644\u0645\u062f\u064a\u0646\u0629 \u064a\u0638\u0647\u0631 \u0641\u064a\u0647\u0627 \u0645\u0631\u0642\u062f \u0648\u062c\u0627\u0645\u0639 \u0627\u0644\u0646\u0628\u064a \u0634\u064a\u062a"
      },
      "geometry": {
        "type": "Point",
        "coordinates": [
          43.1351308,
          36.3357094
        ]
      }
    }
  ]
}