{
  "type": "FeatureCollection",
  "name": "1944_Photos",
  "features": [
    {
      "type": "Feature",
      "properties": {
        "id": 1,
        "Photos": "Old Photos/Congress Library 1932/1934-Al-Nouri Mosque.jpg",
        "Descriptio": "\u0635\u0648\u0631\u0629 \u0644\u0644\u062c\u0627\u0645\u0639 \u0627\u0644\u0646\u0648\u0631\u064a \u0648\u0627\u0644\u0645\u0646\u0627\u0631\u0629 \u0627\u0644\u062d\u062f\u0628\u0627\u0621"
      },
      "geometry": {
        "type": "Point",
        "coordinates": [
          43.1265907,
          36.3429542
        ]
      }
    },
    {
      "type": "Feature",
      "properties": {
        "id": 2,
        "Photos": "Old Photos/Congress Library 1932/Iraq. Mosul. General view with tall minaret in center of picture.jpg",
        "Descriptio": "\u0635\u0648\u0631\u0629 \u062a\u0638\u0647\u0631 \u0627\u0644\u062c\u0627\u0645\u0639 \u0627\u0644\u0646\u0648\u0631\u064a \u0648\u0627\u0644\u0645\u0646\u0627\u0631\u0629 \u0627\u0644\u062d\u062f\u0628\u0627\u0621 \u0645\u0646 \u0639\u0644\u0649 \u0633\u0637\u062d \u0627\u062d\u062f \u0627\u0644\u0645\u0628\u0627\u0646\u064a"
      },
      "geometry": {
        "type": "Point",
        "coordinates": [
          43.1285777,
          36.3430186
        ]
      }
    },
    {
      "type": "Feature",
      "properties": {
        "id": 3,
        "Photos": "Old Photos/Congress Library 1932/Iraq. Mosul. Sennacherib's castle. View from the castle looking south with the Tigris river at the left.jpg",
        "Descriptio": "\u0635\u0648\u0631\u0629 \u0645\u0646 \u0639\u0644\u0649 \u0642\u0644\u0639\u0629 \u0628\u0627\u0634\u0637\u0627\u0628\u064a\u0627  \u064a\u0638\u0647\u0631 \u0641\u064a\u0647\u0627 \u0645\u0631\u0642\u062f \u064a\u062d\u064a\u0649 \u0627\u0628\u0646 \u0627\u0644\u0642\u0627\u0633\u0645 \u0648\u0645\u062f\u064a\u0646\u0629 \u0627\u0644\u0645\u0648\u0635\u0644"
      },
      "geometry": {
        "type": "Point",
        "coordinates": [
          43.1233724,
          36.3539252
        ]
      }
    },
    {
      "type": "Feature",
      "properties": {
        "id": 4,
        "Photos": "Old Photos/Congress Library 1932/Iraq. Mosul. Sennacherib's castle. North side, showing a Yezidi shrine.jpg",
        "Descriptio": "\u0635\u0648\u0631\u0629 \u062a\u0638\u0647\u0631 \u0642\u0644\u0639\u0629 \u0628\u0627\u0634\u0637\u0627\u0628\u064a\u0627 \u0648\u0645\u0631\u0642\u062f \u0627\u0628\u0646 \u0627\u0644\u0642\u0627\u0633\u0645 \u0648\u0642\u0644\u0639\u0629 \u0642\u0631\u0647 \u0633\u0631\u0627\u064a"
      },
      "geometry": {
        "type": "Point",
        "coordinates": [
          43.122294,
          36.3549874
        ]
      }
    },
    {
      "type": "Feature",
      "properties": {
        "id": 5,
        "Photos": "Old Photos/Congress Library 1932/Iraq. Mosul. Sennacherib's castle. Closer view.jpg",
        "Descriptio": "\u0635\u0648\u0631\u0629 \u0644\u0642\u0644\u0639\u0629 \u0628\u0627\u0634\u0637\u0627\u0628\u064a\u0627"
      },
      "geometry": {
        "type": "Point",
        "coordinates": [
          43.1242492,
          36.3536389
        ]
      }
    },
    {
      "type": "Feature",
      "properties": {
        "id": 6,
        "Photos": "Old Photos/Congress Library 1932/service-pnp-matpc-16200-16202v.jpg",
        "Descriptio": "\u0635\u0648\u0631\u0629 \u0645\u0646 \u0639\u0644\u0649 \u0633\u0637\u062d \u0627\u062d\u062f \u0627\u0644\u0645\u0628\u0627\u0646\u064a \u0628\u0623\u062a\u062c\u0627\u0647 \u0646\u0647\u0631 \u062f\u062c\u0644\u0629"
      },
      "geometry": {
        "type": "Point",
        "coordinates": [
          43.1309767,
          36.3422432
        ]
      }
    },
    {
      "type": "Feature",
      "properties": {
        "id": 7,
        "Photos": "Old Photos/Congress Library 1932/service-pnp-matpc-16200-16203v.jpg",
        "Descriptio": "\u0635\u0648\u0631\u0629 \u0641\u064a \u0634\u0627\u0631\u0639 \u0646\u064a\u0646\u0648\u0649 \u0645\u0646 \u0639\u0644\u0649 \u0633\u0637\u062d \u0627\u062d\u062f \u0627\u0644\u0645\u0628\u0627\u0646\u064a \u0628\u0623\u062a\u062c\u0627\u0647 \u0643\u0646\u064a\u0633\u0629 \u0627\u0644\u0633\u0627\u0639\u0629"
      },
      "geometry": {
        "type": "Point",
        "coordinates": [
          43.1307372,
          36.3421035
        ]
      }
    },
    {
      "type": "Feature",
      "properties": {
        "id": 8,
        "Photos": "Old Photos/Congress Library 1932/service-pnp-pcrd-1b00000-1b07000-1b07900-1b07924v.jpg",
        "Descriptio": "\u0635\u0648\u0631\u0629 \u062a\u0638\u0647\u0631 \u0642\u0644\u0639\u0629 \u0642\u0631\u0647 \u0633\u0631\u0627\u064a"
      },
      "geometry": {
        "type": "Point",
        "coordinates": [
          43.1248118,
          36.3532149
        ]
      }
    }
  ]
}