{
  "type": "FeatureCollection",
  "name": "1980_Photos",
  "features": [
    {
      "type": "Feature",
      "properties": {
        "id": 1,
        "Photo": "Old Photos/Andre Raymond 1982/Fonds_Andr\u00e9_Raymond_(1925-2011)_-_Irak_-_Mossoul_-_Mosqu\u00e9e_al-B\u00e2sh\u00e2_(M\u00e9diHAL_4823882).jpg",
        "Descriptio": "\u0635\u0648\u0631\u0629 \u062a\u0638\u0647\u0631 \u062c\u0627\u0645\u0639 \u0627\u0644\u0628\u0627\u0634\u0627 \u0648\u0645\u0646\u0627\u0631\u062a\u0647 \u0645\u0623\u062e\u0648\u0630\u0629 \u0645\u0646 \u0633\u0637\u062d \u0627\u062d\u062f \u0627\u0644\u0627\u0628\u0646\u064a\u0629 \u0627\u0644\u0645\u062c\u0627\u0648\u0631\u0629 \u0644\u0644\u062c\u0627\u0645\u0639"
      },
      "geometry": {
        "type": "Point",
        "coordinates": [
          43.1353243,
          36.343776
        ]
      }
    },
    {
      "type": "Feature",
      "properties": {
        "id": 2,
        "Photo": "Old Photos/Andre Raymond 1982/Fonds_Andr\u00e9_Raymond_(1925-2011)_-_Irak_-_Mossoul_-_Mossoul_vu_du_nord_(M\u00e9diHAL_4732785).jpg",
        "Descriptio": "\u0635\u0648\u0631\u0629 \u0645\u0646 \u0627\u0639\u0644\u0649 \u0642\u0644\u0639\u0629 \u0628\u0627\u0634\u0637\u0627\u0628\u064a\u0627 \u062a\u0638\u0647\u0631 \u0645\u062f\u064a\u0646\u0629 \u0627\u0644\u0645\u0648\u0635\u0644 \u0648\u0627\u0644\u0645\u0646\u0627\u0631\u0629 \u0627\u0644\u062d\u062f\u0628\u0627\u0621"
      },
      "geometry": {
        "type": "Point",
        "coordinates": [
          43.1212986,
          36.3553547
        ]
      }
    },
    {
      "type": "Feature",
      "properties": {
        "id": 3,
        "Photo": "Old Photos/Andre Raymond 1982/Fonds_Andr\u00e9_Raymond_(1925-2011)_-_Irak_-_Mossoul_-_Mossoul_vu_du_nord_(M\u00e9diHAL_4722115).jpg",
        "Descriptio": "\u0635\u0648\u0631\u0629 \u0645\u0646 \u0627\u0639\u0644\u0649 \u0642\u0644\u0639\u0629 \u0628\u0627\u0634\u0637\u0627\u0628\u064a\u0627 \u0628\u0623\u062a\u062c\u0627\u0647 \u0645\u0631\u0642\u062f \u064a\u062d\u064a\u0649 \u0627\u0628\u0646 \u0627\u0644\u0642\u0627\u0633\u0645 \u064a\u0638\u0647\u0631 \u0641\u064a\u0647\u0627 \u0646\u0647\u0631 \u062f\u062c\u0644\u0629 \u0648\u0627\u0644\u062c\u0633\u0631 \u0627\u0644\u062d\u062f\u064a\u062f\u064a \u0648\u0645\u0646\u0642\u0637\u0629 \u0627\u0644\u0642\u0644\u064a\u0639\u0627\u062a \u0648\u062c\u0627\u0645\u0639 \u0634\u064a\u062e \u0627\u0644\u0634\u0637"
      },
      "geometry": {
        "type": "Point",
        "coordinates": [
          43.1214018,
          36.3555886
        ]
      }
    },
    {
      "type": "Feature",
      "properties": {
        "id": 4,
        "Photo": "Old Photos/Andre Raymond 1982/Fonds_Andr\u00e9_Raymond_(1925-2011)_-_Irak_-_Mossoul_-_Mossoul_vu_de_l'est_(M\u00e9diHAL_4721726).jpg",
        "Descriptio": "\u0635\u0648\u0631\u0629 \u062a\u0638\u0647\u0631 \u0641\u064a\u0647\u0627 \u0627\u0644\u0648\u0627\u062c\u0647\u0629 \u0627\u0644\u0646\u0647\u0631\u064a\u0629 \u0644\u0645\u062f\u064a\u0646\u0629 \u0627\u0644\u0645\u0648\u0635\u0644 \u060c \u0646\u0644\u0627\u062d\u0638 \u0638\u0647\u0648\u0631 \u0627\u0644\u062c\u0627\u0645\u0639 \u0627\u0644\u0627\u0645\u0648\u064a \u0641\u064a \u0627\u0644\u0635\u0648\u0631\u0629"
      },
      "geometry": {
        "type": "Point",
        "coordinates": [
          43.1366038,
          36.3484766
        ]
      }
    },
    {
      "type": "Feature",
      "properties": {
        "id": 5,
        "Photo": "Old Photos/Andre Raymond 1982/Fonds_Andr\u00e9_Raymond_(1925-2011)_-_Irak_-_Mossoul_-_Mossoul_vu_de_l'est_(M\u00e9diHAL_4721306).jpg",
        "Descriptio": "\u0635\u0648\u0631\u0629 \u0644\u0644\u0648\u0627\u062c\u0647\u0629 \u0627\u0644\u0646\u0647\u0631\u064a\u0629 \u064a\u0638\u0647\u0631 \u0641\u064a\u0647\u0627 \u062c\u0627\u0645\u0639 \u0634\u064a\u062e \u0627\u0644\u0634\u0637"
      },
      "geometry": {
        "type": "Point",
        "coordinates": [
          43.135956,
          36.3494374
        ]
      }
    },
    {
      "type": "Feature",
      "properties": {
        "id": 7,
        "Photo": "Old Photos/Andre Raymond 1982/Fonds_Andr\u00e9_Raymond_(1925-2011)_-_Irak_-_Mossoul_-_Mosqu\u00e9e_de_Muj\u00e2hid_al-D\u00een_-J\u00e2mi'_al-Khidr_ou_Mosqu\u00e9e_rouge_(M\u00e9diHAL_4785346).jpg",
        "Descriptio": "\u0635\u0648\u0631\u0629 \u0644\u0644\u062c\u0627\u0645\u0639 \u0627\u0644\u0645\u062c\u0627\u0647\u062f\u064a"
      },
      "geometry": {
        "type": "Point",
        "coordinates": [
          43.1396379,
          36.3404145
        ]
      }
    },
    {
      "type": "Feature",
      "properties": {
        "id": 8,
        "Photo": "Old Photos/Andre Raymond 1982/Fonds_Andr\u00e9_Raymond_(1925-2011)_-_Irak_-_Mossoul_-_Mausol\u00e9e_de_l'Imam_Yahya_Ab\u00fb_al-Q\u00e2sim_(M\u00e9diHAL_4785264).jpg",
        "Descriptio": "\u0635\u0648\u0631\u0629 \u0644\u0645\u0631\u0642\u062f \u064a\u062d\u064a\u0649 \u0627\u0628\u0646 \u0627\u0644\u0642\u0627\u0633\u0645"
      },
      "geometry": {
        "type": "Point",
        "coordinates": [
          43.1226417,
          36.3547179
        ]
      }
    },
    {
      "type": "Feature",
      "properties": {
        "id": 9,
        "Photo": "Old Photos/Andre Raymond 1982/Fonds_Andr\u00e9_Raymond_(1925-2011)_-_Irak_-_Mossoul_-_Grande_Mosqu\u00e9e_(M\u00e9diHAL_4773130).jpg",
        "Descriptio": "\u0635\u0648\u0631\u0629 \u062a\u0638\u0647\u0631 \u0645\u062f\u062e\u0644 \u0627\u0644\u062c\u0627\u0645\u0639 \u0627\u0644\u0646\u0648\u0631\u064a"
      },
      "geometry": {
        "type": "Point",
        "coordinates": [
          43.127277,
          36.342536
        ]
      }
    },
    {
      "type": "Feature",
      "properties": {
        "id": 10,
        "Photo": "Old Photos/Andre Raymond 1982/Fonds_Andr\u00e9_Raymond_(1925-2011)_-_Irak_-_Mossoul_-_\u00c9glise_et_couvent_dominicain_de_Notre-Dame_de_l'Heure_(M\u00e9diHAL_4704307).jpg",
        "Descriptio": "\u0635\u0648\u0631\u0629 \u062a\u0638\u0647\u0631 \u0643\u0646\u064a\u0633\u0629 \u0627\u0644\u0633\u0627\u0639\u0629"
      },
      "geometry": {
        "type": "Point",
        "coordinates": [
          43.1266497,
          36.3406905
        ]
      }
    },
    {
      "type": "Feature",
      "properties": {
        "id": 11,
        "Photo": "Old Photos/Andre Raymond 1982/Fonds_Andr\u00e9_Raymond_(1925-2011)_-_Irak_-_Mossoul_-_Quartier_al_Imam_'Aun_al-d\u00een_(M\u00e9diHAL_4703897).jpg",
        "Descriptio": "\u0635\u0648\u0631\u0629 \u0644\u0645\u062f\u062e\u0644 \u0628\u064a\u062a \u0627\u0645\u064a\u0646 \u0628\u0643 \u0627\u0644\u062c\u0644\u064a\u0644\u064a"
      },
      "geometry": {
        "type": "Point",
        "coordinates": [
          43.1295974,
          36.3392929
        ]
      }
    },
    {
      "type": "Feature",
      "properties": {
        "id": 12,
        "Photo": "Old Photos/Andre Raymond 1982/Fonds_Andr\u00e9_Raymond_(1925-2011)_-_Irak_-_Mossoul_-_Mausol\u00e9e_de_l'Imam_'Aun_al-d\u00een_(M\u00e9diHAL_4774409).jpg",
        "Descriptio": "\u0635\u0648\u0631\u0629 \u0644\u0645\u062f\u062e\u0644 \u0645\u0631\u0642\u062f \u0627\u0644\u0627\u0645\u0627\u0645 \u0639\u0648\u0646 \u0627\u0644\u062f\u064a\u0646 \u0627\u0628\u0646 \u0627\u0644\u062d\u0633\u0646"
      },
      "geometry": {
        "type": "Point",
        "coordinates": [
          43.1309885,
          36.3391111
        ]
      }
    },
    {
      "type": "Feature",
      "properties": {
        "id": 13,
        "Photo": "Old Photos/Andre Raymond 1982/Fonds_Andr\u00e9_Raymond_(1925-2011)_-_Irak_-_Mossoul_-_Mausol\u00e9e_de_l'Imam_'Aun_al-d\u00een_(M\u00e9diHAL_4785680).jpg",
        "Descriptio": "\u0635\u0648\u0631\u0629 \u062a\u0638\u0647\u0631 \u0642\u0628\u0629 \u0645\u0631\u0642\u062f \u0627\u0644\u0627\u0645\u0627\u0645 \u0639\u0648\u0646\u064a \u0627\u0644\u062f\u064a\u0646 \u0627\u0628\u0646 \u0627\u0644\u062d\u0633\u0646"
      },
      "geometry": {
        "type": "Point",
        "coordinates": [
          43.1309717,
          36.3388186
        ]
      }
    },
    {
      "type": "Feature",
      "properties": {
        "id": 14,
        "Photo": "Old Photos/Andre Raymond 1982/Fonds_Andr\u00e9_Raymond_(1925-2011)_-_Irak_-_Mossoul_-_Mosqu\u00e9e_Nab\u00ee_Jirjis_(M\u00e9diHAL_4774518).jpg",
        "Descriptio": "\u0635\u0648\u0631\u0629 \u062a\u0638\u0647\u0631 \u062c\u0627\u0645\u0639 \u0648\u0645\u0631\u0642\u062f \u0627\u0644\u0646\u0628\u064a \u062c\u0631\u062c\u064a\u0633"
      },
      "geometry": {
        "type": "Point",
        "coordinates": [
          43.1298685,
          36.3443045
        ]
      }
    },
    {
      "type": "Feature",
      "properties": {
        "id": 15,
        "Photo": "Old Photos/Andre Raymond 1982/Fonds_Andr\u00e9_Raymond_(1925-2011)_-_Irak_-_Mossoul_-_Grande_Mosqu\u00e9e_(M\u00e9diHAL_4773066).jpg",
        "Descriptio": "\u0635\u0648\u0631\u0629 \u062a\u0638\u0647\u0631 \u0641\u064a\u0647\u0627 \u0627\u0644\u0645\u0646\u0627\u0631\u0629 \u0627\u0644\u062d\u062f\u0628\u0627\u0621 \u0645\u0646 \u062f\u0627\u062e\u0644 \u062d\u0631\u0645 \u0627\u0644\u062c\u0627\u0645\u0639 \u0627\u0644\u0646\u0648\u0631\u064a"
      },
      "geometry": {
        "type": "Point",
        "coordinates": [
          43.1264124,
          36.3429289
        ]
      }
    },
    {
      "type": "Feature",
      "properties": {
        "id": 19,
        "Photo": "Old Photos/Andre Raymond 1982/Fonds_Andr\u00e9_Raymond_(1925-2011)_-_Irak_-_Mossoul_-_Bash_Tabiyya_(M\u00e9diHAL_4613358).jpg",
        "Descriptio": "\u0635\u0648\u0631\u0629 \u062a\u0638\u0647\u0631 \u0642\u0644\u0639\u0629 \u0628\u0627\u0634\u0637\u0627\u0628\u064a\u0627 \u0648\u0627\u0644\u062c\u0633\u0631 \u0627\u0644\u062b\u0627\u0644\u062b \u0628\u0639\u062f \u0628\u0646\u0627\u0621\u0647"
      },
      "geometry": {
        "type": "Point",
        "coordinates": [
          43.1221168,
          36.3552534
        ]
      }
    }
  ]
}