{"type":"FeatureCollection","name":"912_Heritage_Buildings","features":[{"type":"Feature","geometry":{"type":"MultiPolygon","coordinates":[[[[43.1311803,36.3460067],[43.1322737,36.3459277],[43.1323498,36.346595],[43.1312519,36.3466714],[43.1311803,36.3460067]]]]},"properties":{"id":26,"Building N":"الجامع الأموي","heritage_identity":"A01/A02:1","heritage_year":912,"heritage_added_from_workbook":"Heritage Buildings Years.xlsx","heritage_workbook_row":11,"heritage_geometry_source_file":"637_Heritage_Buildings.geojson","heritage_geometry_source_record":1,"heritage_geometry_source_year":637}}]}