{
"type": "FeatureCollection",
"name": "Al_Hur_River",
"features": [
{ "type": "Feature", "properties": { "fid": 2 }, "geometry": { "type": "LineString", "coordinates": [ [ 43.0654371, 36.3937723 ], [ 43.0680529, 36.3940629 ], [ 43.0717586, 36.3944989 ], [ 43.0756097, 36.3934816 ], [ 43.0785161, 36.3899213 ], [ 43.0796587, 36.3865665 ], [ 43.0812834, 36.3830572 ], [ 43.083282, 36.3763263 ], [ 43.0873792, 36.3716084 ], [ 43.0925937, 36.3662697 ], [ 43.0981807, 36.3624209 ], [ 43.1058783, 36.3601861 ], [ 43.1117136, 36.3596895 ], [ 43.1149416, 36.3590687 ], [ 43.1211091, 36.356009 ], [ 43.1223984, 36.3535377 ], [ 43.122291, 36.3510664 ], [ 43.1243325, 36.3496696 ], [ 43.1268038, 36.3492398 ], [ 43.1315315, 36.3477356 ], [ 43.133573, 36.3461239 ], [ 43.1351073, 36.3450614 ], [ 43.1371796, 36.3443455 ] ] } }
]
}
