{
"type": "FeatureCollection",
"name": "River_Islands",
"features": [
{ "type": "Feature", "properties": { "id": 1 }, "geometry": { "type": "MultiPolygon", "coordinates": [ [ [ [ 43.0525276, 36.3998713 ], [ 43.0537168, 36.3988983 ], [ 43.0554466, 36.3984659 ], [ 43.0599872, 36.397601 ], [ 43.0632305, 36.3963037 ], [ 43.0649602, 36.3960874 ], [ 43.0674468, 36.3955469 ], [ 43.0690684, 36.3957631 ], [ 43.0720955, 36.3961955 ], [ 43.0724198, 36.3965199 ], [ 43.0707982, 36.398574 ], [ 43.0690684, 36.3997632 ], [ 43.0669062, 36.4008443 ], [ 43.0656089, 36.4014929 ], [ 43.0632305, 36.4019254 ], [ 43.0609602, 36.4012767 ], [ 43.0581493, 36.4005199 ], [ 43.055879, 36.3997632 ], [ 43.0540411, 36.3998713 ], [ 43.0525276, 36.3998713 ] ] ] ] } },
{ "type": "Feature", "properties": { "id": 1 }, "geometry": { "type": "MultiPolygon", "coordinates": [ [ [ [ 43.0865822, 36.3951144 ], [ 43.0900417, 36.3944658 ], [ 43.0922039, 36.3940333 ], [ 43.0944743, 36.3940333 ], [ 43.0959878, 36.3944658 ], [ 43.0982581, 36.3950063 ], [ 43.0987986, 36.3958712 ], [ 43.0980419, 36.3968442 ], [ 43.0968527, 36.3977091 ], [ 43.0949067, 36.3978172 ], [ 43.0933932, 36.3973848 ], [ 43.0917715, 36.3967361 ], [ 43.089285, 36.3964118 ], [ 43.0874471, 36.3963037 ], [ 43.0859336, 36.3959793 ], [ 43.0860417, 36.3954388 ], [ 43.0865822, 36.3951144 ] ] ] ] } },
{ "type": "Feature", "properties": { "id": 1 }, "geometry": { "type": "MultiPolygon", "coordinates": [ [ [ [ 43.0928526, 36.3920874 ], [ 43.0926364, 36.3910063 ], [ 43.0928526, 36.3896008 ], [ 43.0937175, 36.3879792 ], [ 43.0943661, 36.3865738 ], [ 43.0955554, 36.384844 ], [ 43.0978257, 36.383871 ], [ 43.1002041, 36.383871 ], [ 43.1021501, 36.3840872 ], [ 43.104096, 36.3851683 ], [ 43.1044204, 36.3863575 ], [ 43.1044204, 36.3872224 ], [ 43.1043123, 36.3885197 ], [ 43.1042041, 36.3896008 ], [ 43.1033393, 36.3906819 ], [ 43.1026906, 36.3923036 ], [ 43.1008527, 36.3936009 ], [ 43.0989068, 36.3940333 ], [ 43.0979338, 36.3934928 ], [ 43.0967446, 36.3925198 ], [ 43.0946905, 36.3923036 ], [ 43.0928526, 36.3920874 ] ] ] ] } },
{ "type": "Feature", "properties": { "id": 1 }, "geometry": { "type": "MultiPolygon", "coordinates": [ [ [ [ 43.1324038, 36.3518686 ], [ 43.1329093, 36.3515654 ], [ 43.1334148, 36.3519697 ], [ 43.1340213, 36.3530817 ], [ 43.1349311, 36.3552047 ], [ 43.1358409, 36.3577319 ], [ 43.1367508, 36.3596527 ], [ 43.1371551, 36.3624832 ], [ 43.1375595, 36.3650105 ], [ 43.1384693, 36.3678411 ], [ 43.1393791, 36.3703683 ], [ 43.1394802, 36.372188 ], [ 43.1394802, 36.374412 ], [ 43.1393791, 36.3756251 ], [ 43.1384693, 36.376636 ], [ 43.1366497, 36.3775458 ], [ 43.1341224, 36.3780513 ], [ 43.1319995, 36.3781524 ], [ 43.1297755, 36.3780513 ], [ 43.1269449, 36.3782534 ], [ 43.1247209, 36.3791633 ], [ 43.1228002, 36.3803764 ], [ 43.1215871, 36.381084 ], [ 43.120374, 36.3809829 ], [ 43.1202729, 36.3803764 ], [ 43.1201718, 36.3795676 ], [ 43.1205762, 36.3786578 ], [ 43.1212838, 36.3774447 ], [ 43.1217893, 36.3759283 ], [ 43.1219915, 36.3739065 ], [ 43.1222947, 36.3724912 ], [ 43.1233056, 36.3714803 ], [ 43.1247209, 36.3702672 ], [ 43.125934, 36.3686498 ], [ 43.1269449, 36.3675378 ], [ 43.1282591, 36.3657181 ], [ 43.1290678, 36.3638985 ], [ 43.1294722, 36.3616745 ], [ 43.1293711, 36.3602592 ], [ 43.1293711, 36.3582374 ], [ 43.1294722, 36.3571254 ], [ 43.1324038, 36.3518686 ] ] ] ] } },
{ "type": "Feature", "properties": { "id": 1 }, "geometry": { "type": "MultiPolygon", "coordinates": [ [ [ [ 43.1108714, 36.3841167 ], [ 43.1088496, 36.3836113 ], [ 43.1073332, 36.3823982 ], [ 43.1066256, 36.3815895 ], [ 43.1050081, 36.3794665 ], [ 43.1046038, 36.3773436 ], [ 43.1048059, 36.3748163 ], [ 43.1058169, 36.3719858 ], [ 43.1058169, 36.3687509 ], [ 43.1069289, 36.3663247 ], [ 43.1084452, 36.3642018 ], [ 43.110366, 36.363292 ], [ 43.1119834, 36.3625843 ], [ 43.1138031, 36.3615734 ], [ 43.1160271, 36.3609669 ], [ 43.1169369, 36.3598548 ], [ 43.1183522, 36.3587428 ], [ 43.1197674, 36.3582374 ], [ 43.1216882, 36.357833 ], [ 43.1231035, 36.3568221 ], [ 43.1243165, 36.3559123 ], [ 43.125934, 36.3549014 ], [ 43.1273493, 36.354497 ], [ 43.1275515, 36.3553057 ], [ 43.1272482, 36.3565188 ], [ 43.125934, 36.3582374 ], [ 43.1262373, 36.3606636 ], [ 43.1258329, 36.3628876 ], [ 43.1247209, 36.3654149 ], [ 43.1230024, 36.36774 ], [ 43.1204751, 36.3703683 ], [ 43.1193631, 36.3724912 ], [ 43.1182511, 36.374412 ], [ 43.1177456, 36.3765349 ], [ 43.1173413, 36.3783545 ], [ 43.1160271, 36.3804775 ], [ 43.1150162, 36.3824993 ], [ 43.1133987, 36.3842178 ], [ 43.1118823, 36.3848244 ], [ 43.1108714, 36.3841167 ] ] ] ] } },
{ "type": "Feature", "properties": { "id": 1 }, "geometry": { "type": "MultiPolygon", "coordinates": [ [ [ [ 43.0877794, 36.3934172 ], [ 43.0853104, 36.3937971 ], [ 43.0839809, 36.3933222 ], [ 43.0822715, 36.3927524 ], [ 43.0803722, 36.3920877 ], [ 43.0791377, 36.3910431 ], [ 43.0788528, 36.3901884 ], [ 43.0797075, 36.3889539 ], [ 43.0823665, 36.3868647 ], [ 43.0860701, 36.3842056 ], [ 43.0885392, 36.3817366 ], [ 43.0902485, 36.3799322 ], [ 43.0925277, 36.377938 ], [ 43.0939521, 36.3754689 ], [ 43.0949967, 36.3735696 ], [ 43.0960414, 36.3717653 ], [ 43.0982255, 36.3695811 ], [ 43.1001248, 36.3685365 ], [ 43.1019291, 36.3681567 ], [ 43.1036385, 36.3673969 ], [ 43.1044932, 36.367302 ], [ 43.1044932, 36.3680617 ], [ 43.1041133, 36.3692962 ], [ 43.1039234, 36.3712905 ], [ 43.1033536, 36.3733797 ], [ 43.1034486, 36.3750891 ], [ 43.1033536, 36.3775581 ], [ 43.1029738, 36.3790776 ], [ 43.1019291, 36.3800272 ], [ 43.099745, 36.3804071 ], [ 43.0967061, 36.3811668 ], [ 43.0954716, 36.3815466 ], [ 43.0940471, 36.3826862 ], [ 43.0928126, 36.3852503 ], [ 43.091578, 36.3881942 ], [ 43.0905334, 36.3907582 ], [ 43.0891089, 36.3926575 ], [ 43.0877794, 36.3934172 ] ] ] ] } },
{ "type": "Feature", "properties": { "id": 1 }, "geometry": { "type": "MultiPolygon", "coordinates": [ [ [ [ 43.1005996, 36.3951266 ], [ 43.1016443, 36.393987 ], [ 43.1033536, 36.3937021 ], [ 43.1041133, 36.3934172 ], [ 43.104873, 36.3925625 ], [ 43.1059177, 36.391328 ], [ 43.1060126, 36.3900934 ], [ 43.1058227, 36.3883841 ], [ 43.1061076, 36.3865798 ], [ 43.1064874, 36.3853452 ], [ 43.1085767, 36.3854402 ], [ 43.1095263, 36.385915 ], [ 43.1110457, 36.3861049 ], [ 43.1123752, 36.3865798 ], [ 43.1123752, 36.3877193 ], [ 43.1119004, 36.388574 ], [ 43.1096213, 36.3901884 ], [ 43.1069623, 36.3921827 ], [ 43.1067723, 36.3931323 ], [ 43.1067723, 36.3941769 ], [ 43.1062025, 36.3950316 ], [ 43.1046831, 36.3955064 ], [ 43.1020241, 36.3958863 ], [ 43.1006946, 36.3958863 ], [ 43.1005996, 36.3951266 ] ] ] ] } }
]
}
